,site_id,activationDate,city,csv_name,latitude,line1,longitude,name,postal,state,timezone,address
0,3,2008-07-18,Waltham,,42.371,1 Spruce St.,-71.2396,Bird Precision,2453,MA,-5:00,"1 Spruce St. Waltham, MA 2453"
1,9,2008-10-17,Westborough,,42.2845,126 Turnpike Rd.,-71.6069,,1581,MA,-5:00,"126 Turnpike Rd. Westborough, MA 1581"
2,23,2009-02-12,Ashland,,42.2495,162 Pond Street,-71.4284,126 Self Storage - 19kW,1721,MA,-5:00,"162 Pond Street Ashland, MA 1721"
3,27,2012-05-26,,,42.281815,45 Oaks Street_,-71.728883,Flo's#2 012345678,1545,,-5:00,"45 Oaks Street_ ,  1545"
4,37,2009-01-10,Northborough,Rehill,42.3195,,-71.6412,Rehill Residence,1532,MA,-5:00," Northborough, MA 1532"
5,38,2009-04-23,Sudbury,,42.3847,,-71.4181,Hamilton Residence,1776,MA,-5:00," Sudbury, MA 1776"
6,42,2009-03-17,Shelton,Honey,41.280708,600 Bridgeport Ave.,-73.11837,Honey Cell,6484,CT,-5:00,"600 Bridgeport Ave. Shelton, CT 6484"
7,45,2009-02-25,Darien,Wee,41.087771,410 Hollow Tree Ridge Rd.,-73.49895699999998,Wee Burn Country Club,6820,CT,-5:00,"410 Hollow Tree Ridge Rd. Darien, CT 6820"
8,47,2009-02-03,Worcester,Boucher,42.2321,5 Orrison St.,-71.7919,Boucher Residence - Worcester,1607,MA,-5:00,"5 Orrison St. Worcester, MA 1607"
9,51,2010-06-15,Greenwich,Greenwich,41.517761,500 W. Putnam Ave.,-72.75753,Greenwich Premier Services,6830,CT,-5:00,"500 W. Putnam Ave. Greenwich, CT 6830"
10,71,2009-04-23,Waltham,,42.3699,38A Yetten Terrace,-71.2297,Spencer Organ Company,2453,MA,-5:00,"38A Yetten Terrace Waltham, MA 2453"
11,88,2009-05-17,Griswold,,41.5961,,-71.9283,Davis Residence - Griswold,6351,CT,-5:00," Griswold, CT 6351"
12,113,2010-04-17,Danbury,,41.3756,,-73.4534,Owl Power Company,6810,CT,-5:00," Danbury, CT 6810"
13,141,2009-08-14,Hollister,Ferreira,36.831764,1131 Union Heights Rd,-121.426,Ferreira Residence,95023,CA,-8:00,"1131 Union Heights Rd Hollister, CA 95023"
14,142,2009-08-11,Medfield,,42.1876,,-71.3064,Suojanen Residence,2052,MA,-5:00," Medfield, MA 2052"
15,143,2009-08-12,Maynard,,42.4249,,-71.4596,Augustine Residence,1754,MA,-5:00," Maynard, MA 1754"
16,144,2009-08-07,Wocester,,42.2321,,-71.7919,Boover Residence,1607,MA,-5:00," Wocester, MA 1607"
17,145,2009-08-07,South grafton,Kjellberg,42.1744,,-71.6733,Kjellberg Residence,1560,MA,-5:00," South grafton, MA 1560"
18,146,2009-09-10,Dudley,,42.0582,,-71.9283,Buffum Residence,1571,MA,-5:00," Dudley, MA 1571"
19,148,2010-11-02,Lawrence,,42.4191,360 Merrimack Street1,-71.0086,SolrenView test Site's,x,MA,-5:00,"360 Merrimack Street1 Lawrence, MA x"
20,162,2009-09-08,Acton,,42.4836,,-71.4418,Parker Family,1720,MA,-5:00," Acton, MA 1720"
21,164,2009-09-14,Stamford,,41.060081,222 Selleck St,-73.545097,JB Moving,6902,CT,-5:00,"222 Selleck St Stamford, CT 6902"
22,177,2009-09-30,Lancaster,,42.4851,,-71.6792,"Davis Residence - Lancaster, MA",1523,MA,-5:00," Lancaster, MA 1523"
23,183,2009-10-26,Framingham,Monnick,42.272301,759 Waverly St.,-71.429105,Monnick Supply,1702,MA,-5:00,"759 Waverly St. Framingham, MA 1702"
24,191,2009-12-08,Canon city,Lincoln,38.432633,420 Myrtle,-105.23929,Lincoln Elementary School,81212,CO,-7:00,"420 Myrtle Canon city, CO 81212"
25,195,2010-02-18,Dennis port,Stage,41.6657,411 Main Street,-70.131622,Stage Stop Candy,2639,MA,-5:00,"411 Main Street Dennis port, MA 2639"
26,197,2009-12-02,Canon city,Skyline,38.4677,2855 N. 9th St.,-105.23891,Skyline Elementary School,81212,CO,-7:00,"2855 N. 9th St. Canon city, CO 81212"
27,199,2009-11-11,Rutland,,42.3695,,-71.9481,Kennedy Residence - Rutland,1543,MA,-5:00," Rutland, MA 1543"
28,200,2009-11-03,Worcester,,42.2705,,-71.8512,Dick Residence,1602,MA,-5:00," Worcester, MA 1602"
29,206,2009-10-28,New bedford,Lighthouse,41.726449,,-70.96384499999998,Lighthouse Masonry,2747,MA,-5:00," New bedford, MA 2747"
30,207,2009-11-11,Berlin,,42.361125,,-71.62859399999998,Holiday Farm,1503,MA,-5:00," Berlin, MA 1503"
31,208,2009-11-30,West brookfield,Lapine,42.4072,,-71.3824,Lapine residence,x,MA,-5:00," West brookfield, MA x"
32,222,2010-01-06,Canon city,Canon,38.445087,1215 main Street,-105.23146,Canon City Middle School System,81212,CO,-7:00,"1215 main Street Canon city, CO 81212"
33,229,2009-12-22,Canon city,McKinley,38.431502,1240 McKinley St.,-105.21424,McKinley Elementary School,81212,CO,-7:00,"1240 McKinley St. Canon city, CO 81212"
34,238,2009-12-02,Concord,Pierce,42.459915,,-71.347799,Pierce Residence,1742,MA,-5:00," Concord, MA 1742"
35,239,2009-03-01,Canon city,Canon,38.44980200000001,1313 College Ave,-105.23292,Canon City High School,81212,CO,-7:00,"1313 College Ave Canon city, CO 81212"
36,241,2010-01-11,Canon city,Harrison,38.460568,920 Feild Avenue,-105.25342,Harrison Middle School,81212,CO,-7:00,"920 Feild Avenue Canon city, CO 81212"
37,247,2010-04-01,Northborough,Fite,42.310129,,-71.655451,Fite Residence,1532,MA,-5:00," Northborough, MA 1532"
38,253,2009-12-11,Canon city,Canon,38.46055,1030 S. 4st,-105.25359,Canon City Bus Garage,81212,CO,-7:00,"1030 S. 4st Canon city, CO 81212"
39,254,2010-01-06,Canon city,Washington,38.477871,606 N. 9th St.,-105.36821,Washington Elementary School,81212,CO,-7:00,"606 N. 9th St. Canon city, CO 81212"
40,270,2012-09-17,Harvard,Brandom,42.5164,239 Old Littleton Road,-71.5475,Brandom Residence,1451,MA,-5:00,"239 Old Littleton Road Harvard, MA 1451"
41,273,2010-03-09,Hudson,Rykbost,42.39117,,-71.567684,Rykbost Residence,1749,MA,-5:00," Hudson, MA 1749"
42,321,2010-04-07,Framingham,,42.273418,701 Waverly Street,-71.426969,Conigliaro Industries,1702,MA,-5:00,"701 Waverly Street Framingham, MA 1702"
43,330,2010-05-04,Canton,,41.818673,50 Old River Rd.,-72.92204699999998,Canton Water Pollution Control Facility,6019,CT,-5:00,"50 Old River Rd. Canton, CT 6019"
44,352,2010-04-29,Windsor,,41.851755,,-72.643514,Site 149,6095,CT,-5:00," Windsor, CT 6095"
45,375,2010-07-08,Grafton,,42.21112,24 Providence Rd.,-71.69230300000002,Grafton High School,1519,MA,-5:00,"24 Providence Rd. Grafton, MA 1519"
46,379,2010-07-15,Needham,,42.286848,307 Brookline St.,-71.22755,Kaufman-Kraft House,2492,MA,-5:00,"307 Brookline St. Needham, MA 2492"
47,393,2010-01-11,Rocky ford,Rocky,38.047023,709 S. 11th St.,-103.72032,Rocky Ford - Washington Primary School,81067,CO,-7:00,"709 S. 11th St. Rocky ford, CO 81067"
48,394,2010-06-21,Rocky ford,Rocky,38.045826,901 S. 11th St.,-103.72039,Rocky Ford - Jefferson Middle School,81067,CO,-7:00,"901 S. 11th St. Rocky ford, CO 81067"
49,396,2010-06-23,Rocky ford,Rocky,38.043964,100 W. Washington,-103.73298,Rocky Ford High School - AG Building,81067,CO,-7:00,"100 W. Washington Rocky ford, CO 81067"
50,397,2010-06-11,Rocky ford,Rocky,38.043964,100 W. Washington,-103.73298,Rocky Ford High School,81067,CO,-7:00,"100 W. Washington Rocky ford, CO 81067"
51,398,2010-05-17,Rocky ford,,38.043964,100 W. Washington,-103.73298,Rocky Ford High School - Bus Garage,81067,CO,-7:00,"100 W. Washington Rocky ford, CO 81067"
52,409,2010-06-10,Marlborough,Fix,42.346806,,-71.54799100000002,Fix Residence,1752,MA,-5:00," Marlborough, MA 1752"
53,410,2010-06-09,Jefferson,Haran_Costello,42.38034860000001,,-71.8864407,Haran-Costello Residence,1522,MA,-5:00," Jefferson, MA 1522"
54,411,2010-06-10,Lunenburg,Contaxes,42.594714,,-71.726229,Contaxes Residence,1462,MA,-5:00," Lunenburg, MA 1462"
55,412,2010-06-10,Roslindale,Gag,42.286625,,-71.13136899999998,Gag Residence,2101,MA,-5:00," Roslindale, MA 2101"
56,413,2010-06-09,Jefferson,Jefferson,42.362235,,-71.8862,"Jefferson Residence, - Jefferson, MA",1522,MA,-5:00," Jefferson, MA 1522"
57,419,2010-06-09,Westborough,Simpson,42.283096,,-71.600318,Simpson Residence,1582,MA,-5:00," Westborough, MA 1582"
58,421,2010-06-10,Holden,MSF_V,42.346587,,-71.85561700000002,MSF/V,1520,MA,-5:00," Holden, MA 1520"
59,423,2010-07-15,Westminster,Herriott,42.579587,,-71.890514,Herriott Residence,1473,MA,-5:00," Westminster, MA 1473"
60,437,2010-09-23,Woodstock,,41.954505,,-71.98105600000002,DCS#142,6281,CT,-5:00," Woodstock, CT 6281"
61,438,2010-07-02,Harvard,Arnold,42.53494,,-71.585165,Arnold Residence - Harvard,1451,MA,-5:00," Harvard, MA 1451"
62,444,2010-07-01,Framingham,,42.274484,10 Roxanna St,-71.410842,Suburban Athletic Club,1702,MA,-5:00,"10 Roxanna St Framingham, MA 1702"
63,446,2010-09-20,,Leitheiser,0.0,,0.0,Leitheiser Residence,x,,-5:00,none
64,448,2010-08-20,Revere,Savage,42.4084,,-71.012,Savage Residence,x,MA,-5:00," Revere, MA x"
65,450,2010-07-14,,Sprayregen,0.0,,0.0,Sprayregen Residence,x,,-5:00,none
66,474,2010-07-30,Hebron,,41.6581,33 Pendleton Dr,-72.3612,,6248,CT,-5:00,"33 Pendleton Dr Hebron, CT 6248"
67,482,2010-07-28,Columbia,DCS,41.6956,,-72.3074,DCS 164,6237,CT,-5:00," Columbia, CT 6237"
68,496,2010-08-13,Charlton,Nature_s,42.1425,,-71.9757,Nature's Classroom - East Lodge,1507,MA,-5:00," Charlton, MA 1507"
69,500,2010-11-01,Byfield,The,42.7497,1 Elm St.,-70.8983,The Governor's Academy - Gym,1922,MA,-5:00,"1 Elm St. Byfield, MA 1922"
70,518,2010-08-26,Sherborn,Grey,42.2583,,-71.3769,Grey Residence,1770,MA,-5:00," Sherborn, MA 1770"
71,519,2010-08-27,Northborough,Bissett,42.3483,,-71.6774,Bissett Residence,1532,MA,-5:00," Northborough, MA 1532"
72,521,2010-12-10,Pepperell,Prozeller,42.6659,,-71.5884,Prozeller Residence,1463,MA,-5:00," Pepperell, MA 1463"
73,522,2010-09-02,Gardner,Boucher,42.5775,,-71.9961,Boucher Residence - Gardner,1440,MA,-5:00," Gardner, MA 1440"
74,529,2010-09-16,Bolton,Barshak,42.4118,,-71.5776,Barshak Residence,1740,MA,-5:00," Bolton, MA 1740"
75,530,2010-10-09,Sudbury,Noyes,42.3819,280 Old Sudbury Road,-71.4103,Noyes School,1776,MA,-5:00,"280 Old Sudbury Road Sudbury, MA 1776"
76,545,2011-04-06,Chelmsford,,42.5998,50 Doak Dr.,-71.3673,Chelmsford 3G - Crooked Spring Water Treatment,1824,MA,-5:00,"50 Doak Dr. Chelmsford, MA 1824"
77,546,2011-02-22,Everett,National,42.4117,,-71.0724,"National Grid - Everett, MA 3",2149,MA,-5:00," Everett, MA 2149"
78,558,2010-11-11,Hopkinton,SED,42.2187,89 Hayden Rowe St.,-71.5157,SED - Honey Hill Farms,1748,MA,-5:00,"89 Hayden Rowe St. Hopkinton, MA 1748"
79,561,2010-11-22,Falmouth,,41.5598,,-70.624,Falmouth Academy,2540,MA,-5:00," Falmouth, MA 2540"
80,564,2010-11-30,Grafton,Meichelbeck,42.22,,-71.6445,Meichelbeck Residence,1568,MA,-5:00," Grafton, MA 1568"
81,567,2010-09-30,Moodus,,41.5089,,-72.4436,DCS 180,6469,CT,-5:00," Moodus, CT 6469"
82,569,2010-11-16,Mansfield,,41.4848,,-72.267,DCS 201,6426,CT,-5:00," Mansfield, CT 6426"
83,570,2010-10-07,Bristol,,41.6751,,-72.9224,DCS 202,6010,CT,-5:00," Bristol, CT 6010"
84,571,2010-10-03,Lebanon,,41.6418,,-72.2127,DCS 191,6249,CT,-5:00," Lebanon, CT 6249"
85,574,2010-10-15,Salem,,41.4945,,-72.2601,DCS 198,6420,CT,-5:00," Salem, CT 6420"
86,576,2010-09-24,Salem,,41.4945,,-72.2601,DCS 200,6420,CT,-5:00," Salem, CT 6420"
87,585,2011-08-01,Fall river,Precise,41.7406,927 Currant Rd,-71.1073,Precise Packaging,2720,MA,-5:00,"927 Currant Rd Fall river, MA 2720"
88,614,2010-10-30,Boston,,42.3584,924 Harrison Ave.,-71.0598,Boston Water and Sewer Commission (BWSC),2118,MA,-5:00,"924 Harrison Ave. Boston, MA 2118"
89,630,2011-08-22,Bolton,Senie,42.4334,,-71.6078,Senie Residence,1740,MA,-5:00," Bolton, MA 1740"
90,631,2010-11-03,Lebanon,,41.6418,,-72.2127,DCS 205,6249,CT,-5:00," Lebanon, CT 6249"
91,632,2010-11-19,South woodstock,,41.9379,,-71.9595,DCS 211,6267,CT,-5:00," South woodstock, CT 6267"
92,637,2011-11-18,Ashbernham,,42.6355,,-71.9097,Wright Hay Barn,1430,MA,-5:00," Ashbernham, MA 1430"
93,643,2011-03-15,Rochester,,41.7873,476 North Ave,-70.8744,Old Colony Vocational School,2770,MA,-5:00,"476 North Ave Rochester, MA 2770"
94,644,2010-11-19,Natick,Fuhro,42.2871,,-71.3592,Fuhro Residence,1760,MA,-5:00," Natick, MA 1760"
95,645,2011-09-12,Sherborn,,42.2468,26 North Main St.,-71.3687,Rose's Automotive,1770,MA,-5:00,"26 North Main St. Sherborn, MA 1770"
96,647,2010-12-08,Harvard,Beale,42.5523,,-71.5726,Beale Residence,1415,MA,-5:00," Harvard, MA 1415"
97,655,2010-12-16,Oxford,Great,41.4233,50 Great Oak Rd.,-73.1402,Great Oak Middle School,6478,CT,-5:00,"50 Great Oak Rd. Oxford, CT 6478"
98,669,2011-04-19,Grafton,Hill,42.1993,,-71.6792,Hill Residence,1519,MA,-5:00," Grafton, MA 1519"
99,682,2011-02-22,Everett,National,42.4117,,-71.0724,"National Grid - Everett, MA",2149,MA,-5:00," Everett, MA 2149"
100,694,2011-01-07,Belmont,Brownsberger,42.3959,,-71.1787,Brownsberger Residence,x,MA,-5:00," Belmont, MA x"
101,695,2010-12-21,Ashland,,42.2611,159 Chestnut St.,-71.4639,Boston BioProducts,1721,MA,-5:00,"159 Chestnut St. Ashland, MA 1721"
102,704,2010-10-19,Colchester,,41.5757,,-72.332,DCS 262,6415,CT,-5:00," Colchester, CT 6415"
103,706,2011-01-13,East granby,,41.9543,,-72.3023,DCS 250,6026,CT,-5:00," East granby, CT 6026"
104,708,2010-12-03,Woodstock,McHenry,42.3147,2200 N. Seminary Ave.,-88.4487,McHenry County Administration Building,60098,IL,-6:00,"2200 N. Seminary Ave. Woodstock, IL 60098"
105,715,2010-12-21,Revere,National,42.4191,24 Railroad Ave.,-71.0086,"National Grid - Revere, MA",2151,MA,-5:00,"24 Railroad Ave. Revere, MA 2151"
106,716,2010-12-29,Haverhill,National,42.7952,89 Hilldale Ave.,-71.0576,National Grid - Haverhill,1832,MA,-5:00,"89 Hilldale Ave. Haverhill, MA 1832"
107,726,2011-01-06,Cromwell,Edna,41.62,25 Court Street,-72.6583,Edna C. Stevens Elementary School,6416,CT,-5:00,"25 Court Street Cromwell, CT 6416"
108,744,2011-07-19,East hanover,,40.8193,220 Merry Lane,-74.3457,Weiss - Aug,7936,NJ,-5:00,"220 Merry Lane East hanover, NJ 7936"
109,761,2012-12-01,Harvard,,42.4972,27 Mass Ave,-71.5826,Hildreth Elementary School,1451,MA,-5:00,"27 Mass Ave Harvard, MA 1451"
110,788,2011-04-19,Southbridge,Santos,42.0751,,-72.0334,Santos Residence,x,MA,-5:00," Southbridge, MA x"
111,791,2011-02-18,Westborough,Westborough,42.2752,113 Milk St,-71.6229,Westborough Solar Farm,x,MA,-5:00,"113 Milk St Westborough, MA x"
112,806,2011-03-28,Hanover,,42.1223,596 Washington Street,-70.8251,Planet Subaru,2339,MA,-5:00,"596 Washington Street Hanover, MA 2339"
113,812,2010-12-21,Revere,National,42.4191,,-71.0086,"National Grid - Revere, MA 2",2151,MA,-5:00," Revere, MA 2151"
114,820,2011-01-08,Stamford,,41.1404,641 Scofieldtown Road,-73.5564,Scofield Magnet School,6901,CT,-5:00,"641 Scofieldtown Road Stamford, CT 6901"
115,843,2011-03-29,North andover,Brooks,42.6696,,-71.0854,Brooks School,1845,MA,-5:00," North andover, MA 1845"
116,853,2011-02-22,Everett,National,42.4117,,-71.0724,"National Grid - Everett, MA 2",2149,MA,-5:00," Everett, MA 2149"
117,860,2011-04-13,Rincon,Effingham,32.296,2940 Highway 21 S.,-81.2354,,31326,GA,-5:00,"2940 Highway 21 S. Rincon, GA 31326"
118,862,2011-04-26,Ashburnham,Leblanc,42.6682,,-71.9283,Leblanc Residence - Ashburnham,1430,MA,-5:00," Ashburnham, MA 1430"
119,863,2011-05-02,Ashburnham,Wright,42.6682,,-71.9283,Wright Residence - Ashburnham,1430,MA,-5:00," Ashburnham, MA 1430"
120,864,2011-04-24,Acton,Lewin_Berlin,42.4836,,-71.4418,Lewin-Berlin Residence,1720,MA,-5:00," Acton, MA 1720"
121,866,2011-09-15,Billerica,,42.5465,1100 Technology Park Dr,-71.2518,GE Sensing,1821,MA,-5:00,"1100 Technology Park Dr Billerica, MA 1821"
122,867,2010-11-22,Rutland,Zglobicki,42.3695,,-71.9481,Zglobicki Residence,x,MA,-5:00," Rutland, MA x"
123,870,2011-04-22,Ashland,Shander_Reynolds,42.2611,,-71.4639,Shander-Reynolds,x,MA,-5:00," Ashland, MA x"
124,871,2010-12-29,Haverhill,National,42.7762,,-71.0773,National Grid - Haverhill 2,1830,MA,-5:00," Haverhill, MA 1830"
125,880,2011-04-28,Cromwell,Cromwell,41.6275,6 Mann Memorial Dr.,-72.6562,Cromwell Middle School,6416,CT,-5:00,"6 Mann Memorial Dr. Cromwell, CT 6416"
126,895,2010-12-29,Haverhill,National,42.7762,,-71.0773,National Grid - Haverhill 3,1830,MA,-5:00," Haverhill, MA 1830"
127,918,2011-05-24,Dedham,Dedham,42.2418,140 Whiting Ave.,-71.1662,Dedham High School,2026,MA,-5:00,"140 Whiting Ave. Dedham, MA 2026"
128,919,2011-05-24,Fall river,,41.7469,1140 Airport Rd.,-71.1106,Precise Packaging Inc.,2720,MA,-5:00,"1140 Airport Rd. Fall river, MA 2720"
129,920,2011-08-05,Milford,,42.1398,393 Fortune Blvd.,-71.5162,Clarke Distribution Corporation,1757,MA,-5:00,"393 Fortune Blvd. Milford, MA 1757"
130,935,2011-06-06,Leominster,Erb,42.5251,,-71.7598,Erb Residence,1453,MA,-5:00," Leominster, MA 1453"
131,948,2011-06-16,Framingham,Saxonville,42.3251,2 Central St.,-71.4001,Saxonville Mill,10702,MA,-5:00,"2 Central St. Framingham, MA 10702"
132,977,2011-07-18,Lincoln,GEM,41.911,1 Wellington Rd.,-71.4418,,2865,RI,-5:00,"1 Wellington Rd. Lincoln, RI 2865"
133,979,2011-07-21,Franklin,JEM,42.0834,23 National Dr.,-71.3967,"JEM Electronics, Inc.",2038,MA,-5:00,"23 National Dr. Franklin, MA 2038"
134,988,2011-08-04,Santa barbara,Hope,34.4447,,-119.754,Hope School District,93101,CA,-8:00," Santa barbara, CA 93101"
135,1011,2011-08-12,Hyannis,,41.701,617 Bearses Way,-70.3063,Barnstable - WPCF,2601,MA,-5:00,"617 Bearses Way Hyannis, MA 2601"
136,1015,2011-08-25,Acton,Mangeolle,42.485,,-71.4333,Mangeolle Residence,1720,MA,-5:00," Acton, MA 1720"
137,1017,2011-08-26,Harvard,Williams,42.5,,-71.5833,Williams Residence,1451,MA,-5:00," Harvard, MA 1451"
138,1018,2011-08-29,Rutland,Lussier,42.3694,,-71.9486,Lussier Residence,1543,MA,-5:00," Rutland, MA 1543"
139,1028,2011-08-26,Fitchburg,,42.5561,640 Crawford St.,-71.7531,Hi-Gear,1420,MA,-5:00,"640 Crawford St. Fitchburg, MA 1420"
140,1036,2011-09-07,Ashburham,St,42.6682,,-71.9283,St Cyr Residence,1430,MA,-5:00," Ashburham, MA 1430"
141,1037,2011-09-29,Harvard,Tonge,42.5,,-71.5833,Tonge Residence,1451,MA,-5:00," Harvard, MA 1451"
142,1049,2011-08-16,Ashland,126,42.2493,162 Pond Street,-71.4284,126 Self Storage - 481kW,1721,MA,-5:00,"162 Pond Street Ashland, MA 1721"
143,1053,2011-09-14,Northboro,Hogan,42.3289,,-71.6555,Hogan Residence,1532,MA,-5:00," Northboro, MA 1532"
144,1068,2011-09-27,Harvard,Landeryou,42.5,,-71.5833,Landeryou Residence,1451,MA,-5:00," Harvard, MA 1451"
145,1069,2011-09-27,Harvard,Clark,42.5,,-71.5833,Clark Residence - Harvard,1451,MA,-5:00," Harvard, MA 1451"
146,1070,2011-09-27,Harvard,Tuttle,42.5,,-71.5833,Tuttle Residence,1451,MA,-5:00," Harvard, MA 1451"
147,1071,2011-09-27,Harvard,Aciukewicz,42.5,,-71.5833,Aciukewicz Residence,1451,MA,-5:00," Harvard, MA 1451"
148,1075,2011-09-29,Harvard,M,42.5,,-71.5833,M Taylor Residence,1451,MA,-5:00," Harvard, MA 1451"
149,1076,2011-09-29,Harvard,Basile,42.5,,-71.5833,Basile Residence,1451,MA,-5:00," Harvard, MA 1451"
150,1077,2011-09-29,Harvard,Marder,42.4923,224 Still River Rd.,-71.6173,Marder PV,1467,MA,-5:00,"224 Still River Rd. Harvard, MA 1467"
151,1093,2011-12-22,Smyrna,Smyrna,35.9828,278 Doug Warpoole Rd.,-86.5186,Smyrna LLC / Rutherford County Airport,37167,TN,-6:00,"278 Doug Warpoole Rd. Smyrna, TN 37167"
152,1097,2011-10-12,Billerica,EMD,42.5281,45A Middlesex Tpke.,-71.2572,EMD Serono Research Center,1821,MA,-5:00,"45A Middlesex Tpke. Billerica, MA 1821"
153,1103,2011-10-13,Ashbernham,Eddy,42.6355,,-71.9097,Eddy Residence,1430,MA,-5:00," Ashbernham, MA 1430"
154,1113,2011-10-17,Baltimore,Arbors,39.3515,11550 Crossroads Circle,-76.3753,Arbors at Baltimore Crossroads,21220,MD,-5:00,"11550 Crossroads Circle Baltimore, MD 21220"
155,1126,2011-10-24,New bedford,Victoria,41.6382,10 Manomet St,-70.9368,Victoria Riverside LLC,2740,MA,-5:00,"10 Manomet St New bedford, MA 2740"
156,1130,2012-08-22,Millbury,,42.7015,50 Route 20,-71.1249,Upper Blackstone Water Pollution Abatement District,1527,MA,-5:00,"50 Route 20 Millbury, MA 1527"
157,1135,2011-12-19,Dorchester,National,42.2905,220 Victory Rd.,-71.0415,National Grid - Dorchester,2122,MA,-5:00,"220 Victory Rd. Dorchester, MA 2122"
158,1138,2011-11-01,Acton,,42.485,,-71.4333,Chigas Residence,1720,MA,-5:00," Acton, MA 1720"
159,1163,2012-07-24,Charlton,OMA,42.1447,157 Worcester Rd,-71.9653,OMA Group,1507,MA,-5:00,"157 Worcester Rd Charlton, MA 1507"
160,1168,2011-11-17,Fitchburg,Paradise,42.5834,,-71.8023,Paradise Residence,1420,MA,-5:00," Fitchburg, MA 1420"
161,1203,2011-12-06,Harvard,Ames,42.5,,-71.5833,Ames Residence,1451,MA,-5:00," Harvard, MA 1451"
162,1209,2011-08-03,Sandston,Million,37.5077,,-77.252,Million Air,23150,VA,-5:00," Sandston, VA 23150"
163,1213,2011-12-14,Fitchburg,Tuomala,42.5834,,-71.8023,Tuomala Residence,1420,MA,-5:00," Fitchburg, MA 1420"
164,1214,2011-12-14,Harvard,Snyder,42.5,,-71.5833,Snyder G Residence - Harvard,1451,MA,-5:00," Harvard, MA 1451"
165,1215,2011-12-14,Harvard,Durham,42.5,,-71.5833,Durham Residence,1451,MA,-5:00," Harvard, MA 1451"
166,1216,2011-12-14,Harvard,Taylor,42.5,,-71.5833,Taylor G Residence,1451,MA,-5:00," Harvard, MA 1451"
167,1217,2011-12-14,Harvard,Jackson,42.5,,-71.5833,Jackson P Residence,1451,MA,-5:00," Harvard, MA 1451"
168,1218,2011-12-14,Harvard,Poutasse,42.5,,-71.5833,Poutasse Residence,1451,MA,-5:00," Harvard, MA 1451"
169,1233,2011-12-20,Harvard,Chen,42.5,,-71.5833,Chen Residence,1451,MA,-5:00," Harvard, MA 1451"
170,1234,2011-12-21,Bolton,Ross,42.4773,,-71.5865,Ross Residence,1470,MA,-5:00," Bolton, MA 1470"
171,1235,2011-12-21,West brookfield,CBIS,42.2293,29 Freight House Rd.,-72.1455,CBIS Inc.,1585,MA,-5:00,"29 Freight House Rd. West brookfield, MA 1585"
172,1237,2011-12-21,Colorado springs,,38.982592,,-104.73349,Colorado Solar Garden,80911,CO,-7:00," Colorado springs, CO 80911"
173,1238,2012-01-03,Acton,100,42.4718,100 Discovery Way,-71.44,100 Discovery Way,1742,MA,-5:00,"100 Discovery Way Acton, MA 1742"
174,1239,2012-01-04,Harvard,Lancelotti,42.5,,-71.5833,Lancelotti,1451,MA,-5:00," Harvard, MA 1451"
175,1240,2012-01-04,Harvard,Ware_McCarthy,42.5,,-71.5833,Ware-McCarthy Residence,1451,MA,-5:00," Harvard, MA 1451"
176,1241,2012-01-04,Harvard,Kronauer,42.5,,-71.5833,Kronauer Residence,1451,MA,-5:00," Harvard, MA 1451"
177,1242,2012-01-04,Harvard,Leicher,42.5,,-71.5833,Leicher Residence,1451,MA,-5:00," Harvard, MA 1451"
178,1243,2012-01-04,Harvard,Hughes,42.5,,-71.5833,Hughes Residence,1451,MA,-5:00," Harvard, MA 1451"
179,1244,2012-01-04,Acton,Gould_s,42.5074,,-71.5843,Gould's Plaza,1451,MA,-5:00," Acton, MA 1451"
180,1251,2012-01-11,Worcester,Creedon,42.2476,"39 Jolma Road,",-71.7562,Creedon Co.,1601,MA,-5:00,"39 Jolma Road, Worcester, MA 1601"
181,1281,2012-01-23,Harvard,Hermann,42.5,32 Madiagan Ln,-71.5833,Hermann Crystoff,1451,MA,-5:00,"32 Madiagan Ln Harvard, MA 1451"
182,1282,2012-01-23,Harvard,Cutler,42.5,,-71.5833,Cutler Residence,1451,MA,-5:00," Harvard, MA 1451"
183,1283,2012-01-23,Harvard,Harasimowicz,42.5,,-71.5833,Harasimowicz Residence,1451,MA,-5:00," Harvard, MA 1451"
184,1301,2012-02-06,Franklin,,42.707,,-71.1631,Barrett Distribution,2038,MA,-5:00," Franklin, MA 2038"
185,1312,2012-02-14,Harvard,Thornton,42.5,,-71.5833,Thornton Residence,1451,MA,-5:00," Harvard, MA 1451"
186,1313,2012-02-14,Harvard,Dangle_Gordon,42.5,,-71.5833,Dangle-Gordon Residence,1451,MA,-5:00," Harvard, MA 1451"
187,1314,2012-02-14,Harvard,Nigzus_,42.5,,-71.5833,"Nigzus, C Residence",1451,MA,-5:00," Harvard, MA 1451"
188,1315,2012-02-21,Leominster,LGA,42.53100000000001,300 Whitney St.,-71.752,LGA,1453,MA,-5:00,"300 Whitney St. Leominster, MA 1453"
189,1325,2011-08-05,Sutton,Ray,42.15,,-71.7633,Ray Residence - Sutton,1590,MA,-5:00," Sutton, MA 1590"
190,1334,2013-02-01,Rincon de salas,,10.02893,2km Este De La Fanal,-84.329665,Mimosa,x,GRECIA,-6:00,"2km Este De La Fanal Rincon de salas, GRECIA x"
191,1347,2012-03-20,San antonio,Winnco,29.5481,2 Winnco Dr.,-98.3633,Winnco,78218,TX,-6:00,"2 Winnco Dr. San antonio, TX 78218"
192,1353,2012-03-22,Spencer,Thurlow,42.244,,-71.9923,Thurlow Residence,1562,MA,-5:00," Spencer, MA 1562"
193,1356,2012-03-26,Chattanooga,,35.0485,1119 Riverfront Parkway,-85.3252,Alstom Power 56.16,37402,TN,-5:00,"1119 Riverfront Parkway Chattanooga, TN 37402"
194,1369,2012-04-06,Harvard,Quarles,42.5,,-71.5833,Quarles Residence,1451,MA,-5:00," Harvard, MA 1451"
195,1376,2012-04-20,Harvard,Besse,42.5,,-71.5833,Besse Residence,1451,MA,-5:00," Harvard, MA 1451"
196,1377,2012-08-22,Harvard,Turner,42.5,,-71.5833,Turner Residence,1451,MA,-5:00," Harvard, MA 1451"
197,1378,2013-05-15,Harvard,Broadbent,42.5,,-71.5833,Broadbent Residence,1451,MA,-5:00," Harvard, MA 1451"
198,1379,2012-07-17,Harvard,Buhner,42.5,,-71.5833,Buhner Residence,1451,MA,-5:00," Harvard, MA 1451"
199,1380,2012-06-15,Harvard,CWM,42.5,,-71.5833,CWM / TH,1451,MA,-5:00," Harvard, MA 1451"
200,1381,2012-04-25,Harvard,McAlpine,42.5,,-71.5833,McAlpine Residence,1451,MA,-5:00," Harvard, MA 1451"
201,1382,2012-05-07,Harvard,Milford,42.5,,-71.5833,Milford Residence,1451,MA,-5:00," Harvard, MA 1451"
202,1383,2012-08-03,Stow,Colarossi,42.5,,-71.5833,Colarossi Residence,1775,MA,-5:00," Stow, MA 1775"
203,1384,2012-06-29,Harvard,Poledo,42.5,,-71.5833,Poledo Residence,1451,MA,-5:00," Harvard, MA 1451"
204,1385,2012-07-25,Harvard,Warner,42.5,,-71.5833,Warner Residence,1451,MA,-5:00," Harvard, MA 1451"
205,1398,2012-04-23,Harvard,Lee,42.5,,-71.5833,Lee Residence,1451,MA,-5:00," Harvard, MA 1451"
206,1406,2012-05-08,Franklin,Acorn,42.0834,,-71.3967,Acorn Animal Hospital,2038,MA,-5:00," Franklin, MA 2038"
207,1439,2012-06-06,Lawrence,Spector,42.7069,31 Water St.,-71.1654,Spector Textile (10 Embankment),1841,MA,-5:00,"31 Water St. Lawrence, MA 1841"
208,1443,2012-06-08,Harvard,Minar,42.5,,-71.5833,Minar,1451,MA,-5:00," Harvard, MA 1451"
209,1444,2012-03-21,Lawrence,15,42.70766939999999,15 Union St.,-71.15304300000003,15 Union Street,1840,MA,-5:00,"15 Union St. Lawrence, MA 1840"
210,1459,2012-06-19,Harvard,Noble,42.5,,-71.5833,Noble Residence,1451,MA,-5:00," Harvard, MA 1451"
211,1466,2012-07-12,Waltham,,42.3697,73 Wetherbee Rd.,-71.2642,Streich Residence,2453,MA,-5:00,"73 Wetherbee Rd. Waltham, MA 2453"
212,1471,2012-07-24,Newark,,39.7131,885 New London Road,-75.7828,Hearne Residence,19711,DE,-5:00,"885 New London Road Newark, DE 19711"
213,1479,2012-08-11,Lawrence,17,42.714,17 Shepard St.,-71.1656,17 Shepard Street,1843,MA,-5:00,"17 Shepard St. Lawrence, MA 1843"
214,1509,2012-07-25,Grafton,Degrand,42.1993,,-71.6792,Degrand Residence,1519,MA,-5:00," Grafton, MA 1519"
215,1535,2012-08-03,Harvard,Dean,42.5,,-71.5833,Dean Residence,1451,MA,-5:00," Harvard, MA 1451"
216,1541,2012-08-06,Harvard,Olejarz,42.4923,,-71.6173,Olejarz,1467,MA,-5:00," Harvard, MA 1467"
217,1546,2012-08-07,Harvard,Nigzus_Triantaris,42.5,,-71.5833,Nigzus-Triantaris Residence,1451,MA,-5:00," Harvard, MA 1451"
218,1552,2012-08-08,Harvard,Dyer,42.5,,-71.5833,Dyer Residence,1451,MA,-5:00," Harvard, MA 1451"
219,1553,2012-08-08,Harvard,O_Shea,42.5303,357 Old Littleton Road,-71.5394,O'Shea,1467,MA,-5:00,"357 Old Littleton Road Harvard, MA 1467"
220,1556,2012-08-30,Princeton,,42.714,600 E. Glenn Rd.,-71.1656,Drumheller - Shop House,95970,CA,-8:00,"600 E. Glenn Rd. Princeton, CA 95970"
221,1557,2012-08-30,Princeton,,42.714,600 E. Glenn Rd.,-71.1656,Drumheller - Shop Pump,95970,CA,-8:00,"600 E. Glenn Rd. Princeton, CA 95970"
222,1562,2014-05-13,Lawrence,,42.68357990000001,11 Glenn St.,-71.1774819,Saw-Tech / JKM Industries,1843,MA,-5:00,"11 Glenn St. Lawrence, MA 1843"
223,1563,2012-11-12,Framingham,United,42.279263,721 Waverly St.,-71.416172,United Salvage (Framingham Salvage Co.),1702,MA,-5:00,"721 Waverly St. Framingham, MA 1702"
224,1564,2014-12-08,Manteca,Borges,42.707035,8350 Brady Rd.,-71.16311400000002,Borges - Hospital,95337,CA,-8:00,"8350 Brady Rd. Manteca, CA 95337"
225,1576,2012-09-04,Harvard,Chalifoux,42.5,,-71.5833,Chalifoux Residence,x,MA,-5:00," Harvard, MA x"
226,1603,2012-09-24,Concord,Willard,42.4603,185 Powder Mill Rd.,-71.3494,Willard Elementary School,1742,MA,-5:00,"185 Powder Mill Rd. Concord, MA 1742"
227,1606,2012-09-25,Harvard,Weiss,42.5,,-71.5833,Weiss Residence,1451,MA,-5:00," Harvard, MA 1451"
228,1609,2012-09-28,Gainesville,,29.6516,2650 N.E. 53rd Ave.,-82.3248,MLH 2,32609,FL,-5:00,"2650 N.E. 53rd Ave. Gainesville, FL 32609"
229,1617,2012-10-17,Cleveland,S_DLE,41.5073,10900 Euclid Ave,-81.607,S-DLE Sun Farm,44106,OH,-5:00,"10900 Euclid Ave Cleveland, OH 44106"
230,1623,2012-10-05,Gainesville,MLH,29.6516,2650 N.E. 53rd Ave.,-82.3248,MLH 1,32609,FL,-5:00,"2650 N.E. 53rd Ave. Gainesville, FL 32609"
231,1630,2012-10-17,Tewksbury,Southard,42.3762,,-71.1158,Southard Residence,1876,MA,-5:00," Tewksbury, MA 1876"
232,1635,2012-10-01,Ashby,Haines,42.6778,,-71.8208,Haines Residence,x,MA,-5:00," Ashby, MA x"
233,1636,2012-10-26,Acton,Liu,42.485,,-71.4333,Liu Residence - Acton,x,MA,-5:00," Acton, MA x"
234,1643,2012-10-24,Sterling,Menin,42.4374,,-71.7606,Menin Residence,x,MA,-5:00," Sterling, MA x"
235,1644,2012-10-24,Bolton,Ritter,42.4334,,-71.6078,Ritter Residence,x,MA,-5:00," Bolton, MA x"
236,1661,2012-12-04,Harvard,Hoffman,42.5,,-71.5833,Hoffman Residence,1451,MA,-5:00," Harvard, MA 1451"
237,1662,2012-11-28,Lunenburg,Ed,42.5945,,-71.7245,Ed Dufresne,1462,MA,-5:00," Lunenburg, MA 1462"
238,1663,2012-11-09,Acton,Gutfreund,42.485,,-71.4333,Gutfreund Residence,1720,MA,-5:00," Acton, MA 1720"
239,1664,2012-11-09,Harvard,Nickerson,42.5,,-71.5833,Nickerson Residence,1451,MA,-5:00," Harvard, MA 1451"
240,1665,2012-11-09,Acton,Kleinschmidt,42.485,,-71.4333,Kleinschmidt Residence,1720,MA,-5:00," Acton, MA 1720"
241,1683,2012-11-20,Harvard,Fay,42.5,,-71.5833,Fay Residence,1451,MA,-5:00," Harvard, MA 1451"
242,1687,2012-11-15,Hubbardston,,42.4737,,-72.0062,Bratko Residence,1452,MA,-5:00," Hubbardston, MA 1452"
243,1700,2012-11-21,North reading,Teradyne,42.53823,500-700 River Park Drive,-71.1035,Teradyne NR,1889,MA,-5:00,"500-700 River Park Drive North reading, MA 1889"
244,1701,2012-11-21,North reading,Teradyne,42.5556,600 River Park Dr.,-71.1345,Teradyne Building 600,1889,MA,-5:00,"600 River Park Dr. North reading, MA 1889"
245,1702,2012-11-21,North reading,Teradyne,42.5569,700 River Park Dr.,-71.1366,Teradyne Building 700,1889,MA,-5:00,"700 River Park Dr. North reading, MA 1889"
246,1703,2012-11-21,North reading,Teradyne,42.555,500 River Park Dr.,-71.1366,Teradyne Building 500,1889,MA,-5:00,"500 River Park Dr. North reading, MA 1889"
247,1706,2012-12-14,Acton,O_Sullivan,42.485,,-71.4333,O'Sullivan Residence,1720,MA,-5:00," Acton, MA 1720"
248,1728,2012-12-14,Shirley,,42.5437,,-71.6495,Cady Residence,1464,MA,-5:00," Shirley, MA 1464"
249,1732,2013-07-01,Franklin,,42.707,126 Grove St.,-71.1631,126 Grove Solar LLC,2038,MA,-5:00,"126 Grove St. Franklin, MA 2038"
250,1740,2016-08-04,Manteca,Prime,42.707,,-71.1631,Prime Shine Carwash - Manteca,95337,CA,-8:00," Manteca, CA 95337"
251,1745,2016-10-03,Millbury,Buck,42.707,100 Riverlin St.,-71.1631,Buck Brothers,1527,MA,-5:00,"100 Riverlin St. Millbury, MA 1527"
252,1748,2013-01-18,Marlborough,Giombetti,42.707,401 South St.,-71.1631,Giombetti Realty Trust,1752,MA,-5:00,"401 South St. Marlborough, MA 1752"
253,1751,2012-11-26,Milford,Cornerbrook,42.1405,11 Commercial Way,-71.492,Cornerbrook Hillview,1757,MA,-5:00,"11 Commercial Way Milford, MA 1757"
254,1752,2013-01-12,Milford,Cornerbrook,42.1405,12 Commercial Way,-71.492,Cornerbrook Recall,1757,MA,-5:00,"12 Commercial Way Milford, MA 1757"
255,1753,2012-12-27,Worcester,O_Connell,42.3228,269 Brooks St.,-71.8002,O'Connell 259,1606,MA,-5:00,"269 Brooks St. Worcester, MA 1606"
256,1754,2012-12-27,Worcester,O_Connell,42.3221,261 Brooks St.,-71.8,O'Connell 261,1606,MA,-5:00,"261 Brooks St. Worcester, MA 1606"
257,1755,2012-12-27,Worcester,O_Connell,42.322,255 Brooks St.,-71.8,O'Connell Fire Protection 255,1606,MA,-5:00,"255 Brooks St. Worcester, MA 1606"
258,1757,2012-11-10,Millbury,Discover,42.2183,4 Latti Farm Rd.,-71.7741,,1527,MA,-5:00,"4 Latti Farm Rd. Millbury, MA 1527"
259,1758,2013-01-17,Worcester,,42.3233,51 Pullman St.,-71.79899999999998,Four H Realty LLC,1606,MA,-5:00,"51 Pullman St. Worcester, MA 1606"
260,1759,2012-12-28,Billerica,Flint,42.5285,10 Fortune Dr.,-71.2622,Flint Corp.,1821,MA,-5:00,"10 Fortune Dr. Billerica, MA 1821"
261,1764,2013-01-03,Kingston,,41.9933,2 Sunset Road,-70.7284,Harlow 2 Sunset,2364,MA,-5:00,"2 Sunset Road Kingston, MA 2364"
262,1778,0000-00-00,Acton,Petersen,42.485,,-71.4333,Petersen Residence,1720,MA,-5:00," Acton, MA 1720"
263,1779,2013-03-30,Harvard,Donaldson,42.5,,-71.5833,Donaldson Residence,1451,MA,-5:00," Harvard, MA 1451"
264,1780,2013-06-24,Berlin,Rondeau,42.3812,,-71.637,Rondeau Residence,1503,MA,-5:00," Berlin, MA 1503"
265,1781,2013-01-09,Harvard,Harte,42.5,,-71.5833,Harte Residence,1451,MA,-5:00," Harvard, MA 1451"
266,1793,2013-01-15,Shirley,,42.536,139 Walker Rd.,-71.6139,Toshiba - Devens,1464,MA,-5:00,"139 Walker Rd. Shirley, MA 1464"
267,1797,2013-01-23,Agawam,,42.0637,365 Main St.,-72.6269,Toshiba - Agawam Landfill,1001,MA,-5:00,"365 Main St. Agawam, MA 1001"
268,1799,2013-01-23,Agawam,,42.6875,912 Shoemaker Lane,-71.1627,Toshiba - Agawam Route 57,1030,MA,-5:00,"912 Shoemaker Lane Agawam, MA 1030"
269,1819,2012-10-13,Rio oso,,38.9786,2632 Kempton Rd.,-121.5074,DeValentine,95674,CA,-8:00,"2632 Kempton Rd. Rio oso, CA 95674"
270,1821,2013-01-22,Acton,Merberg,42.485,,-71.4333,Merberg Residence,1720,MA,-5:00," Acton, MA 1720"
271,1824,2013-01-31,Colusa,,39.2143,,-122.0094,Drumheller Dryers - 40 HP,95932,CA,-8:00," Colusa, CA 95932"
272,1826,2013-01-26,Colusa,,39.2143,,-122.0094,Drumheller Dryers - 75 hp,95932,CA,-8:00," Colusa, CA 95932"
273,1830,2013-02-04,Hudson,Feil,42.3918,,-71.5662,Feil Residence,1749,MA,-5:00," Hudson, MA 1749"
274,1833,2013-02-05,Acton,K,42.485,,-71.4333,,1720,MA,-5:00," Acton, MA 1720"
275,1836,2012-11-18,Holyoke,,42.2043,,-72.6162,Toshiba - Holyoke,1040,MA,-5:00," Holyoke, MA 1040"
276,1850,2013-02-12,Marlborough,Robichaud,42.3459,,-71.5523,Robichaud Residence,1752,MA,-5:00," Marlborough, MA 1752"
277,1877,2013-02-20,Westborough,SSG,42.2695,74 Otis St.,-71.6162,SSG 74 Otis Street,1581,MA,-5:00,"74 Otis St. Westborough, MA 1581"
278,1878,2013-02-28,Richmond,St_,37.5714,6001 Grove Ave.,-77.5214,St. Catherine's School I,23226,VA,-5:00,"6001 Grove Ave. Richmond, VA 23226"
279,1881,2013-02-21,Acton,Kerpelman,42.4851,,-71.4328,Kerpelman Residence,1720,MA,-5:00," Acton, MA 1720"
280,1892,2013-02-26,Acton,Frankel,42.4851,,-71.4328,Frankel Residence - Acton,1720,MA,-5:00," Acton, MA 1720"
281,1915,2013-03-13,Harvard,Shappy,42.5,,-71.5833,Shappy Residence,x,MA,-5:00," Harvard, MA x"
282,1924,2013-03-21,Springfield,SEP,42.1015,83 Warwick St.,-72.5898,SEP - CET,1104,MA,-5:00,"83 Warwick St. Springfield, MA 1104"
283,1927,2013-03-28,Douglass,Pyne,42.707,1 Lackey Dam Rd.,-71.1631,Pyne Sand and Stone - Office,1516,MA,-5:00,"1 Lackey Dam Rd. Douglass, MA 1516"
284,1928,2013-04-05,Easthampton,Easthampton,42.2601,70 Williston St.,-72.671,Easthampton High School,1027,MA,-5:00,"70 Williston St. Easthampton, MA 1027"
285,1937,2012-12-21,Boston,,42.3584,,-71.0598,Boston Properties - Test Site,x,MA,-5:00," Boston, MA x"
286,1944,2013-04-01,San diego,Helix,32.8981,6795 Flanders Dr.,-117.2029,"Helix Electric, Inc.",92121,CA,-8:00,"6795 Flanders Dr. San diego, CA 92121"
287,1964,2013-04-18,Madison heights,New,42.5213,31101 Edward Ave,-83.1023,New Horizons Solar,48071,MI,-5:00,"31101 Edward Ave Madison heights, MI 48071"
288,1982,2013-04-18,Ashland,Gois,42.2471,30 Sewell St.,-71.4238,Gois Solar One,1721,MA,-5:00,"30 Sewell St. Ashland, MA 1721"
289,1988,2013-10-03,Grafton,,42.707,21 Follette St.,-71.1631,Grafton Water District (Kearsarge),1519,MA,-5:00,"21 Follette St. Grafton, MA 1519"
290,1990,2013-04-19,Acton,Mikkola,42.485,,-71.4333,Mikkola Residence,x,MA,-5:00," Acton, MA x"
291,1991,2013-04-19,Acton,Miles,42.485,,-71.4333,Miles Residence,x,MA,-5:00," Acton, MA x"
292,1992,2013-04-19,Shirley,Ricci,42.5437,,-71.6495,Ricci Residence,x,MA,-5:00," Shirley, MA x"
293,1993,2013-04-19,Shirley,Witherell,42.5437,,-71.6495,Witherell Residence,x,MA,-5:00," Shirley, MA x"
294,1994,2013-04-19,Shirley,Colburn_Mirkovic,42.5437,,-71.6495,Colburn/Mirkovic Residence,x,MA,-5:00," Shirley, MA x"
295,1995,2013-04-19,Shirley,Venti,42.5437,,-71.6495,Venti Residence,x,MA,-5:00," Shirley, MA x"
296,2002,2013-05-13,Woburn,New,42.5222,316 New Boston St.,-71.1488,,1801,MA,-5:00,"316 New Boston St. Woburn, MA 1801"
297,2007,2013-03-01,Farmingdale,Farmingdale,42.707,2350 Broadhollow Road,-71.1631,Farmingdale State College,11735,NY,-5:00,"2350 Broadhollow Road Farmingdale, NY 11735"
298,2010,2013-07-29,El dorado hills,Valley,42.707,1665 Blackstone Blvd.,-71.1631,Valley View School,95762,CA,-8:00,"1665 Blackstone Blvd. El dorado hills, CA 95762"
299,2014,2013-05-02,Norwell,American,42.165,1000 Cordwainer Dr.,-70.8849,American Plumbing and Heating,2061,MA,-5:00,"1000 Cordwainer Dr. Norwell, MA 2061"
300,2015,2013-05-02,Canton,SED,42.1428,142 Will Dr.,-71.1225,SED - EM Duggan,2021,MA,-5:00,"142 Will Dr. Canton, MA 2021"
301,2020,2014-12-08,Manteca,Borges,42.707,8350 Brady Rd.,-71.1631,Borges - Dairy,95337,CA,-8:00,"8350 Brady Rd. Manteca, CA 95337"
302,2026,2013-05-07,Woburn,SEP,42.5081,147 New Boston St.,-71.1438,SEP - NuPath,1801,MA,-5:00,"147 New Boston St. Woburn, MA 1801"
303,2030,2013-05-08,Hopkinton,SSG,42.2097,45 South St.,-71.5467,SSG 45 South Street - Phase 1,1748,MA,-5:00,"45 South St. Hopkinton, MA 1748"
304,2033,2013-05-13,Acton,Bradley,42.485,,-71.4333,Bradley Residence,x,MA,-5:00," Acton, MA x"
305,2034,0000-00-00,Acton,Bolte_Bein,42.485,,-71.4333,Bolte/Bein Residence,x,MA,-5:00," Acton, MA x"
306,2035,2013-05-13,Acton,Hooley,42.485,,-71.4333,Hooley Residence,x,MA,-5:00," Acton, MA x"
307,2036,2013-06-03,Acton,Pumphrey_Treister,42.485,,-71.4333,Pumphrey/Treister Residence,x,MA,-5:00," Acton, MA x"
308,2037,2013-04-30,Concord,Kramer,42.4603,,-71.3494,Kramer Residence,x,MA,-5:00," Concord, MA x"
309,2039,2013-06-03,New bedford,Riverbank,41.6673,200 Riverside Ave.,-70.9204,Riverbank Lofts LLC,2740,MA,-5:00,"200 Riverside Ave. New bedford, MA 2740"
310,2061,2013-09-04,Gardner,,42.707,202 High St.,-71.1631,202 High Street,1440,MA,-5:00,"202 High St. Gardner, MA 1440"
311,2062,2013-06-12,Swampscott,,42.4687,7 Rockland St.,-70.915,DeChillo Residence,1907,MA,-5:00,"7 Rockland St. Swampscott, MA 1907"
312,2063,2013-06-07,Needham,,42.2896,40 Tanglewood Rd.,-71.2422,Fener Residence,2494,MA,-5:00,"40 Tanglewood Rd. Needham, MA 2494"
313,2070,2012-12-18,Boylston,140,42.3344,140 Shrewsbury St.,-71.7353,140 Shrewsbury Street Realty Trust,1505,MA,-5:00,"140 Shrewsbury St. Boylston, MA 1505"
314,2073,2016-08-06,Sacramento,Ainor,42.707,5443 Stationers Way,-71.1631,Ainor Signs Inc.,95842,CA,-8:00,"5443 Stationers Way Sacramento, CA 95842"
315,2086,2013-11-20,Franklin,,42.707,929 Upper Union St.,-71.1631,Franklin 1,2038,MA,-5:00,"929 Upper Union St. Franklin, MA 2038"
316,2108,2010-11-02,,,0.0,,0.0,SolrenView test Site 2,x,,-5:00,none
317,2115,2013-06-12,Berlin,Fite,42.3811,,-71.6375,Fite Residence - Berlin,x,MA,-5:00," Berlin, MA x"
318,2124,2013-06-14,Westminster,,42.5515,95 Aubuchon Dr.,-71.9177,Aubuchon Hardware,1473,MA,-5:00,"95 Aubuchon Dr. Westminster, MA 1473"
319,2126,2013-04-22,Sonoma,,38.2252,27000 Ramal Rd,-122.3788,JFW - Carneros Hills,95476,CA,-8:00,"27000 Ramal Rd Sonoma, CA 95476"
320,2134,2015-01-01,Whately,,42.707,345 Long Plain Rd.,-71.1631,Fairview Farms,1373,MA,-5:00,"345 Long Plain Rd. Whately, MA 1373"
321,2149,2013-07-22,Boston,,42.707,20 Porter St.,-71.1631,CONRAC - Logan Airport,2128,MA,-5:00,"20 Porter St. Boston, MA 2128"
322,2151,2013-08-06,Amesbury,Boston,42.707,110 Haverhill Rd,-71.1631,Boston North Technology Park,1903,MA,-5:00,"110 Haverhill Rd Amesbury, MA 1903"
323,2152,2013-07-02,Cherry valley (leicester),Giguere,42.2416,148 Main St.,-71.8485,"Giguere Gymnastics, Inc",1524,MA,-5:00,"148 Main St. Cherry valley (leicester), MA 1524"
324,2153,2013-06-27,Douglas,Pyne,42.0881,1 Lackey Dam Rd.,-71.6955,Pyne Sand and Stone - Garage,1516,MA,-5:00,"1 Lackey Dam Rd. Douglas, MA 1516"
325,2164,2013-07-01,Upton,,42.1553,257 Milford St.,-71.5717,,1568,MA,-5:00,"257 Milford St. Upton, MA 1568"
326,2170,2013-06-25,Acton,Hearn,42.707,,-71.1631,Hearn Residence,x,MA,-5:00," Acton, MA x"
327,2175,2013-11-26,Hubbardston,Hubbardston,42.707,95 Williamsville Rd.,-71.1631,Hubbardston Solar,1452,MA,-5:00,"95 Williamsville Rd. Hubbardston, MA 1452"
328,2177,2013-07-10,Marlborough,Mattheis,42.3459,,-71.5523,Mattheis Residence,x,MA,-5:00," Marlborough, MA x"
329,2178,2013-07-10,Westford,Dana,42.5793,,-71.4378,Dana Residence,x,MA,-5:00," Westford, MA x"
330,2191,2013-07-23,Mansfield,Mansfield,42.707,27 Angell St.,-71.1631,Mansfield Auto Care,2048,MA,-5:00,"27 Angell St. Mansfield, MA 2048"
331,2197,2013-07-31,Hopkinton,SED,42.2187,89 Hayden Rowe St.,-71.5157,SED - Honey Hill Farms II,1748,MA,-5:00,"89 Hayden Rowe St. Hopkinton, MA 1748"
332,2199,2013-08-02,Millbury,Service,42.2165,8 Latti Farm Rd.,-71.7749,Service Truck Tire,1527,MA,-5:00,"8 Latti Farm Rd. Millbury, MA 1527"
333,2203,2016-07-23,Thousand oaks,Westlake,42.707,3043 Townsgate Rd.,-71.1631,Westlake - 3043,91361,CA,-8:00,"3043 Townsgate Rd. Thousand oaks, CA 91361"
334,2227,2013-08-15,Uxbridge,Uxbridge,42.0837,500 W. Hartford Ave.,-71.6701,Uxbridge Solar LLC 1,1569,MA,-5:00,"500 W. Hartford Ave. Uxbridge, MA 1569"
335,2228,2013-08-15,Uxbridge,Uxbridge,42.0837,500 Hartford Avenue West,-71.6701,Uxbridge Solar LLC 2,1569,MA,-5:00,"500 Hartford Avenue West Uxbridge, MA 1569"
336,2229,2013-08-15,Uxbridge,Uxbridge,42.0837,500 W. Hartford Ave.,-71.6701,Uxbridge Solar LLC 3,1569,MA,-5:00,"500 W. Hartford Ave. Uxbridge, MA 1569"
337,2230,2013-08-06,Ashby,Bastarache_Nicholson,42.6773,,-71.8187,Bastarache/Nicholson Residence,1431,MA,-5:00," Ashby, MA 1431"
338,2235,2013-08-22,Hudson,,42.3888,43 Braod St. Suite B407,-71.5644,B407,1749,MA,-5:00,"43 Braod St. Suite B407 Hudson, MA 1749"
339,2236,2013-08-15,Uxbridge,,42.0794,500 Hartford Avenue West,-71.678,Uxbridge Solar LLC,1569,MA,-5:00,"500 Hartford Avenue West Uxbridge, MA 1569"
340,2247,2013-08-30,Worcester,,42.2302,27 Halmstad St.,-71.7962,Woodrise Realty Trust,1607,MA,-5:00,"27 Halmstad St. Worcester, MA 1607"
341,2250,2018-09-23,Shirley,Mehserle,42.5437,,-71.6495,Mehserle Residence,x,MA,-5:00," Shirley, MA x"
342,2253,2013-09-01,Grafton,Whatta,42.1993,,-71.6792,Whatta View Realty Trust,1519,MA,-5:00," Grafton, MA 1519"
343,2261,2013-09-01,Santa ana,SIESA,9.933851299999999,300m Este y 500m Norte del Restaurante Bacchus,-84.1785198,SIESA,10901,SJ,-6:00,"300m Este y 500m Norte del Restaurante Bacchus Santa ana, SJ 10901"
344,2263,2013-09-20,Milford,Cornerbrook,42.1405,13 Commercial Way,-71.492,Cornerbrook #3,1757,MA,-5:00,"13 Commercial Way Milford, MA 1757"
345,2273,2013-09-11,Bolton,Frey,42.4352987,,-71.6080009,Frey Residence,1740,MA,-5:00," Bolton, MA 1740"
346,2286,2013-09-25,Hopkinton,SED,42.2260845,112 Main St.,-71.5285787,SED - Michael Carter Lisnow Respite Center,1748,MA,-5:00,"112 Main St. Hopkinton, MA 1748"
347,2289,2012-12-18,North andover,Worden,42.6871265,84 Academy Rd,-71.11403990000002,Worden Residence,1845,MA,-5:00,"84 Academy Rd North andover, MA 1845"
348,2318,2013-10-08,Shirley,Suscavage,42.5721628,,-71.6317359,Suscavage Residence,1464,MA,-5:00," Shirley, MA 1464"
349,2319,2013-09-25,Boxford,Rivers,42.6763235,,-71.014118,Rivers Residence,1921,MA,-5:00," Boxford, MA 1921"
350,2330,2013-12-18,Boston,,42.366723,Harvard Way,-71.1226826,HBS TATA Building,2138,MA,-5:00,"Harvard Way Boston, MA 2138"
351,2332,2013-10-01,Bronx,JETRO_PON,40.808366,100 Oak Point Ave,-73.8980958,JETRO-PON 2484,10474,NY,-5:00,"100 Oak Point Ave Bronx, NY 10474"
352,2333,2013-10-01,Bronx,JETRO,40.808366,100 Oak Point Ave,-73.8980958,JETRO - PON 2156,10474,NY,-5:00,"100 Oak Point Ave Bronx, NY 10474"
353,2335,2013-10-05,Westford,Fernandes,42.5775266,,-71.46351589999999,Fernandes Residence,x,MA,-5:00," Westford, MA x"
354,2354,2016-08-05,Placerville,Gold,38.7009182,4040 Stage Ct.,-120.8185321,Gold Key Storage,95667,CA,-8:00,"4040 Stage Ct. Placerville, CA 95667"
355,2356,2013-12-03,Cleveland,Seidman,41.5062405,11100 Euclid Ave.,-81.6053771,Seidman Cancer Center Solar Array,44106,OH,-5:00,"11100 Euclid Ave. Cleveland, OH 44106"
356,2360,2014-08-01,Lynn,,42.46097899999999,195 Market St.,-70.9475035,Eastern Bank,1901,MA,-5:00,"195 Market St. Lynn, MA 1901"
357,2371,2013-11-07,Walpole,,42.147085,455 South St.,-71.25178299999997,Harwood Engineering,2081,MA,-5:00,"455 South St. Walpole, MA 2081"
358,2379,2014-04-12,South hamilton,SEP,42.63858339999999,537 Highland St.,-70.8810259,SEP Pingree School - Athletic,1982,MA,-5:00,"537 Highland St. South hamilton, MA 1982"
359,2382,2014-12-07,Hopkinton,SEP,42.2253402,146E Main St.,-71.52928779999999,SEP Faith Community Church of Hopkinton (FCCH),1748,MA,-5:00,"146E Main St. Hopkinton, MA 1748"
360,2394,2013-12-27,Franklin,,42.0497377,929 Upper Union Street,-71.3943174,Franklin Phase 2 (aka KSFIVE),2093,MA,-5:00,"929 Upper Union Street Franklin, MA 2093"
361,2419,2013-12-05,Westport,Brown,41.5700183,,-71.0735476,Brown Residence,2420,MA,-5:00," Westport, MA 2420"
362,2426,2013-12-27,Acton,Zhang_Hass,42.4836453,,-71.4418101,Zhang/Hass Residence,1720,MA,-5:00," Acton, MA 1720"
363,2428,2013-12-05,Poultney,,43.51655,1 Brannan Circle,-73.24021,Green Mountain College,5764,VT,-5:00,"1 Brannan Circle Poultney, VT 5764"
364,2435,2013-12-12,East boston,Sparrow,42.3835288,98R Condor Street,-71.0363122,Sparrow Enterprises,2228,MA,-5:00,"98R Condor Street East boston, MA 2228"
365,2437,2015-04-21,Webster,Long,42.062725,9 Sutton Rd.,-71.8579669,Long Subaru,1570,MA,-5:00,"9 Sutton Rd. Webster, MA 1570"
366,2458,2014-07-10,Easton,,42.059104,405 Washington St.,-71.089157,Stonehill College Groundmount,2334,MA,-5:00,"405 Washington St. Easton, MA 2334"
367,2460,2013-12-18,Worcester,,42.2981144,111 Randolph Rd.,-71.7980429,,1606,MA,-5:00,"111 Randolph Rd. Worcester, MA 1606"
368,2473,,,Fall,0.0,,0.0,,x,,,none
369,2474,,,Fall,0.0,,0.0,,x,,,none
370,2475,,,Fall,0.0,,0.0,,x,,,none
371,2476,,,Fall,0.0,,0.0,,x,,,none
372,2481,2013-12-23,Everett,,42.4014797,85 Paris St.,-71.05604459999999,Dampney Everett,2149,MA,-5:00,"85 Paris St. Everett, MA 2149"
373,2482,2013-11-11,Bellingham,,42.088011,9 N. Main St.,-71.474661,9 North Main Street LLC,2019,MA,-5:00,"9 N. Main St. Bellingham, MA 2019"
374,2483,2013-12-23,Worcester,,42.2517985,75 Hammond St.,-71.8102296,PWRR Southbridge System 2,1610,MA,-5:00,"75 Hammond St. Worcester, MA 1610"
375,2484,2014-01-07,Worcester,,42.2517985,75 Hammond St.,-71.8102296,PWRR Southbridge System 1,1610,MA,-5:00,"75 Hammond St. Worcester, MA 1610"
376,2485,2013-12-23,Hopkinton,SSG,42.209715,45 South St.,-71.54668,SSG 45 South Street - Phase 2,1748,MA,-5:00,"45 South St. Hopkinton, MA 1748"
377,2494,2013-12-20,Bedford,FUJIFILM,42.49065,45 Crosby Drive,-71.276169,"FUJIFILM Recording Media U.S.A., Inc.",x,MA,-5:00,"45 Crosby Drive Bedford, MA x"
378,2496,2013-12-26,Ayer,,42.5666055,22 Bryan Way,-71.5326427,Ancom Custom Cabinets,1432,MA,-5:00,"22 Bryan Way Ayer, MA 1432"
379,2499,2013-12-06,N. dartmouth,Clean,41.6629124,358 Faunce Corner Rd.,-70.991255,Clean Energy Service,2747,MA,-5:00,"358 Faunce Corner Rd. N. dartmouth, MA 2747"
380,2500,2014-12-09,Boston,,42.31225999999999,231 - 233 Quincy St.,-71.07364989999999,Quincy Heights - 231-233 Quincy St.,2121,MA,-5:00,"231 - 233 Quincy St. Boston, MA 2121"
381,2501,2013-12-27,Rockland,,42.13,800 Beach Street,-70.91,Rockland Landfill,2370,MA,-5:00,"800 Beach Street Rockland, MA 2370"
382,2503,2014-02-04,Worcester,,42.2485975,1 South Gate Street - Pole #1,-71.8103981,PWRR Forgotten Yard,1610,MA,-5:00,"1 South Gate Street - Pole #1 Worcester, MA 1610"
383,2511,2014-01-05,Des moines,Iowa,41.5951983,3000 East Grand Ave.,-93.55093060000002,Iowa State Fairgrounds Varied Industries Building,50317,IA,-6:00,"3000 East Grand Ave. Des moines, IA 50317"
384,2516,2013-11-30,Arlington,,42.4166246,7 Central St.,-71.15622379999999,7 Central Street,2476,MA,-5:00,"7 Central St. Arlington, MA 2476"
385,2517,2014-01-08,Fall river,,41.7558215,Innovation Way,-71.0962907,Fall River Innovation LLC,2720,MA,-5:00,"Innovation Way Fall river, MA 2720"
386,2520,2014-01-23,Salisbury,Old,42.856385,10 Fanaras Dr.,-70.887891,Old Time Sports 2,1952,MA,-5:00,"10 Fanaras Dr. Salisbury, MA 1952"
387,2529,2014-02-25,San diego,Solana,32.9637053,13605 Pacific Highlands Ranch,-117.1955855,Solana Ranch Elementary,92130,CA,-8:00,"13605 Pacific Highlands Ranch San diego, CA 92130"
388,2533,2014-01-14,Franklin,,42.0845945,90 Hayward St.,-71.40980569999999,Classic Furniture,2038,MA,-5:00,"90 Hayward St. Franklin, MA 2038"
389,2538,2017-01-01,Lawrence,,42.7070354,,-71.1631137,Ali's(2538),2364,MA,-5:00," Lawrence, MA 2364"
390,2543,,,Brimfield,0.0,,0.0,,x,,,none
391,2545,,,Shaw_s,0.0,,0.0,,x,,,none
392,2549,2014-02-04,Northborough,,42.3197933,,-71.6423322,Smith Residence - Northborough,1532,MA,-5:00," Northborough, MA 1532"
393,2550,2014-01-22,Stow,Howe,42.4195323,,-71.51304449999999,Howe Residence,1775,MA,-5:00," Stow, MA 1775"
394,2555,2014-01-28,Northborough,Parsons,42.31801050000001,35 Lyman St.,-71.61189499999999,Parsons - 35 Lyman System 1,1532,MA,-5:00,"35 Lyman St. Northborough, MA 1532"
395,2556,2014-01-27,Northborough,Parsons,42.31801050000001,35 Lyman St.,-71.61189499999999,Parsons - 35 Lyman System 2,1532,MA,-5:00,"35 Lyman St. Northborough, MA 1532"
396,2557,2014-01-27,Northborough,Parsons,42.31801050000001,35 Lyman St.,-71.61189499999999,Parsons - 35 Lyman System 3,1532,MA,-5:00,"35 Lyman St. Northborough, MA 1532"
397,2558,2014-01-20,Charlton,Forrestall,42.1484287,Lot 1 Bay Path Rd.,-71.9242395,Forrestall Charlton LLC,1507,MA,-5:00,"Lot 1 Bay Path Rd. Charlton, MA 1507"
398,2559,2013-11-01,Charlton,Flair,42.1486198,5 Bay Path Rd.,-71.92381859999999,Flair One,1507,MA,-5:00,"5 Bay Path Rd. Charlton, MA 1507"
399,2574,2016-06-28,Bloomington,Bloomington,34.0708746,18028 Valley Blvd.,-117.4110073,Bloomington - Phase 1,92316,CA,-8:00,"18028 Valley Blvd. Bloomington, CA 92316"
400,2579,2014-02-06,Franklin,,42.0828353,31 Hayward St.,-71.4104551,Moseley Corp.,2038,MA,-5:00,"31 Hayward St. Franklin, MA 2038"
401,2580,2013-12-13,Andover,,42.6017155,South St.,-71.1798104,South Street Solar LLC,1810,MA,-5:00,"South St. Andover, MA 1810"
402,2588,2014-02-10,Concord,,42.4527187,,-71.3705616,Schaffner Residence,1742,MA,-5:00," Concord, MA 1742"
403,2590,2014-02-11,Easton,SED,42.059104,405 Washington St.,-71.089157,SED Stonehill Barn Pole 2,2356,MA,-5:00,"405 Washington St. Easton, MA 2356"
404,2591,2014-02-12,Waltham,,42.3971065,,-71.25989969999999,Shore Residence,2451,MA,-5:00," Waltham, MA 2451"
405,2592,2014-02-18,Hopkinton,Lumber,42.212978,26 Lumber St.,-71.54258209999999,Lumber Street Auto Repair,1748,MA,-5:00,"26 Lumber St. Hopkinton, MA 1748"
406,2600,2015-01-20,Holliston,Crestview,42.231766,147 Turner Rd.,-71.4343427,Crestview Condominiums,1746,MA,-5:00,"147 Turner Rd. Holliston, MA 1746"
407,2605,2014-05-09,Olivehurst,Naumes,39.0637964,3792 Feather River Blvd.,-121.5808139,Naumes - Olivehurst,95961,CA,-8:00,"3792 Feather River Blvd. Olivehurst, CA 95961"
408,2606,2014-03-28,Arlington,,42.414216,297 Broadway,-71.14914519999999,American Alarm,2474,MA,-5:00,"297 Broadway Arlington, MA 2474"
409,2607,2014-05-08,Andover,,42.6558466,15 Central St.,-71.1417404,15 Central Street Associates,1810,MA,-5:00,"15 Central St. Andover, MA 1810"
410,2608,2014-02-21,Ayer,,42.5511879,50 Barnum Rd.,-71.5750242,JP Sullivan,1432,MA,-5:00,"50 Barnum Rd. Ayer, MA 1432"
411,2609,2014-02-25,Merrimac,,42.8340582,,-71.0005509,Moskal Residence,1860,MA,-5:00," Merrimac, MA 1860"
412,2610,2014-02-25,Lockwood,,35.943377,67550 Lockwood-Jolon Rd.,-121.083262,San Antonio School District,93932,CA,-8:00,"67550 Lockwood-Jolon Rd. Lockwood, CA 93932"
413,2611,2014-02-17,Northborough,,42.3197933,,-71.6423322,Fossey Residence,1532,MA,-5:00," Northborough, MA 1532"
414,2612,2014-02-25,Webster,,42.0542919,,-71.845274,Slota Residence,1570,MA,-5:00," Webster, MA 1570"
415,2613,2014-02-26,Mendon,28,42.103126,28 Hastings St.,-71.556438,28 Hastings - D,1756,MA,-5:00,"28 Hastings St. Mendon, MA 1756"
416,2616,2014-02-26,Easton,SED,42.0583093,420 Washington St.,-71.08656789999999,SED Stonehill Barn Pole 3,2357,MA,-5:00,"420 Washington St. Easton, MA 2357"
417,2618,2014-03-04,Mendon,SEP,42.100261,15 Cape Rd.,-71.5043728,SEP Bethany Community Church,1756,MA,-5:00,"15 Cape Rd. Mendon, MA 1756"
418,2627,2016-07-26,North bend,Tanner,47.4709566,45710 S.E North Bend Way,-121.7302706,Tanner Electric Cooperative,98045,WA,-8:00,"45710 S.E North Bend Way North bend, WA 98045"
419,2628,2014-03-30,Bellingham,Camp,42.1010036,244 Maple St.,-71.44742219999999,Camp Bow Wow,2019,MA,-5:00,"244 Maple St. Bellingham, MA 2019"
420,2637,2014-01-20,Salsbury,Old,42.856385,10 Fanaras Dr.,-70.887891,Old Time Sports 1,1952,MA,-5:00,"10 Fanaras Dr. Salsbury, MA 1952"
421,2643,2014-03-12,Needham,,42.2748016,,-71.2458436,Golden Residence,2492,MA,-5:00," Needham, MA 2492"
422,2648,2014-03-17,Boston,,42.3655147,"Morgan Hall, Harvard University, Western Ave.",-71.1221412,HBS Morgan,2138,MA,-5:00,"Morgan Hall, Harvard University, Western Ave. Boston, MA 2138"
423,2649,2014-05-14,Chattanooga,,35.0863538,171 Baylor School Drive,-85.3376483,Baylor School,37405,TN,-5:00,"171 Baylor School Drive Chattanooga, TN 37405"
424,2651,2014-03-20,Stow,,42.4195323,,-71.51304449999999,Sonnichsen Residence,1775,MA,-5:00," Stow, MA 1775"
425,2652,2014-03-20,Oxford,,42.1170386,,-71.86472119999999,Chalupka Residence,1540,MA,-5:00," Oxford, MA 1540"
426,2653,2014-03-20,Berlin,,42.38215080000001,,-71.6317359,Tremelling Residence,1503,MA,-5:00," Berlin, MA 1503"
427,2654,2016-07-01,Hopkinton,,42.212978,26 Lumber St.,-71.54258209999999,Lumber Street Auto Repair - Phase 2,1748,MA,-5:00,"26 Lumber St. Hopkinton, MA 1748"
428,2658,2016-07-26,Arbuckle,Chamisal,39.0341618,1253 Cortina School Rd.,-122.1537439,Chamisal Creek,95912,CA,-8:00,"1253 Cortina School Rd. Arbuckle, CA 95912"
429,2660,2014-03-15,Franklin,Brookdale,42.0902946,860 West Central Street,-71.43295119999999,Brookdale Mill,2038,MA,-5:00,"860 West Central Street Franklin, MA 2038"
430,2661,2014-03-27,Wareham,Shurtleff,41.766258,,-70.70495199999999,Shurtleff / Levasseur Residence,2571,MA,-5:00," Wareham, MA 2571"
431,2665,2014-03-27,Bolton,,42.4352987,,-71.6080009,Duhame Residence,1740,MA,-5:00," Bolton, MA 1740"
432,2666,2014-03-27,Lexington,,42.4270121,11 Woodcliffe Road,-71.2445211,Khosraviani Residence,2420,MA,-5:00,"11 Woodcliffe Road Lexington, MA 2420"
433,2668,2014-03-27,Bolton,,42.4352987,,-71.6080009,Taylor / Taylor-Kennedy Residence,1740,MA,-5:00," Bolton, MA 1740"
434,2669,2014-03-27,Wakefield,Reska,42.5039395,,-71.0723391,Reska Residence,1880,MA,-5:00," Wakefield, MA 1880"
435,2673,2014-03-30,Big bear lake,Big,34.2453091,42040 Garstin Dr.,-116.8848457,Big Bear Lake Maintenance Yard,92315,CA,-8:00,"42040 Garstin Dr. Big bear lake, CA 92315"
436,2676,2014-04-01,Gainesville,,29.718297,6931 N.W. 22nd St.,-82.353657,Cheshire 126kW,32653,FL,-5:00,"6931 N.W. 22nd St. Gainesville, FL 32653"
437,2677,2014-04-06,Gainesville,,29.65886859999999,901 N.W. 8th Ave.,-82.3345918,Silber 2 157.5kW,32601,FL,-5:00,"901 N.W. 8th Ave. Gainesville, FL 32601"
438,2678,2014-04-06,Gainesville,,29.651418,14 S. Main St.,-82.325462,Silber 1 84kW,32601,FL,-5:00,"14 S. Main St. Gainesville, FL 32601"
439,2686,2014-04-08,Quincy,SED,42.2991086,67 Wendell St.,-71.0111463,"SED 67 Wendell St., Quincy, MA",2171,MA,-5:00,"67 Wendell St. Quincy, MA 2171"
440,2687,2014-04-08,Quincy,,42.2616336,162 Old Colony Ave.,-71.0138863,"SED 162 Old Colony Avenue, Quincy, MA",2171,MA,-5:00,"162 Old Colony Ave. Quincy, MA 2171"
441,2688,2014-04-08,Quincy,,42.2608219,180 Old Colony Ave.,-71.01331569999999,"SED 180 Old Colony Avenue, Quincy, MA",2170,MA,-5:00,"180 Old Colony Ave. Quincy, MA 2170"
442,2689,2014-04-08,Gainesville,,29.6758011,2500 N. Main St.,-82.3222823,Marchesini 157.5kW,32609,FL,-5:00,"2500 N. Main St. Gainesville, FL 32609"
443,2690,2014-04-08,Quincy,SED,42.2720992,30 Wendell St.,-71.010593,"SED - 30 Wendell Street, Quincy, MA",2171,MA,-5:00,"30 Wendell St. Quincy, MA 2171"
444,2696,2016-07-26,Chico,Pyle_,39.661114,3287 Dayton Rd.,-121.85938,"Pyle, John",95928,CA,-8:00,"3287 Dayton Rd. Chico, CA 95928"
445,2700,2014-04-15,Stow,,42.4195323,,-71.51304449999999,Hall Residence - Stow,1775,MA,-5:00," Stow, MA 1775"
446,2701,2014-04-15,Plainville,,42.0101231,,-71.3468091,McCormick Residence - Plainville,2762,MA,-5:00," Plainville, MA 2762"
447,2702,2014-04-15,Stow,,42.4195323,,-71.51304449999999,Clarke / Putnam Residence,1775,MA,-5:00," Stow, MA 1775"
448,2710,2014-04-21,Ayer,,42.56035869999999,,-71.560526,Benyo Residence,1432,MA,-5:00," Ayer, MA 1432"
449,2711,2014-04-21,Stow,,42.4195323,,-71.51304449999999,Glauner/McDougald Residence,1775,MA,-5:00," Stow, MA 1775"
450,2713,2014-06-13,Wayland,,42.3618441,30 Boston Post Rd.,-71.3336795,David Stone,1778,MA,-5:00,"30 Boston Post Rd. Wayland, MA 1778"
451,2725,2016-07-26,Sutter creek,Jarrett,38.385755,12925 Ridge Road,-120.788763,Jarrett Inc.,95685,CA,-8:00,"12925 Ridge Road Sutter creek, CA 95685"
452,2727,2014-04-29,Hopkinton,,42.22739720000001,61 Wood St.,-71.53981449999999,SEP St. Paul's Episcopal Church,1748,MA,-5:00,"61 Wood St. Hopkinton, MA 1748"
453,2731,2014-01-22,Salisbury,Old,42.856385,10 Fanaras Dr.,-70.887891,Old Time Sports,1952,MA,-5:00,"10 Fanaras Dr. Salisbury, MA 1952"
454,2744,2014-12-09,Boston,,42.3122183,222 - 226 Quincy St.,-71.0738901,Quincy Heights - 222-226 Quincy St. Boston,2121,MA,-5:00,"222 - 226 Quincy St. Boston, MA 2121"
455,2745,2014-02-16,Conventry,,41.7006287,1670 Flat River Rd.,-71.5926422,SED - Coventry Rhode Island Town Hall Annex,2816,RI,-5:00,"1670 Flat River Rd. Conventry, RI 2816"
456,2748,2015-03-02,Woodland,Agricultural,38.6980679,685 N. Pioneer Ave.,-121.746687,"Agricultural Distributing, Inc.",95776,CA,-8:00,"685 N. Pioneer Ave. Woodland, CA 95776"
457,2755,2014-05-13,Yonkers,,40.9359383,969 Midland Ave,-73.857941,Yonkers Contracting,10570,NY,-5:00,"969 Midland Ave Yonkers, NY 10570"
458,2768,2014-09-20,Ashland,Gois,42.24711000000001,30 Sewell St.,-71.42383,Gois Solar Two,1721,MA,-5:00,"30 Sewell St. Ashland, MA 1721"
459,2799,2014-12-08,Manteca,Borges,37.72664899999999,8350 Brady Rd.,-121.204347,Borges - Pump,95337,CA,-8:00,"8350 Brady Rd. Manteca, CA 95337"
460,2805,2014-12-09,Boston,,42.3123041,223 - 227 Quincy St.,-71.0738145,Quincy Heights - 223-227 Quincy St. Boston,2121,MA,-5:00,"223 - 227 Quincy St. Boston, MA 2121"
461,2808,2014-05-09,Westford,,42.5899487,,-71.4536835,Penfield Residence,1886,MA,-5:00," Westford, MA 1886"
462,2809,,,Bausch,0.0,,0.0,,x,,,none
463,2810,2014-06-13,Uxbridge,,42.0499476,,-71.6436028,Nutter Residence,1569,MA,-5:00," Uxbridge, MA 1569"
464,2813,2014-06-01,Framingham,,42.2695914,4 Tripp St.,-71.4124497,Holiday Manufacturing,1702,MA,-5:00,"4 Tripp St. Framingham, MA 1702"
465,2819,2014-11-01,Princeton,Glen,39.4620356,8020 County Road 61,-122.0217805,Glen Growers,95970,CA,-8:00,"8020 County Road 61 Princeton, CA 95970"
466,2830,,,Brimfield,0.0,,0.0,,x,,,none
467,2846,2014-01-01,Palo alto,,37.4146379,3000 Hanover St.,-122.145929,Hewlett Packard - Palo Alto / JB-943387-00,94304,CA,-8:00,"3000 Hanover St. Palo alto, CA 94304"
468,2854,2014-07-07,Arlington,,42.4232158,,-71.1537637,Calow Residence,2474,MA,-5:00," Arlington, MA 2474"
469,2855,2015-04-03,Milford,,42.1574332,111 Purchase St.,-71.5239417,Consigli Residence,1757,MA,-5:00,"111 Purchase St. Milford, MA 1757"
470,2856,2014-07-09,Stow,,42.4195323,,-71.51304449999999,Konno Residence,1775,MA,-5:00," Stow, MA 1775"
471,2857,2014-07-09,Stow,,42.4195323,,-71.51304449999999,Way Residence,1775,MA,-5:00," Stow, MA 1775"
472,2858,2014-07-09,Stow,,42.4195323,,-71.51304449999999,Ogle Residence,1775,MA,-5:00," Stow, MA 1775"
473,2859,2014-07-07,Boston,,42.3493639,,-71.08081109999999,Bianchi Business Development LLC,x,MA,-5:00," Boston, MA x"
474,2860,2014-07-10,Rio oso,,38.98202,3558 Bear River Dr.,-121.483525,Conant - Orchards,95681,CA,-8:00,"3558 Bear River Dr. Rio oso, CA 95681"
475,2861,2014-07-10,Norfolk,,42.1208961,,-71.3230549,Goreham Residence,2056,MA,-5:00," Norfolk, MA 2056"
476,2879,,,RIN,0.0,,0.0,,x,,,none
477,2883,2014-08-22,Milford,Milford,42.1398331,13 Commercial Way,-71.4884232,Milford Industrial Solar: 6-1,1757,MA,-5:00,"13 Commercial Way Milford, MA 1757"
478,2886,2014-07-29,Bolton,,42.4352987,,-71.6080009,Bickford Residence,1740,MA,-5:00," Bolton, MA 1740"
479,2891,2014-12-09,Boston,,42.3124828,228 Quincy St.,-71.0735011,Quincy Heights - 228 Quincy St.,2121,MA,-5:00,"228 Quincy St. Boston, MA 2121"
480,2894,,,JFW,0.0,,0.0,,x,,,none
481,2906,2014-08-01,Leominster,Parsons,42.531515,163 Pioneer Dr.,-71.7079361,Parsons - 163 Pioneer Drive,1453,MA,-5:00,"163 Pioneer Dr. Leominster, MA 1453"
482,2945,2016-03-01,Bishop,City,37.3583798,980 Poleta Rd.,-118.3775358,City of Bishop Waste Water Treatment Plant,93514,CA,-8:00,"980 Poleta Rd. Bishop, CA 93514"
483,2964,,,Sierra,0.0,,0.0,,x,,,none
484,2969,2014-08-01,Lawrence,,42.707035,360 Merrimack street,-71.16311400000002,Solren Test Eng - XTM ( HALT test ),1844,MA,-5:00,"360 Merrimack street Lawrence, MA 1844"
485,2989,2014-09-01,Boston,,42.314816,97 Woodledge St.,-71.07477399999999,Quincy Heights - 97 Woodledge,2125,MA,-5:00,"97 Woodledge St. Boston, MA 2125"
486,2991,2014-09-16,Hudson,,42.38938479999999,,-71.560526,Calandrella Residence,1749,MA,-5:00," Hudson, MA 1749"
487,2997,2014-09-15,West wareham,,41.7803507,,-70.7584767,Andrews Residence - West Wareham,2576,MA,-5:00," West wareham, MA 2576"
488,2998,2014-09-15,Lancaster,,42.4850811,,-71.6792008,Schexnaydre Residence,1523,MA,-5:00," Lancaster, MA 1523"
489,2999,2014-09-15,Foxborough,,42.0706608,,-71.2517835,Drayton Residence,2035,MA,-5:00," Foxborough, MA 2035"
490,3001,2014-09-15,Stow,,42.4195323,,-71.51304449999999,Smith Residence - Stow,1775,MA,-5:00," Stow, MA 1775"
491,3002,2014-09-15,Acton,,42.4836453,,-71.4418101,Ramos Residence,1720,MA,-5:00," Acton, MA 1720"
492,3004,2014-09-16,Acton,,42.4836453,,-71.4418101,Lonberg Residence,1720,MA,-5:00," Acton, MA 1720"
493,3005,2014-09-19,Harvard,,42.5073686,,-71.5842643,Murphy Residence - Harvard,1451,MA,-5:00," Harvard, MA 1451"
494,3009,2016-01-06,North easton,SED,42.0613154,320 Washington St.,-71.0776343,SED - Sally Blair Ames Sports Complex,2356,MA,-5:00,"320 Washington St. North easton, MA 2356"
495,3022,2014-10-01,South hamilton,Campbell,42.6349926,315 Sagamore St.,-70.82386,Campbell Residence - South Hamilton,1982,MA,-5:00,"315 Sagamore St. South hamilton, MA 1982"
496,3035,2014-10-10,Washington,St_,38.8885086,301 A St. SE,-77.0017451,St. Marks,20002,DC,-5:00,"301 A St. SE Washington, DC 20002"
497,3053,2014-10-15,Rochester,,43.179895,1400 Goodman St. N,-77.57573199999999,,14609,NY,-5:00,"1400 Goodman St. N Rochester, NY 14609"
498,3057,2014-10-20,Worcester,,42.218417,284 Greenwood St.,-71.798113,AmeriPride,1607,MA,-5:00,"284 Greenwood St. Worcester, MA 1607"
499,3062,2014-10-30,Colusa,,39.3075421,4373 River Rd.,-122.0128271,Moresco Groves,95932,CA,-5:00,"4373 River Rd. Colusa, CA 95932"
500,3063,2014-10-30,Wheatland,,38.99102999999999,15 Pleasant Grove Rd.,-121.489801,Rio Oso Groves,95901,CA,-8:00,"15 Pleasant Grove Rd. Wheatland, CA 95901"
501,3076,2014-12-19,Hanover,McGee,42.1286105,860 Washington St.,-70.8327134,McGee Toyota,2339,MA,-5:00,"860 Washington St. Hanover, MA 2339"
502,3079,2015-03-11,Plymouth,Village,41.8820649,30 Golf Dr.,-70.59518899999999,,2360,MA,-5:00,"30 Golf Dr. Plymouth, MA 2360"
503,3083,,,Flemming,0.0,,0.0,,x,,,none
504,3086,2015-02-19,Newburyport,East,42.79565729999999,104 Parker St.,-70.89031039999999,East Coast Welding,1950,MA,-5:00,"104 Parker St. Newburyport, MA 1950"
505,3088,2015-06-19,Holliston,SED,42.1697382,58C Hopping Brook Rd.,-71.468029,SED Hopping Brook Community Solar Field,1746,MA,-5:00,"58C Hopping Brook Rd. Holliston, MA 1746"
506,3090,2015-02-01,Attleboro,Larson,41.9364779,90 Olive St.,-71.2896856,,2703,MA,-5:00,"90 Olive St. Attleboro, MA 2703"
507,3093,2016-08-10,Brewster,,41.7553929,1646 Main St.,-70.0904655,Latham Center,2631,MA,-5:00,"1646 Main St. Brewster, MA 2631"
508,3095,2015-01-18,Oxford,Swissturn,42.1319507,21 Dana Rd.,-71.8622287,Swissturn / USA,1540,MA,-5:00,"21 Dana Rd. Oxford, MA 1540"
509,3103,2014-12-12,Tyngsboro,Jenike,42.68574590000001,400 Business Park Dr.,-71.44858169999999,,1879,MA,-5:00,"400 Business Park Dr. Tyngsboro, MA 1879"
510,3112,2016-08-15,Charlottesville,Mary,38.078332,190 Lambs Ln.,-78.505983,Mary Carr Greer Elementary School,22901,VA,-5:00,"190 Lambs Ln. Charlottesville, VA 22901"
511,3113,2015-02-19,Canton,Canton,42.152537,250 Dan Rd.,-71.120254,Canton Distributors,2021,MA,-5:00,"250 Dan Rd. Canton, MA 2021"
512,3115,2014-12-21,Templeton,Templeton,42.52148469999999,103 Farnsworth Rd.,-72.06825289999999,Templeton Solar Project,1468,MA,-5:00,"103 Farnsworth Rd. Templeton, MA 1468"
513,3116,2015-02-18,Milford,Milford,42.1409104,8 Commercial Way,-71.4922614,Milford Industrial Solar: 6-2,1757,MA,-5:00,"8 Commercial Way Milford, MA 1757"
514,3117,2015-01-01,Canton,J,42.184696,115 Shawmut Rd.,-71.1543207,J Perl Associates LLC / Akers Industries Inc.,2021,MA,-5:00,"115 Shawmut Rd. Canton, MA 2021"
515,3119,2016-08-15,Charlottesville,Albemarle,38.0754627,2775 Hydraulic Rd.,-78.5014875,Albemarle High School,22901,VA,-5:00,"2775 Hydraulic Rd. Charlottesville, VA 22901"
516,3120,2016-08-17,Arbuckle,T_P,39.100938,"MCH1 Mid N Side, Lone Star Rd.",-122.0790419,,95912,CA,-8:00,"MCH1 Mid N Side, Lone Star Rd. Arbuckle, CA 95912"
517,3124,2014-12-04,Fall river,Globe,41.7167987,180 President Ave.,-71.1526033,Globe Liquors,2720,MA,-5:00,"180 President Ave. Fall river, MA 2720"
518,3125,2014-12-04,Hudson,Fourstar,42.389251,1 Bonazzoli Ave.,-71.5501589,Fourstar Connections,1749,MA,-5:00,"1 Bonazzoli Ave. Hudson, MA 1749"
519,3126,2014-12-31,Franklin,Franklin,42.0814205,175 E. Central St.,-71.38995229999999,Franklin Ford,2038,MA,-5:00,"175 E. Central St. Franklin, MA 2038"
520,3132,,,Upchurch,0.0,,0.0,,x,,,none
521,3133,,,Boseman,0.0,,0.0,,x,,,none
522,3134,,,Red,0.0,,0.0,,x,,,none
523,3137,2014-11-12,Colusa,,39.3838105,7538 E. Glenn Rd.,-121.956965,Drumheller - Myers,95932,CA,-8:00,"7538 E. Glenn Rd. Colusa, CA 95932"
524,3141,2016-08-12,Williams,T_P,39.1546137,"RR6 SE Tip, Schadd Rd.",-122.1494187,,95987,CA,-8:00,"RR6 SE Tip, Schadd Rd. Williams, CA 95987"
525,3148,2016-08-15,Williams,T_P,39.1465892,"Sk1 Mid W. Side, Lone Star Rd.",-122.1376917,,95987,CA,-8:00,"Sk1 Mid W. Side, Lone Star Rd. Williams, CA 95987"
526,3149,2015-02-12,Staten island,Gateway,40.5229945,200 Boscombe Ave.,-74.2310469,Gateway Church,10309,NY,-5:00,"200 Boscombe Ave. Staten island, NY 10309"
527,3173,2014-11-20,Manteca,,37.7392927,5496 W. Ripon Rd.,-121.2436577,Dutra - Dairy,95337,CA,-8:00,"5496 W. Ripon Rd. Manteca, CA 95337"
528,3175,2014-11-24,San diego,,32.7213346,2818 Avenida De Portugal,-117.2296725,U.P.S.E.S.,92106,CA,-8:00,"2818 Avenida De Portugal San diego, CA 92106"
529,3176,2014-11-25,Framingham,,42.30123589999999,160 Cochituate Rd.,-71.4076256,MutualOne Bank,1701,MA,-5:00,"160 Cochituate Rd. Framingham, MA 1701"
530,3177,2014-11-20,Big bear lake,Big,34.2379694,39707 Big Bear Blvd.,-116.9352914,Big Bear Lake Civic Center,92315,CA,-8:00,"39707 Big Bear Blvd. Big bear lake, CA 92315"
531,3187,2014-12-02,Anaheim,ARTIC,33.8034872,2626 E. Katella Ave.,-117.8773866,ARTIC,92806,CA,-8:00,"2626 E. Katella Ave. Anaheim, CA 92806"
532,3206,2014-12-01,Franklin,RT,42.0715233,1 Kenwood Cir.,-71.4227934,RT Engineering,2038,MA,-5:00,"1 Kenwood Cir. Franklin, MA 2038"
533,3226,,,BUCRA,0.0,,0.0,,x,,,none
534,3227,2015-07-08,Foxborough,Motorcycles,42.0736766,1000 Washington St.,-71.2864929,Motorcycles of Manchester - Foxborough,2035,MA,-5:00,"1000 Washington St. Foxborough, MA 2035"
535,3229,2015-04-15,Boston,,42.3146621,290 Blue Hill Ave.,-71.0784402,Solect - Quincy Commons,2119,MA,-5:00,"290 Blue Hill Ave. Boston, MA 2119"
536,3231,2016-08-18,Charolettesville,Mortimer,38.1124889,2801 Powell Creek Dr.,-78.43691439999999,Mortimer Sutherland Middle School,22911,VA,-5:00,"2801 Powell Creek Dr. Charolettesville, VA 22911"
537,3233,2016-08-17,Charlottesville,Baker,38.123783,2740 Proffit Rd.,-78.42246999999999,Baker Butler Elementary School,22911,VA,-5:00,"2740 Proffit Rd. Charlottesville, VA 22911"
538,3239,2016-08-12,Alta loma,Canyon,34.1627891,9404 Almond St.,-117.600167,Canyon Creek Ranch,91701,CA,-8:00,"9404 Almond St. Alta loma, CA 91701"
539,3240,2016-08-22,Gloucester,Gloucester,42.622058,30 Marsh St.,-70.679995,Gloucester Marina,1930,MA,-5:00,"30 Marsh St. Gloucester, MA 1930"
540,3242,2015-04-15,Raynham,Mastria,41.9038528,1305 New State Highway,-71.0175369,Mastria Nissan,2767,MA,-5:00,"1305 New State Highway Raynham, MA 2767"
541,3252,2014-12-23,Prairie grove,Prairie,35.97332,921 Escue Dr.,-94.332605,Prairie Grove Telephone Co.,72753,AR,-6:00,"921 Escue Dr. Prairie grove, AR 72753"
542,3254,2014-12-30,Manteca,Dutra,37.7518821,22525 South Airport Way,-121.2522186,Dutra - CP 1,95336,CA,-8:00,"22525 South Airport Way Manteca, CA 95336"
543,3255,2014-12-29,Boston,,42.3146983,104 Woodledge St.,-71.0743852,Quincy Heights - 104 Woodledge,2121,MA,-5:00,"104 Woodledge St. Boston, MA 2121"
544,3256,2014-12-29,Boston,,42.31482,102 Woodledge St.,-71.0744033,Quincy Heights - 102 Woodledge,2121,MA,-5:00,"102 Woodledge St. Boston, MA 2121"
545,3257,2014-12-29,Boston,,42.3146879,99 Woodledge St.,-71.07471699999999,Quincy Heights - 99 Woodledge,2125,MA,-5:00,"99 Woodledge St. Boston, MA 2125"
546,3263,2014-12-30,Manteca,Dutra,37.7518821,22525 South Airport Way,-121.2522186,Dutra - GM 2,95336,CA,-8:00,"22525 South Airport Way Manteca, CA 95336"
547,3264,2014-12-30,Manteca,Dutra,37.7518821,22525 South Airport Way,-121.2522186,Dutra - CP 3,95336,CA,-8:00,"22525 South Airport Way Manteca, CA 95336"
548,3265,2014-12-30,Manteca,Dutra,37.7518821,22525 South Airport Way,-121.2522186,Dutra - GM 4,95336,CA,-8:00,"22525 South Airport Way Manteca, CA 95336"
549,3269,2014-10-27,New bedford,Wamsutta,41.650581,75 Wamsutta St.,-70.9273022,Wamsutta LLC,2740,MA,-5:00,"75 Wamsutta St. New bedford, MA 2740"
550,3274,2015-01-13,Raynham,Mastria,41.9032612,1525 New State Highway,-71.01066449999999,Mastria Buick GMC Cadillac,2767,MA,-5:00,"1525 New State Highway Raynham, MA 2767"
551,3275,2015-01-20,Watham,,42.3971065,,-71.25989969999999,Luckett - Waltham,2451,MA,-5:00," Watham, MA 2451"
552,3276,2015-01-01,Boston,,42.3663987,25 Harvard Way,-71.12284679999999,HBS Batten Hall,2163,MA,-5:00,"25 Harvard Way Boston, MA 2163"
553,3284,2015-01-22,Arbuckle,Cain,38.962995,426 Johns School Rd.,-121.968054,Cain Ranch - Car Port,95912,CA,-8:00,"426 Johns School Rd. Arbuckle, CA 95912"
554,3298,2016-08-26,Norwell,,42.1701847,237 Prospect St.,-70.84876679999999,Clairmont Residence,2061,MA,-5:00,"237 Prospect St. Norwell, MA 2061"
555,3302,2016-08-09,Williams,T_P,39.1546137,RR HDQ @ HSE Shaad Rd.,-122.1494187,,95987,CA,-8:00,"RR HDQ @ HSE Shaad Rd. Williams, CA 95987"
556,3312,2016-08-26,Leominster,New,42.5597345,320 Industrial Rd.,-71.75270239999999,New England Apple Products Company,1453,MA,-5:00,"320 Industrial Rd. Leominster, MA 1453"
557,3324,2015-02-05,Woodland,Heidrick,38.665034,36826 County Road 24,-121.82456,Heidrick - Shop,95695,CA,-8:00,"36826 County Road 24 Woodland, CA 95695"
558,3330,2015-02-01,Salisbury,Gerry,35.6480132,414 Jake Alexander Blvd. S.,-80.4921762,Gerry Wood Honda,28147,NC,-5:00,"414 Jake Alexander Blvd. S. Salisbury, NC 28147"
559,3339,2015-02-16,Montes de oca,La,9.9393292,"Barrio Escalante, Rotonda La Bandera",-84.0549906,La Bandera,11501,SJ,-6:00,"Barrio Escalante, Rotonda La Bandera Montes de oca, SJ 11501"
560,3344,2016-08-01,Signal hills,Delman,33.7581621,11 Chuck Wagon Rd.,-118.3384785,Delman Residence,90274,CA,-8:00,"11 Chuck Wagon Rd. Signal hills, CA 90274"
561,3347,2015-05-22,Walpole,Alder,42.1470851,1 Foxwood Dr.,-71.2517835,Alder Foods,2081,MA,-5:00,"1 Foxwood Dr. Walpole, MA 2081"
562,3356,2015-09-20,Leominster,Union,42.5117183,511 Lancaster St.,-71.7407024,Union Square Realty,1453,MA,-5:00,"511 Lancaster St. Leominster, MA 1453"
563,3358,2015-04-23,Lancaster,Nationwide,42.5028958,1340 Lunenberg Rd.,-71.69136979999999,Nationwide Recycling,1523,MA,-5:00,"1340 Lunenberg Rd. Lancaster, MA 1523"
564,3378,,,Turner,0.0,,0.0,,x,,,none
565,3388,2015-03-12,Woodland,Growers,38.6181123,41167 County Road 27,-121.739759,Growers Air Service,95776,CA,-8:00,"41167 County Road 27 Woodland, CA 95776"
566,3394,2015-03-16,Acton,,42.4836453,,-71.4418101,Welch Residence,1720,MA,-5:00," Acton, MA 1720"
567,3395,2015-03-15,Thousand oaks,Westlake,34.1528465,3059 Townsgate Rd.,-118.8200785,Westlake - 3059,91361,CA,-8:00,"3059 Townsgate Rd. Thousand oaks, CA 91361"
568,3399,2015-03-10,Princeton,Glenn,39.4620356,8020 County Road 61,-122.0217805,Glenn Growers - Office,95970,CA,-8:00,"8020 County Road 61 Princeton, CA 95970"
569,3400,,,Miller,0.0,,0.0,,x,,,none
570,3411,2015-03-24,Franklin,LMF,42.0716756,25 Kenwood Circle,-71.4183405,LMF Franklin Corp. Franchi,2038,MA,-5:00,"25 Kenwood Circle Franklin, MA 2038"
571,3413,2015-03-01,Golden,Natural,39.7469164,2401 S Ford St,-105.2091395,Natural Grocers by Vitamin Cottage_Golden CO PV 1,80401,CO,-7:00,"2401 S Ford St Golden, CO 80401"
572,3421,2015-04-02,Raynham,Mastria,41.9040527,1255 New State Hwy.,-71.0182987,Mastria Subaru,2767,MA,-5:00,"1255 New State Hwy. Raynham, MA 2767"
573,3422,2015-04-03,Boston,,42.3128957,6 Dunkeld St.,-71.0754579,Quincy Heights - 6 Dunkeld St.,2121,MA,-5:00,"6 Dunkeld St. Boston, MA 2121"
574,3423,2015-04-03,Boston,,42.3128007,7 Dunkeld St.,-71.0756803,Quincy Heights - 7 Dunkeld St.,2121,MA,-5:00,"7 Dunkeld St. Boston, MA 2121"
575,3424,2015-04-03,Boston,,42.3127439,10 Dunkeld St.,-71.0755434,Quincy Heights - 10 Dunkeld St. Boston,2121,MA,-5:00,"10 Dunkeld St. Boston, MA 2121"
576,3425,2015-04-03,Boston,,42.3141999,180 Howard St.,-71.075166,Quincy Heights - 180 Howard St.,2125,MA,-5:00,"180 Howard St. Boston, MA 2125"
577,3426,2015-04-03,Boston,,42.3127704,177 Magnolia St.,-71.0729551,Quincy Heights - 177 Magnolia St. Boston,2125,MA,-5:00,"177 Magnolia St. Boston, MA 2125"
578,3430,2015-04-07,Boston,,42.3120197,89 Fayston St.,-71.0753265,Quincy Heights - 89 Fayston St.,2121,MA,-5:00,"89 Fayston St. Boston, MA 2121"
579,3434,2015-04-08,Arbuckle,Cain,39.100938,Lone Star Rd.,-122.0790419,Cain Ranch - Ground Mount,95912,CA,-8:00,"Lone Star Rd. Arbuckle, CA 95912"
580,3439,2015-05-15,Yuba city,Bains,39.0669286,4142 Highway 99,-121.6328763,Bains - Highway 99 Chevron,98092,CA,-8:00,"4142 Highway 99 Yuba city, CA 98092"
581,3452,2015-07-03,Boston,Expressway,42.3168473,700 William T. Morrissey Blvd.,-71.0489348,Expressway Toyota,2122,MA,-5:00,"700 William T. Morrissey Blvd. Boston, MA 2122"
582,3474,2015-05-11,Worcester,Worcester,42.2543271,254 Mill St.,-71.8447876,Worcester Discount Liquors - 254 Mill Street,1602,MA,-5:00,"254 Mill St. Worcester, MA 1602"
583,3475,2015-05-19,Newman,California,37.3275565,4100 Stuhr Rd.,-121.0990877,California Transplants,95360,CA,-8:00,"4100 Stuhr Rd. Newman, CA 95360"
584,3483,2015-05-20,Littleton,,42.5252317,19 Boxwood Dr.,-71.43356469999999,Village Green,1460,MA,-5:00,"19 Boxwood Dr. Littleton, MA 1460"
585,3489,2015-09-02,Falmouth,Mahoney_s,41.5800904,958 E. Falmouth Hwy.,-70.5413959,Mahoney's Garden Center - Falmouth,2536,MA,-5:00,"958 E. Falmouth Hwy. Falmouth, MA 2536"
586,3491,2015-05-28,Haverhill,Leewood,42.800683,60 Newark St.,-71.1091268,Leewood Realty,1832,MA,-5:00,"60 Newark St. Haverhill, MA 1832"
587,3497,2015-04-29,Uxbridge,,42.0209792,832 Aldrich St.,-71.67229859999999,Phil Harper Sr.,1569,MA,-5:00,"832 Aldrich St. Uxbridge, MA 1569"
588,3498,2015-06-02,Upton,,42.168761,66 Fiske Mill Rd.,-71.5671952,Phil Harper Jr.,1568,MA,-5:00,"66 Fiske Mill Rd. Upton, MA 1568"
589,3506,2015-08-18,Billerica,The,42.5229833,9 Progress Rd.,-71.2329426,The Dodge Company,1821,MA,-5:00,"9 Progress Rd. Billerica, MA 1821"
590,3513,2015-06-08,Southborough,,42.2897588,146 Cordaville Rd.,-71.52546029999999,Southborough Solar LLC,1772,MA,-5:00,"146 Cordaville Rd. Southborough, MA 1772"
591,3514,2015-06-10,Marlborough,,42.33387219999999,219 Forest St.,-71.5791067,Fore Kicks - Marlborough,1752,MA,-5:00,"219 Forest St. Marlborough, MA 1752"
592,3515,2015-06-10,Norfolk,,42.0893564,10 Pine St.,-71.2980001,Fore Kicks - Norfolk,2056,MA,-5:00,"10 Pine St. Norfolk, MA 2056"
593,3516,2015-06-12,Holden,Holden,42.3398992,673 Main St.,-71.83901999999999,Holden Discount Liquors,1520,MA,-5:00,"673 Main St. Holden, MA 1520"
594,3517,2015-06-14,Mendon,,42.103126,28 Hastings St. Building E,-71.556438,28 Hastings St Corporation,1756,MA,-5:00,"28 Hastings St. Building E Mendon, MA 1756"
595,3524,,,Hopping,0.0,,0.0,,x,,,none
596,3534,2015-06-23,Whitinsville,ERA,42.1113822,76 Church St.,-71.66125389999999,ERA Key Realty Services,1588,MA,-5:00,"76 Church St. Whitinsville, MA 1588"
597,3536,2015-07-07,Walnut grove,Kay,38.22978500000001,14400 Andrus Island Rd.,-121.535614,Kay Dix,95690,CA,-8:00,"14400 Andrus Island Rd. Walnut grove, CA 95690"
598,3543,2014-07-09,Stow,,42.4195323,,-71.51304449999999,Petter Residence,1775,MA,-5:00," Stow, MA 1775"
599,3544,2014-07-06,Bolton,,42.4352987,,-71.6080009,Rogers Residence,1740,MA,-5:00," Bolton, MA 1740"
600,3545,2014-07-06,Sutton,,42.14213729999999,,-71.7385225,Engstrand Residence,1590,MA,-5:00," Sutton, MA 1590"
601,3546,2014-07-06,Westminster,,42.5580692,,-71.8927076,Marsh Residence,1473,MA,-5:00," Westminster, MA 1473"
602,3547,2014-07-09,Uxbridge,,42.0499476,,-71.6436028,Desisto Residence,1569,MA,-5:00," Uxbridge, MA 1569"
603,3549,2015-06-11,Millbury,,42.1805434,,-71.7978333,Rudge Residence,1527,MA,-5:00," Millbury, MA 1527"
604,3551,2015-06-18,Millis,Milliston,42.1680406,4-18 Milliston Rd.,-71.35509019999999,Milliston Place - Strip Plaza,2054,MA,-5:00,"4-18 Milliston Rd. Millis, MA 2054"
605,3552,2015-06-15,Millis,Milliston,42.1670707,730 Main St.,-71.3541934,Milliston Place - Office Building,2054,MA,-5:00,"730 Main St. Millis, MA 2054"
606,3555,2015-07-20,Rohnert park,North,38.3437823,,-122.7011951,North Bay Industries,94928,CA,-8:00," Rohnert park, CA 94928"
607,3558,2015-07-21,Webster,Long,42.063022,7 Sutton Rd.,-71.85818499999999,Long Subaru - Dealership,1570,MA,-5:00,"7 Sutton Rd. Webster, MA 1570"
608,3562,,,Strafford,0.0,,0.0,,x,,,none
609,3577,2016-09-01,Woburn,Janis,42.4920319,225 Wildwood Ave.,-71.13436109999999,"Janis Research Company, LLC - Building 1",1801,MA,-5:00,"225 Wildwood Ave. Woburn, MA 1801"
610,3583,2015-07-29,Oroville,McInturf_,39.489615,245 Fairhill Dr.,-121.5048373,"McInturf, David",95966,CA,-8:00,"245 Fairhill Dr. Oroville, CA 95966"
611,3585,2015-07-24,Raynham,Mastria,41.90331159999999,1545 New State Hwy.,-71.00979199999999,Mastria Mazda,2767,MA,-5:00,"1545 New State Hwy. Raynham, MA 2767"
612,3590,2015-06-18,Malden,Windsor,42.4275271,212 Maplewood St.,-71.04466959999999,Windsor Architectural Woodworking,2148,MA,-5:00,"212 Maplewood St. Malden, MA 2148"
613,3593,2015-05-27,Essex,,42.61931999999999,134 Southern Ave.,-70.7697419,Donovan Project,1929,MA,-5:00,"134 Southern Ave. Essex, MA 1929"
614,3598,2015-06-18,Worcester,Worcester,42.264001,129 Shrewsbury St.,-71.78853000000001,Worcester Discount Liquors - Shrewsbury St.,1604,MA,-5:00,"129 Shrewsbury St. Worcester, MA 1604"
615,3605,2015-08-15,Woodland,Reiff_,38.7781414,40905 County Road 14,-121.7592549,"Reiff, Allan",95776,CA,-8:00,"40905 County Road 14 Woodland, CA 95776"
616,3607,2015-08-17,Durham,Durham,41.468296,41 Main St.,-72.679108,Durham Firehouse,6422,CT,-5:00,"41 Main St. Durham, CT 6422"
617,3611,2015-08-06,Wayland,Cochituate,42.317418,169 Commonwealth Rd.,-71.36301209999999,Cochituate Village - 169 Commonwealth Road,1778,MA,-5:00,"169 Commonwealth Rd. Wayland, MA 1778"
618,3624,2015-08-10,Ayer,JP,42.5511879,50 Barnum Rd.,-71.5750242,JP Sullivan Phase 2,1748,MA,-5:00,"50 Barnum Rd. Ayer, MA 1748"
619,3630,2015-10-22,Stockton,,37.948237,2280 S. Jack Tone Rd.,-121.143901,Podesta - Huller,95215,CA,-8:00,"2280 S. Jack Tone Rd. Stockton, CA 95215"
620,3634,2015-08-28,Poughkiepsie,Dutchess,41.7009159,5 Laurel St.,-73.93506359999999,Dutchess Beer Distributors,12601,NY,-5:00,"5 Laurel St. Poughkiepsie, NY 12601"
621,3635,2015-08-31,Southbridge,,42.069461,54 Eastford Rd.,-72.0375186,"Hyde Tools, Inc.",1550,MA,-5:00,"54 Eastford Rd. Southbridge, MA 1550"
622,3639,,,Colton,0.0,,0.0,,x,,,none
623,3642,2015-09-01,Lyme,Crossroads,43.7790761,95 Dartmouth College Highway,-72.18205859999999,Crossroads Academy,3768,NH,-5:00,"95 Dartmouth College Highway Lyme, NH 3768"
624,3654,2015-08-09,Millis,Milliston,42.1682205,20A Milliston Rd.,-71.3535921,Milliston Common Main Plaza,2054,MA,-5:00,"20A Milliston Rd. Millis, MA 2054"
625,3655,2015-09-09,Marlborough,EJR,42.3490833,401 Elm St.,-71.5738291,EJR Harr Realty Trust,1752,MA,-5:00,"401 Elm St. Marlborough, MA 1752"
626,3660,2015-09-13,Holliston,Holliston,42.1782224,140 Summer St.,-71.443619,Holliston Meadows Pet Resort,1746,MA,-5:00,"140 Summer St. Holliston, MA 1746"
627,3664,2015-09-15,Glenn,DMG,39.6442657,3239 County Road U,-122.0743421,DMG Farms - Walnuts,95948,CA,-8:00,"3239 County Road U Glenn, CA 95948"
628,3665,2015-09-16,Rio oso,Bear,38.9796345,218 Pleasant Grove Rd,-121.4872577,Bear River Supply,95074,CA,-8:00,"218 Pleasant Grove Rd Rio oso, CA 95074"
629,3668,2015-09-16,Worcester,Worcester,42.3229998,29 Mountain St.,-71.7899018,Worcester - Mountain Street LLC,1606,MA,-5:00,"29 Mountain St. Worcester, MA 1606"
630,3673,,,Fortifiber,0.0,,0.0,,x,,,none
631,3680,2015-09-25,Millis,Milliston,42.1678674,27 Milliston Rd.,-71.3517267,Milliston Common - Gold's Gym,2054,MA,-5:00,"27 Milliston Rd. Millis, MA 2054"
632,3681,2015-09-18,Malden,A,42.4305867,15 Joseph St.,-71.05562669999999,,2148,MA,-5:00,"15 Joseph St. Malden, MA 2148"
633,3682,2015-09-30,Natick,Amvets,42.302536,1 Superior Dr.,-71.3711618,Amvets Post 79,1760,MA,-5:00,"1 Superior Dr. Natick, MA 1760"
634,3691,2015-10-06,Hopkinton,,42.217327,98 Hayden Rowe St.,-71.5168237,SED Hopkinton Center for the Arts,1748,MA,-5:00,"98 Hayden Rowe St. Hopkinton, MA 1748"
635,3693,2015-10-07,Canton,Cyrus,42.1666151,465 Turnpike Rd.,-71.11152229999999,Cyrus Properties LLC,2021,MA,-5:00,"465 Turnpike Rd. Canton, MA 2021"
636,3698,2015-10-12,Ellensburg,,47.152347,1710 W Sun East Rd.,-120.564254,Thomas Solar,98926,WA,-8:00,"1710 W Sun East Rd. Ellensburg, WA 98926"
637,3699,2015-10-12,Priceton,Giesbretch_,39.5324286,1948 Road X,-122.0274254,"Giesbretch, Chad",95943,CA,-8:00,"1948 Road X Priceton, CA 95943"
638,3706,2015-10-10,Rio oso,Nelson,38.923383,2991 Cornelius Ave.,-121.510216,Nelson - Dryers,95668,CA,-8:00,"2991 Cornelius Ave. Rio oso, CA 95668"
639,3707,2015-10-15,Corning,Whiteley_,39.8918713,25321 Pennsylvania Ave.,-122.0908938,,96021,CA,-8:00,"25321 Pennsylvania Ave. Corning, CA 96021"
640,3717,2015-10-28,Sacramento,Fleet,38.6662041,1317 Vinci Ave.,-121.4345918,Fleet Guy,95838,CA,-8:00,"1317 Vinci Ave. Sacramento, CA 95838"
641,3718,2015-08-01,Wayland,Cochituate,42.3168982,25 Main St.,-71.362332,Cochituate Village - 25 Main Street,1778,MA,-5:00,"25 Main St. Wayland, MA 1778"
642,3736,2015-10-01,Weyers cave,,38.2808153,97 Railside Dr.,-78.9286916,"Railside Industries, Inc.",24486,VA,-5:00,"97 Railside Dr. Weyers cave, VA 24486"
643,3749,2015-10-28,Live oak,Goodman,39.293759,8581 Bigelow Road,-121.771489,Goodman Ranch,95953,CA,-8:00,"8581 Bigelow Road Live oak, CA 95953"
644,3750,2015-09-18,Cambridge,Harvard,42.3794399,18 Everett St.,-71.1182292,Harvard Law School - Wasserstien,1238,MA,-5:00,"18 Everett St. Cambridge, MA 1238"
645,3751,2015-11-03,Williams,Sacramento,39.2168048,5498 Lurline Ave.,-122.191348,Sacramento Valley Seed,95987,CA,-8:00,"5498 Lurline Ave. Williams, CA 95987"
646,3766,2015-12-01,Walpole,Minuteman,42.110385,2181 Providence Hwy.,-71.246123,"Minuteman Trucks, Inc.",2081,MA,-5:00,"2181 Providence Hwy. Walpole, MA 2081"
647,3767,2015-11-10,Franklin,Ichigo,42.0917839,837 W. Central St.,-71.43083349999999,Ichigo Ichie,2038,MA,-5:00,"837 W. Central St. Franklin, MA 2038"
648,3771,2015-09-18,Taunton,Fore,41.9292214,223 Fremont St.,-71.12128249999999,Fore Kicks - Taunton,2780,MA,-5:00,"223 Fremont St. Taunton, MA 2780"
649,3773,2015-11-12,Arbuckle,Jake,39.050792,1438 Ohm Rd.,-122.040699,Jake Kley,95912,CA,-8:00,"1438 Ohm Rd. Arbuckle, CA 95912"
650,3774,2016-04-01,Orange,Hunt,42.5540309,207 Daniel Shays Hwy.,-72.2896389,Hunt Farm 202 Solar,1364,MA,-5:00,"207 Daniel Shays Hwy. Orange, MA 1364"
651,3776,2015-11-16,Cambridge,,42.3868856,445 Concord Ave,-71.1386316,CSS PV Array,2138,MA,-5:00,"445 Concord Ave Cambridge, MA 2138"
652,3778,2015-11-18,Abington,Aroyan,42.1413877,1423 Bedford St.,-70.95180069999999,Aroyan,2351,MA,-5:00,"1423 Bedford St. Abington, MA 2351"
653,3781,2015-11-20,Stockton,,37.9137937,7367 E. Mariposa Rd.,-121.1863869,Podesta - Processer,95215,CA,-8:00,"7367 E. Mariposa Rd. Stockton, CA 95215"
654,3790,2015-11-30,Live oak,Wilbur,39.1885369,1500 Eager Road,-121.638639,Wilbur Packing,95953,CA,-8:00,"1500 Eager Road Live oak, CA 95953"
655,3793,2015-11-23,Hopedale,373,42.1546502,373 - 383 West St.,-71.56519829999999,373 - 383 West Street - Nominee Realty Trust,1747,MA,-5:00,"373 - 383 West St. Hopedale, MA 1747"
656,3798,2015-12-01,Clements,Brown_,38.219383,25291 McIntire Rd.,-121.040213,"Brown, Daniel",95227,CA,-8:00,"25291 McIntire Rd. Clements, CA 95227"
657,3800,,,Mason,0.0,,0.0,,x,,,none
658,3801,2015-04-01,West brookfield,Wickaboag,42.2698838,94 John Gilbert Rd.,-72.1691075,Wickaboag Solar,1585,MA,-5:00,"94 John Gilbert Rd. West brookfield, MA 1585"
659,3805,2015-12-02,Danvers,Russo,42.5529573,10 Hutchinson Dr.,-70.9326672,Russo Marine,1923,MA,-5:00,"10 Hutchinson Dr. Danvers, MA 1923"
660,3819,2015-12-10,Worcester,Dennison,42.23807619999999,692 Millbury St.,-71.7977521,Dennison Lubricants - Worcester,1607,MA,-5:00,"692 Millbury St. Worcester, MA 1607"
661,3821,2015-12-01,Hancock,Hancock,42.5637974,297 Brodie Mountain Rd.,-73.284874,Hancock PV,2137,MA,-5:00,"297 Brodie Mountain Rd. Hancock, MA 2137"
662,3843,2015-12-21,Yuba city,Penning,38.990703,8109 Everglade Rd.,-121.767264,Penning Farms,95676,CA,-8:00,"8109 Everglade Rd. Yuba city, CA 95676"
663,3844,2015-12-21,Gridley,Big,39.340532,954 Highway 99,-121.683979,Big Valley Ag,95948,CA,-8:00,"954 Highway 99 Gridley, CA 95948"
664,3854,2015-12-30,Fall river,Saber,41.7009147,231 Bedford St.,-71.151118,Saber Auto Body,2720,MA,-5:00,"231 Bedford St. Fall river, MA 2720"
665,3855,2015-12-30,Stoughton,Cyn,42.1338539,100 Tosca Dr.,-71.1257313,Cyn Environmental,2072,MA,-5:00,"100 Tosca Dr. Stoughton, MA 2072"
666,3856,2015-12-30,Dighton,Shaws,41.8145322,86 Main St.,-71.1158394,Shaws Boat Yard,2715,MA,-5:00,"86 Main St. Dighton, MA 2715"
667,3857,2015-12-30,Webster,Christopher,42.0669847,56 Worcester Rd.,-71.8636647,Christopher Lindstrom Roof Top,1570,MA,-5:00,"56 Worcester Rd. Webster, MA 1570"
668,3858,2015-12-18,Bellingham,Bellingham,42.0894465,15 N. Main St.,-71.4747312,Bellingham Plaza,2019,MA,-5:00,"15 N. Main St. Bellingham, MA 2019"
669,3859,2015-12-15,Concord,SED,42.4676146,555 Virginia Rd.,-71.3034752,SED Paradigm Properties - Building 5,1742,MA,-5:00,"555 Virginia Rd. Concord, MA 1742"
670,3860,2015-12-18,Lexington,Cotting,42.4199647,453 Concord Ave.,-71.2373977,Cotting School,2421,MA,-5:00,"453 Concord Ave. Lexington, MA 2421"
671,3861,2015-12-18,Concord,SED,42.4672473,575 Virginia Rd.,-71.302176,SED Paradigm Properties - Building 3,1742,MA,-5:00,"575 Virginia Rd. Concord, MA 1742"
672,3862,2015-12-18,Concord,SED,42.4683167,561 Virginia Rd.,-71.3023616,SED Paradigm Properties - Building 4,1742,MA,-5:00,"561 Virginia Rd. Concord, MA 1742"
673,3864,,,Danna,0.0,,0.0,,x,,,none
674,3866,,,Goodyear,0.0,,0.0,,x,,,none
675,3868,2016-01-05,Washington,Atlas,38.9148396,"2052 West Virginia Ave. N.E., Ste. 102",-76.98136269999999,Atlas Brew Works,20002,DC,-5:00,"2052 West Virginia Ave. N.E., Ste. 102 Washington, DC 20002"
676,3876,2016-01-08,Colusa,Sheep,39.3375839,4748 River Rd.,-122.0063235,Sheep Barn,95932,CA,-8:00,"4748 River Rd. Colusa, CA 95932"
677,3881,2016-01-04,Acampo,,38.18707,13852 E. Peltier Rd.,-121.145156,Nestor - El Rio,95220,CA,-8:00,"13852 E. Peltier Rd. Acampo, CA 95220"
678,3889,2016-01-01,Hopedale,SED,42.10744469999999,10 Tandem Way,-71.5093811,SED Braun's Express,1747,MA,-5:00,"10 Tandem Way Hopedale, MA 1747"
679,3890,2016-01-14,Spencer,Mercury,42.256608,1 Mercury Dr.,-71.9632888,Mercury Wire Products,1562,MA,-5:00,"1 Mercury Dr. Spencer, MA 1562"
680,3891,2016-01-14,Fitchburg,MDP,42.584552,245 River St.,-71.8173849,MDP 245 Riverside Commons,1420,MA,-5:00,"245 River St. Fitchburg, MA 1420"
681,3901,2016-01-15,Colusa,Headquarters,39.3346962,4622 River Rd.,-122.0168594,Headquarters,95932,CA,-8:00,"4622 River Rd. Colusa, CA 95932"
682,3913,2016-01-21,Chico,Pine,39.8404202,7020 Cana Hwy.,-122.0162161,Pine Creek - Shop,95973,CA,-8:00,"7020 Cana Hwy. Chico, CA 95973"
683,3914,2016-01-21,Chico,Pine,39.8404202,7020 Cana Hwy.,-122.0162161,Pine Creek - 100,95928,CA,-8:00,"7020 Cana Hwy. Chico, CA 95928"
684,3925,2016-01-01,Norwood,Gaston,42.1720535,85 Morse St.,-71.2032408,"Gaston Electrical / Weber Bros., LLC",2062,MA,-5:00,"85 Morse St. Norwood, MA 2062"
685,3926,2016-01-01,Ware,Quabbin,42.25842,10 Maple St.,-72.239616,,1082,MA,-5:00,"10 Maple St. Ware, MA 1082"
686,3927,2016-01-01,Ware,Quabbin,42.2584208,12 Maple St.,-72.2394551,,1082,MA,-5:00,"12 Maple St. Ware, MA 1082"
687,3928,2016-01-28,Plymouth,CSH,41.958703,15 Apollo 11 Rd.,-70.690212,CSH Industries - AJ Providers,2360,MA,-5:00,"15 Apollo 11 Rd. Plymouth, MA 2360"
688,3929,2016-01-28,Tewksbury,Carter,42.6207775,20 Carter St.,-71.1945155,Carter Street Realty - Turf Time,1876,MA,-5:00,"20 Carter St. Tewksbury, MA 1876"
689,3930,2016-01-28,Lowell,General,42.64057649999999,224 Walker St.,-71.3300143,General Woodworking - 224 Walker Street,18501,MA,-5:00,"224 Walker St. Lowell, MA 18501"
690,3931,2016-01-28,Lincoln,Lincoln,42.41618150000001,50 Wells Rd.,-71.3238879,Lincoln Woods - Ground Mount,1773,MA,-5:00,"50 Wells Rd. Lincoln, MA 1773"
691,3932,2016-01-28,Lincoln,Lincoln,42.41618150000001,50 Wells Rd.,-71.3238879,Lincoln Woods - Roof Mount,1773,MA,-5:00,"50 Wells Rd. Lincoln, MA 1773"
692,3933,2016-01-28,Milford,Sky,42.1527242,340 E. Main St.,-71.4925011,Sky Buffet,1757,MA,-5:00,"340 E. Main St. Milford, MA 1757"
693,3934,2016-01-28,Somerville,Select,42.3798617,66 Union Sq.,-71.09510159999999,Select Development - Somerville,2143,MA,-5:00,"66 Union Sq. Somerville, MA 2143"
694,3945,2016-02-01,Escalon,Hoff_,37.759693,23291 E. River Rd.,-121.021296,,95320,CA,-8:00,"23291 E. River Rd. Escalon, CA 95320"
695,3947,,,Payne,0.0,,0.0,,x,,,none
696,3954,2016-01-07,Lodi,Rivermaid,38.13497,6011 E. Pine St.,-121.241025,Rivermaid Green,95240,CA,-8:00,"6011 E. Pine St. Lodi, CA 95240"
697,3955,,,Rivermaid,0.0,,0.0,,x,,,none
698,3958,2016-02-02,Sutter,,39.149137,1429 Acacia Ave.,-121.7527155,Sutter Rice,95776,CA,-8:00,"1429 Acacia Ave. Sutter, CA 95776"
699,3959,2016-02-02,Olivehurst,Packaging,39.059983,3663 Feather River Blvd.,-121.577391,"Packaging Specialist, Inc.",95961,CA,-8:00,"3663 Feather River Blvd. Olivehurst, CA 95961"
700,3962,2016-02-03,South dennis,Tony,41.7037477,8 Gages Way,-70.1470421,Tony Kent IGS,2660,MA,-5:00,"8 Gages Way South dennis, MA 2660"
701,3963,2016-02-03,Fitchburg,Tango,42.5634947,134 Crawford St.,-71.7630822,Tango Construction,1420,MA,-5:00,"134 Crawford St. Fitchburg, MA 1420"
702,3968,2016-01-07,Lodi,Rivermaid,38.13497,6011 E. Pine St.,-121.241025,Rivermaid Red,95240,CA,-8:00,"6011 E. Pine St. Lodi, CA 95240"
703,3970,2016-02-01,Lowell,General,42.6402318,299 Western Ave.,-71.322467,General Woodworking - 299 Western Avenue,1851,MA,-5:00,"299 Western Ave. Lowell, MA 1851"
704,3977,2016-02-09,Arbuckle,College,39.0128571,7521 Tule Rd.,-121.9814267,College City - Dryer,95912,CA,-8:00,"7521 Tule Rd. Arbuckle, CA 95912"
705,3978,2016-02-10,Brockton,JLS,42.0819828,672 Crescent St.,-70.9925046,JLS Mailing Services,2302,MA,-5:00,"672 Crescent St. Brockton, MA 2302"
706,3979,2016-02-11,Arbuckle,College,39.0128571,7521 Tule Rd.,-121.9814267,College City - Pump,95912,CA,-8:00,"7521 Tule Rd. Arbuckle, CA 95912"
707,3980,2016-02-10,Whitman,Duval_s,42.0806968,571 Washington St.,-70.9371745,Duval's Pharmacy,2382,MA,-5:00,"571 Washington St. Whitman, MA 2382"
708,3986,2016-02-12,Barnstable,,41.6567207,,-70.3003572,Huntley Residence,2601,MA,-5:00," Barnstable, MA 2601"
709,3988,2016-02-12,Avon,BC,42.1255713,25 Bodwell St.,-71.0526553,,2322,MA,-5:00,"25 Bodwell St. Avon, MA 2322"
710,3991,2016-02-16,Cotuit,Berkey,41.6211924,756 Main St.,-70.4345905,Berkey Residence,2635,MA,-5:00,"756 Main St. Cotuit, MA 2635"
711,4025,2016-02-22,Osterville,Driscoll,41.6320177,Evans Rd.,-70.3756211,Driscoll Residence,2655,MA,-5:00,"Evans Rd. Osterville, MA 2655"
712,4027,2016-02-23,Wrentham,SSG,42.0585096,475 Washington St.,-71.2962369,"SSG Douglas A. King Builders, Inc.",2093,MA,-5:00,"475 Washington St. Wrentham, MA 2093"
713,4031,2016-02-29,Allston,HBS,42.3622734,25 Travis St.,-71.128963,HBS - Travis Hall,2134,MA,-5:00,"25 Travis St. Allston, MA 2134"
714,4032,2016-02-29,Gloucester,Butman,42.6292816,19 Pond St.,-70.6429797,Butman Project,1930,MA,-5:00,"19 Pond St. Gloucester, MA 1930"
715,4033,2016-02-29,Gloucester,Dodge,42.6261997,150 Eastern Ave.,-70.6387579,Dodge Street Realty,1930,MA,-5:00,"150 Eastern Ave. Gloucester, MA 1930"
716,4034,2016-02-29,Stoughton,Tempus,42.15485839999999,600 Technology Center Dr.,-71.0652837,"Tempus Unlimited, Inc.",2072,MA,-5:00,"600 Technology Center Dr. Stoughton, MA 2072"
717,4035,2016-02-29,Gloucester,,42.6285706,11 Pond Rd.,-70.6412442,Robert Fronitero,1930,MA,-5:00,"11 Pond Rd. Gloucester, MA 1930"
718,4036,2016-02-29,Culver city,Julian,34.0076229,4975 Overland Ave,-118.3970701,Julian Dixon Library PV,90230,CA,-8:00,"4975 Overland Ave Culver city, CA 90230"
719,4038,2016-03-01,Los angeles,A,33.9160819,150 E. El Segundo Blvd.,-118.2723047,A C Bilbrew Library,90061,CA,-8:00,"150 E. El Segundo Blvd. Los angeles, CA 90061"
720,4040,2016-03-01,Sun valley,Community,43.6891033,1 Community School Dr.,-114.3530637,Community School,83353,IDAHO,-7:00,"1 Community School Dr. Sun valley, IDAHO 83353"
721,4041,2016-03-01,Worcester,Aster,42.318228,220 Brooks St.,-71.79998119999999,Aster Group - Brooks Street,1606,MA,-5:00,"220 Brooks St. Worcester, MA 1606"
722,4042,2016-03-01,Pleasant grove,Scheidel_,38.8430959,1458 W. Catlett Rd.,-121.5665457,"Scheidel, Aaron",95668,CA,-8:00,"1458 W. Catlett Rd. Pleasant grove, CA 95668"
723,4047,2016-03-02,Marionville,C_L_,36.9912273,19042 Lawrence 1240,-93.626015,"C.L. Bailey Company, Main Bldg",65705,MO,-6:00,"19042 Lawrence 1240 Marionville, MO 65705"
724,4048,2016-03-02,Ozark,BK_P,37.00494390000001,1651 S. 22nd Street,-93.18330999999999,,65721,MO,-6:00,"1651 S. 22nd Street Ozark, MO 65721"
725,4057,2016-03-08,Yuba city,Danna,39.16692,2765 Young Rd.,-121.668901,Danna Farms - Yuba City,95993,CA,-8:00,"2765 Young Rd. Yuba city, CA 95993"
726,4059,2016-03-09,Pleasant grove,Dunbar_,38.8643072,4100 Pleasant Grove Rd.,-121.4877708,"Dunbar, Jason",95668,CA,-8:00,"4100 Pleasant Grove Rd. Pleasant grove, CA 95668"
727,4061,2016-03-09,Pleasant grove,Double,38.7753508,4100 Pleasant Grove Blvd.,-121.3934744,Double D Farms - Dunbar,95668,CA,-8:00,"4100 Pleasant Grove Blvd. Pleasant grove, CA 95668"
728,4065,2016-03-10,Waltham,Waltham,42.3770932,71 Massasoit St.,-71.2246356,Waltham Lumber Building Materials,2453,MA,-5:00,"71 Massasoit St. Waltham, MA 2453"
729,4070,2016-03-14,Escalon,DeRuosi,37.80532,25055 E. Arthur Rd.,-121.002503,DeRuosi Nut,95320,CA,-8:00,"25055 E. Arthur Rd. Escalon, CA 95320"
730,4071,2016-03-15,Meridian,Henderson,39.17111999999999,2551 Farmlan Rd.,-121.907025,Henderson,95957,CA,-8:00,"2551 Farmlan Rd. Meridian, CA 95957"
731,4072,2016-02-15,Southlake,Trinity,32.9275121,925 S Kimball Ave,-97.113689,"Trinity Private Equity Group, Kimball",76092,TX,-5:00,"925 S Kimball Ave Southlake, TX 76092"
732,4074,2016-03-16,Woodland,Heidrick,38.7504677,12972 County Road 102,-121.7328995,Heidrick - Huff Pumps,95776,CA,-8:00,"12972 County Road 102 Woodland, CA 95776"
733,4076,,,Baloian,0.0,,0.0,,x,,,none
734,4077,2016-02-01,Frenso,Double,36.6765725,,-119.7194377,Double E Farms #12,93725,CA,-8:00," Frenso, CA 93725"
735,4078,2016-03-17,Reno,,39.4695039,3555 Airway Dr.,-119.7692946,Sunworks Nevada,89511,CA,-8:00,"3555 Airway Dr. Reno, CA 89511"
736,4082,2016-03-21,Glenn,Geisbrecht_,39.5683202,2369 Highway 45,-122.011954,"Geisbrecht, Brandon",95943,CA,-8:00,"2369 Highway 45 Glenn, CA 95943"
737,4084,2016-03-22,Santa maria,Innovative,34.9568,2165 W. Main St.,-120.491973,Innovative Produce - Pump,93458,CA,-8:00,"2165 W. Main St. Santa maria, CA 93458"
738,4085,2016-03-23,Upton,,42.18784000000001,43 Walnut St.,-71.5764058,Greenwald Residence,1568,MA,-5:00,"43 Walnut St. Upton, MA 1568"
739,4089,2016-03-28,Chico,Pine,39.8404202,7020 Cana Hwy.,-122.0162161,,95928,CA,-8:00,"7020 Cana Hwy. Chico, CA 95928"
740,4092,2016-03-22,Santa maria,Innovative,34.95427910000001,1615 W. Main St.,-120.4704795,Innovative Produce - Shop,93458,CA,-8:00,"1615 W. Main St. Santa maria, CA 93458"
741,4099,2016-03-29,Milford,Plumb,42.1406828,10 Industrial Rd.,-71.4910171,Plumb House,2302,MA,-5:00,"10 Industrial Rd. Milford, MA 2302"
742,4100,2016-03-28,Chestnut hill,,42.3291848,33 Kingsbury Rd.,-71.16987,Cohen / Stapleton Residence,2467,MA,-5:00,"33 Kingsbury Rd. Chestnut hill, MA 2467"
743,4101,2016-03-30,Rio oso,DeValentine,38.978552,2890 Bear River Dr.,-121.507386,DeValentine Farms,95674,CA,-8:00,"2890 Bear River Dr. Rio oso, CA 95674"
744,4102,2016-03-30,Chico,Pine,39.8404202,7020 Cana Hwy.,-122.0162161,Pine Creek - 700,95928,CA,-8:00,"7020 Cana Hwy. Chico, CA 95928"
745,4106,2016-03-30,Butte city,Clark,39.3920881,705 County Road Y,-121.9554736,Clark Land Co.,95920,CA,-8:00,"705 County Road Y Butte city, CA 95920"
746,4108,2016-03-31,Sparks,,39.5103197,100 Canyon Way,-119.6493532,Menezes Bros. Inc.,89434,NV,-8:00,"100 Canyon Way Sparks, NV 89434"
747,4112,2016-04-07,Natick,21,42.2963631,21 Strathmore Rd.,-71.3847787,21 Stratsol LLC,1760,MA,-5:00,"21 Strathmore Rd. Natick, MA 1760"
748,4115,2016-04-01,Cypress,,33.8021143,5900 Katella Ave.,-118.0301359,"Mitsubishi Electric PV System, Cypress",90630,CA,-8:00,"5900 Katella Ave. Cypress, CA 90630"
749,4117,2016-04-11,Richvale,BUCRA,39.491494,1121 Richvale Hwy.,-121.740859,BUCRA - Roof Mount,95974,CA,-8:00,"1121 Richvale Hwy. Richvale, CA 95974"
750,4120,2016-04-13,Pleasant grove,Nelson,38.9037715,2789 Pleasant Grove Rd.,-121.4938838,Nelson - Pump,95668,CA,-8:00,"2789 Pleasant Grove Rd. Pleasant grove, CA 95668"
751,4121,,,Williams,0.0,,0.0,,x,,,none
752,4123,2016-04-24,Tyngsboro,Enright,42.6842225,100 Business Park Dr.,-71.446541,Enright LLC,1879,MA,-5:00,"100 Business Park Dr. Tyngsboro, MA 1879"
753,4126,2016-03-12,Merdian,Fedora,39.17111999999999,2551 Farmlan Rd.,-121.907025,Fedora Farms Inc.,95957,CA,-8:00,"2551 Farmlan Rd. Merdian, CA 95957"
754,4132,2016-04-21,Bolivar,Bank,37.6084709,575 S. Main Ave.,-93.4090214,Bank of Bolivar - Annex,65613,MO,-6:00,"575 S. Main Ave. Bolivar, MO 65613"
755,4133,2016-04-21,Bolivar,Bank,37.609005,107 Keeling Pl.,-93.40956480000001,Bank of Bolivar - Keeling Place,65613,MO,-6:00,"107 Keeling Pl. Bolivar, MO 65613"
756,4134,2016-04-21,Fair grove,Bank,37.3844101,40 N. Main St.,-93.1508698,Bank of Bolivar - Fair Grove Branch,65648,MO,-6:00,"40 N. Main St. Fair grove, MO 65648"
757,4135,2016-04-21,Bolivar,Bank,37.6123154,2126 W. Broadway St.,-93.4346333,Bank of Bolivar - West Broadway Branch,65613,MO,-6:00,"2126 W. Broadway St. Bolivar, MO 65613"
758,4136,2016-04-21,Joplin,O_Reilly,37.0440255,4026 Arizona Ave.,-94.48130379999999,"O'Reilly Hospitality - Town Place Suites, Joplin",64804,MO,-6:00,"4026 Arizona Ave. Joplin, MO 64804"
759,4137,2016-04-21,Republic,Macadoodles,37.1331848,1439 Us-60,-93.4576443,Macadoodles,65738,MO,-6:00,"1439 Us-60 Republic, MO 65738"
760,4138,2016-04-21,Branson,O_Reilly,36.6441644,1000 W Main St,-93.23211719999999,"O'Reilly Hospitality - Baymont Inn, Branson",65616,MO,-6:00,"1000 W Main St Branson, MO 65616"
761,4139,2016-04-21,Bolivar,Bank,37.6085204,495 S Springfield Ave,-93.4086353,"Bank of Bolivar, Springfield Ave",65613,MO,-6:00,"495 S Springfield Ave Bolivar, MO 65613"
762,4140,2016-04-21,San jose,Tulare,37.3620568,1132 N. Seventh Street,-121.8998808,Tulare City School District Solar Project Maple,95112,CA,-8:00,"1132 N. Seventh Street San jose, CA 95112"
763,4144,2016-04-22,Anacortes,Anacortes,48.5177704,904 6th St.,-122.611415,Anacortes City Hall,98221,WA,-8:00,"904 6th St. Anacortes, WA 98221"
764,4148,2016-04-25,Live oak,COE,39.303332,3453 Riviera Rd.,-121.675702,COE Orchard Equipment,95953,CA,-8:00,"3453 Riviera Rd. Live oak, CA 95953"
765,4150,2016-04-27,Ipswich,State,42.6941009,195 High St.,-70.8597942,State Supply Corp.,1938,MA,-5:00,"195 High St. Ipswich, MA 1938"
766,4151,2015-12-01,Provincetown,Provincetown,42.0376425,1 Commercial St.,-70.1957199,Provincetown Inn,2657,MA,-5:00,"1 Commercial St. Provincetown, MA 2657"
767,4155,2016-04-29,Newburyport,East,42.7989109,4 Malcolm Hoyt Dr.,-70.8914715,East Coast Welding - Phase 2,1950,MA,-5:00,"4 Malcolm Hoyt Dr. Newburyport, MA 1950"
768,4157,2016-05-02,Cambridge,,42.3636136,Western Avenue,-71.1250116,HBS - Shad Hall,x,MA,-5:00,"Western Avenue Cambridge, MA x"
769,4160,2016-05-02,Woburn,Nardone,42.4998132,160 Olympia Ave.,-71.141788,Nardone Electric - 160 Olympia Avenue,1801,MA,-5:00,"160 Olympia Ave. Woburn, MA 1801"
770,4171,2016-05-12,Nicolaus,Willey_,38.775301,1285 Sankey Rd.,-121.573729,,95659,CA,-8:00,"1285 Sankey Rd. Nicolaus, CA 95659"
771,4177,2016-05-19,Natick,,42.2857399,10 Cochituate St.,-71.3501726,Metrowest Appraisal Services,1760,MA,-5:00,"10 Cochituate St. Natick, MA 1760"
772,4185,2016-05-19,Fresno,Bridge,36.7936848,3438 E. Ashlan Ave.,-119.7675071,Bridge Church,93726,CA,-8:00,"3438 E. Ashlan Ave. Fresno, CA 93726"
773,4187,2016-05-19,Butte city,R67,39.4199908,Road 67,-121.9412915,R67 Ranch,95920,CA,-8:00,"Road 67 Butte city, CA 95920"
774,4190,2016-05-23,Marlborough,,42.3473806,91 Main St.,-71.5460133,NEI Solar,1752,MA,-5:00,"91 Main St. Marlborough, MA 1752"
775,4193,2016-05-19,Toms river,Toms,39.95461359999999,340 W. Water St.,-74.2055052,Toms River MUA,8753,NJ,-5:00,"340 W. Water St. Toms river, NJ 8753"
776,4200,,,4,0.0,,0.0,,x,,,none
777,4201,2016-05-27,Stockton,Stockton,37.6911421,906 South St.,-93.79545399999999,Stockton R-1 School District,65785,MO,-6:00,"906 South St. Stockton, MO 65785"
778,4207,2016-06-01,Colusa,Colusa,39.1795237,2889 Niagara Ave.,-122.0000097,Colusa Rice A - Flat Warehouse #2,95932,CA,-8:00,"2889 Niagara Ave. Colusa, CA 95932"
779,4208,2016-06-01,Colusa,Colusa,39.1795237,2889 Niagara Ave,-122.0000097,Colusa Rice B - Dryer #2,95932,CA,-8:00,"2889 Niagara Ave Colusa, CA 95932"
780,4209,2016-06-01,Colusa,Colusa,39.1795237,2889 Niagara Ave.,-122.0000097,Colusa Rice C - Dryer #1 (NEM),95932,CA,-8:00,"2889 Niagara Ave. Colusa, CA 95932"
781,4210,2016-06-01,Cape girardeau,Mid_South,37.2784199,2071 Corporate Circle,-89.5448229,"Mid-South Steel Products, Inc.",63703,MO,-6:00,"2071 Corporate Circle Cape girardeau, MO 63703"
782,4212,2016-06-03,Glenn,DMG,39.597402,,-122.026918,DMG - Rice,95943,CA,-8:00," Glenn, CA 95943"
783,4213,2016-06-03,San andreas,PAWS,38.1869503,1250 Pool Station Rd.,-120.6893224,PAWS,96249,CA,-8:00,"1250 Pool Station Rd. San andreas, CA 96249"
784,4217,2016-06-07,South easton,,42.0476409,32 Norfolk Ave.,-71.07605459999999,Interstate Mat Corp. - Cucinotta (Phase 1),2375,MA,-5:00,"32 Norfolk Ave. South easton, MA 2375"
785,4220,2016-06-06,Kansas city,Superior,39.108334,701 Woodswether St,-94.592305,Superior Surface Solutions,x,MO,-6:00,"701 Woodswether St Kansas city, MO x"
786,4221,2017-03-15,Gloucester,Cape,42.6186614,44 Whittemore St.,-70.6769328,Cape Ann Forge Trust,1930,MA,-5:00,"44 Whittemore St. Gloucester, MA 1930"
787,4228,2016-06-08,Lincoln,Van,38.9375447,6015 Waltz Rd.,-121.4004753,Van Dyke - Lincoln,95648,CA,-8:00,"6015 Waltz Rd. Lincoln, CA 95648"
788,4229,2016-06-08,Pleasant grove,Van,38.856107,4416 Pleasant Grove Rd.,-121.483376,Van Dyke - Pleasant Grove,95668,CA,-8:00,"4416 Pleasant Grove Rd. Pleasant grove, CA 95668"
789,4234,2016-06-13,Medfield,Medfield,42.1904491,99 Old Bridge St.,-71.33306879999999,Medfield Wastewater Treatment Plant,2052,MA,-5:00,"99 Old Bridge St. Medfield, MA 2052"
790,4236,2016-06-01,North chelmsford,,42.6332321,1 Ward Way,-71.409925,J.P. Rivard Trailer Sales Inc.,1863,MA,-5:00,"1 Ward Way North chelmsford, MA 1863"
791,4237,2016-06-14,West sacramento,West,38.5696885,809 Ball Park Ave.,-121.5314992,West Sacramento - Bridge District Water,95691,CA,-8:00,"809 Ball Park Ave. West sacramento, CA 95691"
792,4244,2016-05-18,Nubieber,Bieber,41.1042581,654-300 Hwy. 299,-121.1584701,Bieber Ranch,96068,CA,-8:00,"654-300 Hwy. 299 Nubieber, CA 96068"
793,4250,2016-06-17,Kansas city,Vintage,39.1264478,319 E 10th Ave,-94.5762261,"Vintage Vettes, LLC",64116,MO,-6:00,"319 E 10th Ave Kansas city, MO 64116"
794,4251,2016-06-21,Plano,O_Reilly,33.0810673,7500 Parkwood Blvd.,-96.8173061,"O'Reilly Hospitality - Cambria Suites, TX",75024,TX,-6:00,"7500 Parkwood Blvd. Plano, TX 75024"
795,4252,2016-06-20,Millis,Route,42.1588711,1575 Main St.,-71.38911949999999,"Route 109 Self Storage, Inc.",2054,MA,-5:00,"1575 Main St. Millis, MA 2054"
796,4261,,,Augusta,0.0,,0.0,,x,,,none
797,4262,,,Augusta,0.0,,0.0,,x,,,none
798,4263,,,Augusta,0.0,,0.0,,x,,,none
799,4264,,,Augusta,0.0,,0.0,,x,,,none
800,4266,2016-06-29,Kansas city,Bill,38.9153349,8951 Longview Rd,-94.4843418,Bill John Residence,64134,MO,-6:00,"8951 Longview Rd Kansas city, MO 64134"
801,4267,2016-06-29,Cambridge,HBS,42.3666422,49 Harvard Way,-71.1199318,HBS - Chao Center,2163,MA,-5:00,"49 Harvard Way Cambridge, MA 2163"
802,4268,2016-07-01,Gloucester,Jimary,42.6156729,11 Parker St.,-70.6507707,Jimary Land Trust,1930,MA,-5:00,"11 Parker St. Gloucester, MA 1930"
803,4269,2016-06-29,Gloucester,,42.6185781,6 Thatcher Rd.,-70.64178629999999,Nor'east Cleaners,1930,MA,-5:00,"6 Thatcher Rd. Gloucester, MA 1930"
804,4282,2016-07-11,Milford,,42.1439898,21 Main St.,-71.5142501,Palmyra LLC / Unique Smile,1757,MA,-5:00,"21 Main St. Milford, MA 1757"
805,4283,2016-07-08,Lakeport,Scully,39.063058,2180 Scotts Valley Rd.,-122.945591,Scully Packing - Scotts Valley,95453,CA,-8:00,"2180 Scotts Valley Rd. Lakeport, CA 95453"
806,4284,2016-07-11,Rio oso,Nelson_,38.9786969,4615 Bear River Drive,-121.448947,"Nelson, EC",95674,CA,-8:00,"4615 Bear River Drive Rio oso, CA 95674"
807,4291,2016-07-13,Bakersfield,Kern,35.3875378,120 30th St.,-119.0036123,,93301,CA,-8:00,"120 30th St. Bakersfield, CA 93301"
808,4295,2016-07-13,Chelmsford,Dolan,42.6363804,106 Middlesex St.,-71.3738553,Dolan Funeral Home,1863,MA,-5:00,"106 Middlesex St. Chelmsford, MA 1863"
809,4296,2016-07-13,Concord,SED,42.468771,341 Virginia Rd.,-71.3111077,SED - Thoreau Farms,1742,MA,-5:00,"341 Virginia Rd. Concord, MA 1742"
810,4297,2016-07-22,Pierce city,Pierce,36.947857,E Adams St.,-93.99920440000001,Pierce City Schools Vocational Bldg,65723,MO,-6:00,"E Adams St. Pierce city, MO 65723"
811,4298,2016-06-22,Pierce city,Pierce,36.9479402,301 N. Myrtle St.,-94.0003012,Pierce City Schools Weatherly Field House,x,MO,-5:00,"301 N. Myrtle St. Pierce city, MO x"
812,4299,2016-07-15,Newton,Augusta,41.105102,152 Hampton House Rd.,-74.72663299999999,Augusta V,7860,NJ,-5:00,"152 Hampton House Rd. Newton, NJ 7860"
813,4301,2016-07-15,Worcester,Hampton,42.2662245,113 -115 Elm St.,-71.8140955,Hampton Properties,1609,MA,-5:00,"113 -115 Elm St. Worcester, MA 1609"
814,4320,2016-09-01,Fall river,Patel,41.695476,427 Plymouth Ave.,-71.153415,Patel Realty Inc.,2721,MA,-5:00,"427 Plymouth Ave. Fall river, MA 2721"
815,4322,2016-09-06,Pierce city,Pierce,36.9481353,300 N. Myrtle,-93.9992712,Pierce City High School,65723,MO,-6:00,"300 N. Myrtle Pierce city, MO 65723"
816,4323,2016-09-06,Pierce city,Pierce,36.9481353,300 N. Myrtle St.,-93.9992712,Pierce City Middle School,65723,MO,-6:00,"300 N. Myrtle St. Pierce city, MO 65723"
817,4324,2016-09-06,Pierce city,Pierce,36.9453751,400 Gibbs Ave.,-93.997435,Pierce City Elementary School,65723,MO,-6:00,"400 Gibbs Ave. Pierce city, MO 65723"
818,4326,2016-09-07,Crozet,Brownsville,38.053005,5870 Rockfish Gap Turnpike,-78.7042759,Brownsville Elementary School,22923,VA,-5:00,"5870 Rockfish Gap Turnpike Crozet, VA 22923"
819,4332,2016-09-05,Kansas city,Hall,39.1100058,815 E. 5th St.,-94.57378759999999,Hall Residence - Kansas City,64106,MO,-6:00,"815 E. 5th St. Kansas city, MO 64106"
820,4334,2016-09-05,Kingston,VADCOD,41.9772178,25 Marion Dr.,-70.7181015,VADCOD Enterprises LLC,2364,MA,-5:00,"25 Marion Dr. Kingston, MA 2364"
821,4337,2016-09-06,Charlottesville,Monticello,37.99898659999999,1400 Independence Way,-78.4895468,Monticello High School,22902,VA,-5:00,"1400 Independence Way Charlottesville, VA 22902"
822,4341,2016-09-13,Ware,15,42.2584842,15 South St.,-72.2406353,"15 South St. LLC - American Athletic Shoe Co., Inc.",1082,MA,-5:00,"15 South St. Ware, MA 1082"
823,4343,2016-09-14,Dorchester,,42.2931647,55 Sharp St.,-71.0660211,Epiphany School,2124,MA,-5:00,"55 Sharp St. Dorchester, MA 2124"
824,4344,2016-09-14,Colusa,Stegall_,39.2166418,1953 Lurline Ave.,-122.0310478,"Stegall, Earl",95932,CA,-8:00,"1953 Lurline Ave. Colusa, CA 95932"
825,4345,2016-09-15,Abington,,42.1052389,78 Dunbar St.,-70.94365049999999,Campbell - Abington,2351,MA,-5:00,"78 Dunbar St. Abington, MA 2351"
826,4346,2016-09-15,Lincoln,,42.4259695,207 Old Concord Rd.,-71.3439559,Mason Home,1773,MA,-5:00,"207 Old Concord Rd. Lincoln, MA 1773"
827,4348,2016-09-15,Leominster,,42.5116485,493 Lancaster Street,-71.74162729999999,Highland Manor Realty Trust,1453,MA,-5:00,"493 Lancaster Street Leominster, MA 1453"
828,4350,2016-09-15,Arbuckle,T_P,39.0175712,"WR1 W Side, Wagner Ave.",-122.0591991,,95912,CA,-8:00,"WR1 W Side, Wagner Ave. Arbuckle, CA 95912"
829,4351,2016-09-19,El dorado hills,Rolling,38.6404607,800 White Rock Rd.,-121.0734033,Rolling Hills Church,95762,CA,-8:00,"800 White Rock Rd. El dorado hills, CA 95762"
830,4353,2016-09-19,Durham,Durham,39.6482917,9420 Putney Dr.,-121.8034733,Durham Unified School District,95938,CA,-8:00,"9420 Putney Dr. Durham, CA 95938"
831,4355,,,Milton,0.0,,0.0,,x,,,none
832,4356,2016-09-12,Live oak,Heier_,39.211449,5440 E. Butte Rd.,-121.716578,"Heier, Thomas",95982,CA,-8:00,"5440 E. Butte Rd. Live oak, CA 95982"
833,4357,2016-09-18,Arbuckle,T_P,38.9912487,Friel Rd.,-122.0174738,,95912,CA,-8:00,"Friel Rd. Arbuckle, CA 95912"
834,4358,2016-09-19,Arbuckle,T_P,38.9654931,GB 1 S.E. Access Rd. Greenbay Rd.,-122.058037,,95912,CA,-8:00,"GB 1 S.E. Access Rd. Greenbay Rd. Arbuckle, CA 95912"
835,4359,2016-11-01,Winchendon,,42.683433,155 Central St.,-72.0460277,SED - Clark Memorial YMCA,1475,MA,-5:00,"155 Central St. Winchendon, MA 1475"
836,4360,2016-09-20,Arbuckle,A_H,38.963991,411 Bawter Road,-122.034765,,95912,CA,-8:00,"411 Bawter Road Arbuckle, CA 95912"
837,4361,2016-09-20,Arbuckle,Mumma,38.965948,7645 Mumma Rd.,-121.953927,Mumma Brothers A,95912,CA,-8:00,"7645 Mumma Rd. Arbuckle, CA 95912"
838,4362,2016-09-21,Arbuckle,Mumma,38.972629,583 College City Rd.,-121.997114,Mumma Brothers B,95912,CA,-8:00,"583 College City Rd. Arbuckle, CA 95912"
839,4363,2016-09-01,Lexington,Lylburn,37.7860069,302 Diamond St.,-79.4339068,Lylburn Downing Middle School,24450,VA,-5:00,"302 Diamond St. Lexington, VA 24450"
840,4367,2016-09-01,Pleasant grove,Sill,38.836588,5072 Pacific Ave.,-121.52535,Sill Farms - Pleasant Grove,95668,CA,-8:00,"5072 Pacific Ave. Pleasant grove, CA 95668"
841,4368,2016-09-22,Winchendon,,42.683433,155 Central St.,-72.0460277,SED Clark Memorial YMCA - Fieldhouse,1475,MA,-5:00,"155 Central St. Winchendon, MA 1475"
842,4374,2016-09-28,Maxwell,Sutton_,39.278363,205 Elm St.,-122.1972653,"Sutton, Mark",95955,CA,-8:00,"205 Elm St. Maxwell, CA 95955"
843,4378,2016-09-29,Bridgeport,Columbia,41.20321260000001,380 Horace St,-73.1761884,Columbia Elevator,6610,CT,-5:00,"380 Horace St Bridgeport, CT 6610"
844,4379,2016-08-31,Bridgeport,Shiloh,41.1699117,477 Broad St.,-73.188131,Shiloh Baptist Church,6604,CT,-5:00,"477 Broad St. Bridgeport, CT 6604"
845,4380,2016-10-01,Worcester,,42.2873779,50 Millbrook St.,-71.80243220000001,"WJL Acquisitions, LLC",1606,MA,-5:00,"50 Millbrook St. Worcester, MA 1606"
846,4381,2016-10-01,Woburn,Janis,42.4920319,225 Wildwood Ave.,-71.13436109999999,"Janis Research Company, LLC - Building 2",1801,MA,-5:00,"225 Wildwood Ave. Woburn, MA 1801"
847,4382,2016-10-01,Keene,2nd,42.9160755,881 Marlboro St.,-72.2287176,2nd Chance Solar,3431,NH,-5:00,"881 Marlboro St. Keene, NH 3431"
848,4388,2016-07-01,Dover,Littleworth,43.1875306,66 Littleworth Rd.,-70.91239039999999,Littleworth Road Solar,3820,NH,-5:00,"66 Littleworth Rd. Dover, NH 3820"
849,4389,2016-09-06,Milford,75,41.206362,75 DeMaio Dr.,-73.074778,75 DeMaio Drive,6460,CT,-5:00,"75 DeMaio Dr. Milford, CT 6460"
850,4398,2016-10-13,Willows,Ridgetop,39.3551658,5520 Loretz Rd.,-122.1902507,Ridgetop Warehouse Company,95988,CA,-8:00,"5520 Loretz Rd. Willows, CA 95988"
851,4402,2016-10-01,Leominster,Beta,42.4949723,218 Willard St.,-71.7363444,Beta LLC,1453,MA,-5:00,"218 Willard St. Leominster, MA 1453"
852,4407,2016-10-19,Mcarthur,Corder,40.958492,540-225 Little Valley Rd.,-121.2663317,Corder Farms - Shop,96056,CA,-8:00,"540-225 Little Valley Rd. Mcarthur, CA 96056"
853,4408,2016-10-20,Milford,,42.1375572,35 Depot St.,-71.514853,Bricktree LLC - Cenedella Masonry Inc.,1757,MA,-5:00,"35 Depot St. Milford, MA 1757"
854,4411,2016-10-20,Mcarthur,Corder,41.0145742,540-855 Little Valley Road,-121.3081078,Corder Farms - George,95056,CA,-8:00,"540-855 Little Valley Road Mcarthur, CA 95056"
855,4412,2016-10-20,Mcarthur,Corder,41.014282,541-860 Pittville Rd.,-121.316922,Corder Farms - Pittville B,96056,CA,-8:00,"541-860 Pittville Rd. Mcarthur, CA 96056"
856,4413,2016-10-20,Mcarthur,Corder,41.0083004,540-255 Little Valley Road,-121.3144485,Corder Farms - Tarron,96056,CA,-8:00,"540-255 Little Valley Road Mcarthur, CA 96056"
857,4414,2016-10-20,Mcarthur,Corder,41.020693,542-565 Little Valley Rd.,-121.307355,Corder Farms - Travis,96056,CA,-8:00,"542-565 Little Valley Rd. Mcarthur, CA 96056"
858,4416,2016-10-20,Milford,,42.142831,2 Beach St.,-71.5125575,Hoboken LLC,1757,MA,-5:00,"2 Beach St. Milford, MA 1757"
859,4427,2016-10-26,Newton,,42.3659146,26 Farwell St.,-71.2171638,Two Squares LLC,2460,MA,-5:00,"26 Farwell St. Newton, MA 2460"
860,4429,2016-10-01,Ridgefield,Hank,41.250193,22 Spectacle Ln.,-73.480582,Hank Ashforth - 22 Spectacle Lane,6877,CT,-5:00,"22 Spectacle Ln. Ridgefield, CT 6877"
861,4430,,,Lodi,0.0,,0.0,,x,,,none
862,4432,2016-10-27,Artois,McGinnis,39.6634258,2583 County Road P,-122.1405982,McGinnis Farms,95913,CA,-8:00,"2583 County Road P Artois, CA 95913"
863,4433,2016-10-31,West sacramento,West,38.5819286,1110 W. Capital Ave.,-121.523396,West Sacramento - City Hall,95691,CA,-8:00,"1110 W. Capital Ave. West sacramento, CA 95691"
864,4434,2016-11-01,Winchendon,,42.683433,155 Central St.,-72.0460277,SED Clark Memorial YMCA - Main Building,1475,MA,-5:00,"155 Central St. Winchendon, MA 1475"
865,4438,2016-11-01,Thermal,Hadley,33.6407028,83555 Airport Blvd.,-116.2061746,Hadley Date Gardens,92274,CA,-8:00,"83555 Airport Blvd. Thermal, CA 92274"
866,4439,2016-11-01,Fall river mills,Corder,41.03309970000001,44800-45184 Dee Knoch Rd,-121.3831904,Corder Farms - Bruce,96026,CA,-8:00,"44800-45184 Dee Knoch Rd Fall river mills, CA 96026"
867,4440,2016-11-01,Mcarthur,Corder,41.0243449,542-690 Little Valley Rd.,-121.319385,Corder Farms - Pittville A East,96056,CA,-8:00,"542-690 Little Valley Rd. Mcarthur, CA 96056"
868,4441,2016-10-23,Mcarthur,Corder,41.02926739999999,543-610 Little Valley Rd.,-121.3229853,Corder Farms - Redroc,96056,CA,-8:00,"543-610 Little Valley Rd. Mcarthur, CA 96056"
869,4442,2016-11-04,New haven,277_279,41.3270552,"277-279 Blake St., 1st Fl.",-72.9528241,277-279 Blake Street - First Floor,6515,CT,-5:00,"277-279 Blake St., 1st Fl. New haven, CT 6515"
870,4447,2016-10-21,Fall river mills,Corder,41.028979,45885 Dee Knoch Rd.,-121.3422987,Corder Farms - Crum,96056,CA,-8:00,"45885 Dee Knoch Rd. Fall river mills, CA 96056"
871,4455,2016-10-21,Chico,Faith,39.7415492,667 E. 1st Ave.,-121.8366253,Faith Lutheran Church,95926,CA,-8:00,"667 E. 1st Ave. Chico, CA 95926"
872,4471,2016-11-01,Brighton,,42.3587087,20 Nonantum Rd.,-71.1656926,SED - Community Rowing Inc.,2135,MA,-5:00,"20 Nonantum Rd. Brighton, MA 2135"
873,4472,2016-11-16,Holbrook,,42.1523228,12 Mear Rd.,-71.0221044,Shred King,2343,MA,-5:00,"12 Mear Rd. Holbrook, MA 2343"
874,4475,2016-10-07,Rancho cucamonga,Skin,34.1069178,10380 Foothills Blvd.,-117.5782455,Skin Perfect Medical Aesthetics,91730,CA,-8:00,"10380 Foothills Blvd. Rancho cucamonga, CA 91730"
875,4478,2016-11-15,Mcarthur,McArthur_,41.0553759,41581 McArthur Rd.,-121.4546471,"McArthur, George",96056,CA,-8:00,"41581 McArthur Rd. Mcarthur, CA 96056"
876,4482,2016-11-29,Merced,5H,37.205892,5601 S. Hwy 59,-120.497698,5H Farms,95340,CA,-8:00,"5601 S. Hwy 59 Merced, CA 95340"
877,4485,2016-11-29,Framingham,,42.3129304,10 Speen St.,-71.3908336,10 SPNSOL LLC (10 Speen),1701,MA,-5:00,"10 Speen St. Framingham, MA 1701"
878,4486,2016-11-29,Durham,Kidd_,39.632015,8999 Holland Ave.,-121.805948,"Kidd, Robert",95938,CA,-8:00,"8999 Holland Ave. Durham, CA 95938"
879,4488,2016-11-21,Woodland,Meek,38.613981,22075 County Road 99,-121.780466,,95695,CA,-8:00,"22075 County Road 99 Woodland, CA 95695"
880,4489,2016-11-01,Williams,NorCal,39.0767663,1741 Evans Road,-122.1840112,NorCal Nut,95987,CA,-8:00,"1741 Evans Road Williams, CA 95987"
881,4495,2016-11-30,Bedford,,42.5012112,100 Old Billerica Rd.,-71.2589917,SED - Carleton-Willard Village,1730,MA,-5:00,"100 Old Billerica Rd. Bedford, MA 1730"
882,4504,2016-12-01,Framingham,,42.3128216,20 Speen St.,-71.3901842,20 SPNSOL LLC (20 Speen),1701,MA,-5:00,"20 Speen St. Framingham, MA 1701"
883,4509,2016-06-14,West sacramento,West,38.5524473,2040 Lake Washington Blvd,-121.5355185,West Sacramento - Fire Station 45,95691,CA,-8:00,"2040 Lake Washington Blvd West sacramento, CA 95691"
884,4511,2016-11-01,Mcarthur,Corder,41.0243449,542-690 Little Valley Rd.,-121.319385,Corder Farms - Pittville A W,96056,CA,-8:00,"542-690 Little Valley Rd. Mcarthur, CA 96056"
885,4514,2016-12-12,Coraopolis,Coraopolis,40.5033276,1500 Woodcrest Ave.,-80.1578013,Coraopolis - Felician Sisters,15108,PA,-5:00,"1500 Woodcrest Ave. Coraopolis, PA 15108"
886,4519,2016-12-15,New bedford,B,41.6526317,92 Kilburn St.,-70.9244719,B S Realty,2740,MA,-5:00,"92 Kilburn St. New bedford, MA 2740"
887,4526,2016-11-00,Colusa,Colusa,39.1795237,2889 Niagara Ave.,-122.0000097,Colusa Rice - Office,95932,CA,-8:00,"2889 Niagara Ave. Colusa, CA 95932"
888,4527,2016-12-16,Sutter,Tarke,39.1599315,3540 Butte Rd,-121.8723624,Tarke - North,95982,CA,-8:00,"3540 Butte Rd Sutter, CA 95982"
889,4528,2016-12-16,Sutter,Tarke,39.1599315,3540 Butte Rd.,-121.8723624,Tarke - South,95982,CA,-8:00,"3540 Butte Rd. Sutter, CA 95982"
890,4530,2016-12-13,West sacramento,West,38.5804609,,-121.530234,West Sacramento - Central Tank,95691,CA,-8:00," West sacramento, CA 95691"
891,4531,2016-12-01,Ruckersville,Insurance,38.2551628,988 Dairy Rd.,-78.37600719999999,Insurance Institute for Highway Safety,22968,VA,-5:00,"988 Dairy Rd. Ruckersville, VA 22968"
892,4537,2016-12-21,Corona,Wermer_s,33.8844743,151 W. Harrison St.,-117.5658312,Wermer's Corona Metro Bldg A,92880,CA,-8:00,"151 W. Harrison St. Corona, CA 92880"
893,4538,2016-09-09,New haven,Oxford,41.3274152,262 Crescent St.,-72.9414381,Oxford House - 262 Crescent Street,6511,CT,-5:00,"262 Crescent St. New haven, CT 6511"
894,4539,2016-09-09,New haven,Spring,41.2939355,126 Spring St. 1st Floor,-72.9341858,Spring St 1st Floor,6519,CT,-5:00,"126 Spring St. 1st Floor New haven, CT 6519"
895,4541,2016-12-22,Medford,Lewis_,42.3326905,4120 Barbara Jean Way,-122.8018806,"Lewis, Scott",97504,OR,-8:00,"4120 Barbara Jean Way Medford, OR 97504"
896,4542,2016-12-01,Arbuckle,T_P,39.01026969999999,1202 Kleeman Way,-122.0587534,,95912,CA,-8:00,"1202 Kleeman Way Arbuckle, CA 95912"
897,4546,2016-12-22,Coalinga,Wood,36.10002,25425 W. Goodrich Rd.,-120.260788,Wood Ag Mngmt - Sect 17 E,93210,CA,-8:00,"25425 W. Goodrich Rd. Coalinga, CA 93210"
898,4547,2016-12-21,Coalinga,Wood,36.10002,25425 W. Goodrich Rd.,-120.260788,Wood Ag Mngmt - Sect 17 N,93210,CA,-8:00,"25425 W. Goodrich Rd. Coalinga, CA 93210"
899,4549,2016-12-29,Portland,Kevedy,45.5416779,2211 N.W. Nicolai St.,-122.6974878,,97210,OR,-8:00,"2211 N.W. Nicolai St. Portland, OR 97210"
900,4550,2016-12-28,Coalinga,Devine,36.1082281,43001 S. Lost Hills Rd.,-120.2715891,Devine Organics - Sect 8.3,93210,CA,-8:00,"43001 S. Lost Hills Rd. Coalinga, CA 93210"
901,4551,2016-12-28,Coalinga,Wood,36.1226626,W. Firestone Ave.,-120.2505086,Wood Ag Mngmt - Sect 16,93210,CA,-8:00,"W. Firestone Ave. Coalinga, CA 93210"
902,4553,2016-12-28,Nevada,Erwin,37.829093,17518 S. 1631 Rd.,-94.341145,"Erwin Construction, Inc.",64772,MO,-6:00,"17518 S. 1631 Rd. Nevada, MO 64772"
903,4554,2016-12-29,Coalinga,Devine,36.10002,25425 W. Goodrich Rd.,-120.260788,Devine Organics - Sect 8.1,93210,CA,-8:00,"25425 W. Goodrich Rd. Coalinga, CA 93210"
904,4564,2017-01-04,North andover,,42.731522,1600 Osgood St.,-71.1146084,Osgood Solar Meters,1845,MA,-5:00,"1600 Osgood St. North andover, MA 1845"
905,4566,2017-01-04,North andover,Osgood,42.731522,1600 Osgood Street,-71.1146084,Osgood Solar North Inverters,1845,MA,-5:00,"1600 Osgood Street North andover, MA 1845"
906,4567,2017-01-04,North andover,Osgood,42.731522,1600 Osgood Street,-71.1146084,Osgood Solar West Lower Inverters,1845,MA,-5:00,"1600 Osgood Street North andover, MA 1845"
907,4568,2017-01-04,North andover,Osgood,42.731522,1600 Osgood Street,-71.1146084,Osgood Solar West Upper Inverters,1845,MA,-5:00,"1600 Osgood Street North andover, MA 1845"
908,4569,,,Osgood,0.0,,0.0,,x,,,none
909,4570,,,Osgood,0.0,,0.0,,x,,,none
910,4571,2017-01-07,Maxwell,T_P,39.2606,4788 Finks Road,-122.2726889,,95955,CA,-5:00,"4788 Finks Road Maxwell, CA 95955"
911,4572,2017-01-09,Boxford,Boxford,42.6940652,7A Spofford Rd.,-71.0145565,Boxford Landfill Solar Project,1921,MA,-5:00,"7A Spofford Rd. Boxford, MA 1921"
912,4573,2017-01-09,Wellesley,,42.319386,10 Bethel Rd.,-71.252212,SED - Temple Beth Elohim,2481,MA,-5:00,"10 Bethel Rd. Wellesley, MA 2481"
913,4575,2017-01-10,Brooklyn,8500,40.6231797,8500 4th Ave,-74.0286832,8500 4th Ave,11209,NY,-5:00,"8500 4th Ave Brooklyn, NY 11209"
914,4579,2017-01-11,Lawrence,,42.7088084,32 West St.,-71.17387939999999,SED - LFDCS - 32 West Street,1841,MA,-5:00,"32 West St. Lawrence, MA 1841"
915,4582,,,Rochester,0.0,,0.0,,x,,,none
916,4587,,,Beaver,0.0,,0.0,,x,,,none
917,4588,2017-01-16,Livonia,Madonna,42.3842285,36600 Schoolcraft Rd.,-83.404726,Madonna University,48150,MI,-5:00,"36600 Schoolcraft Rd. Livonia, MI 48150"
918,4590,2017-01-01,Livonia,Montessori,42.387526,14200 Newburgh Rd.,-83.41003769999999,Montessori Center of Our Lady,48154,MI,-5:00,"14200 Newburgh Rd. Livonia, MI 48154"
919,4591,2017-01-17,Lake elisnore,Quality,33.629458,31855 Corydon,-117.2943848,Quality Foams,92530,CA,-8:00,"31855 Corydon Lake elisnore, CA 92530"
920,4593,2017-01-19,Medfield,,42.1910087,97 West St.,-71.331035,Second 801 Nominee Trust - Electric Time Co Inc.,2052,MA,-5:00,"97 West St. Medfield, MA 2052"
921,4595,2016-11-26,Meridian,Pelger,38.9467837,12765 Cranmore Rd.,-121.8228978,Pelger - Ground Mount,95957,CA,-8:00,"12765 Cranmore Rd. Meridian, CA 95957"
922,4598,2017-01-24,Milford,,42.1546886,1 Countryside Rd.,-71.55383929999999,Countryside Health Care,1757,MA,-5:00,"1 Countryside Rd. Milford, MA 1757"
923,4601,,,BUCRA,0.0,,0.0,,x,,,none
924,4605,2017-01-28,Lawrence,Prosoco,38.9455073,3701 Greenway Cir.,-95.18702479999999,Prosoco,66046,KS,-6:00,"3701 Greenway Cir. Lawrence, KS 66046"
925,4610,2017-02-01,Milford,,42.1528332,72 Sumner St.,-71.52074209999999,"Consigli Construction Co., Inc.",1757,MA,-5:00,"72 Sumner St. Milford, MA 1757"
926,4613,2017-01-31,Easton,,42.049132,27 Belmont St.,-71.079729,IBC Corporation,2375,MA,-5:00,"27 Belmont St. Easton, MA 2375"
927,4614,2017-02-03,Woodland,Meek,38.613981,22075 County Road 99,-121.780466,,95695,CA,-8:00,"22075 County Road 99 Woodland, CA 95695"
928,4617,2017-02-01,Chicago,Chicago,41.991126,3800 W. Peterson Ave.,-87.72475399999999,Chicago - FSNA,60659,IL,-6:00,"3800 W. Peterson Ave. Chicago, IL 60659"
929,4618,2017-01-28,Bourne,SED,41.7452079,220 Sandwich Rd.,-70.5784556,SED - Upper Cape Cod Tech - Canopy,2532,MA,-5:00,"220 Sandwich Rd. Bourne, MA 2532"
930,4619,2017-02-03,Gloucester,,42.6186125,53 - 55 Maplewood Ave,-70.6665239,,1930,MA,-5:00,"53 - 55 Maplewood Ave Gloucester, MA 1930"
931,4623,2017-02-06,Needham,,42.290862,460 Hillside Ave.,-71.236502,"Hillside Investment Group, LLC",2492,MA,-5:00,"460 Hillside Ave. Needham, MA 2492"
932,4624,2017-02-08,East falmouth,,41.6088307,120 Bernard E. Saint Jean,-70.6026801,A-1-A Steel and Supply,2536,MA,-5:00,"120 Bernard E. Saint Jean East falmouth, MA 2536"
933,4626,2017-02-08,Marblehead,,42.5107957,21 Tioga Way,-70.85737879999999,Tioga Way LLC - Glover Property Management,1945,MA,-5:00,"21 Tioga Way Marblehead, MA 1945"
934,4627,2017-02-10,Worcester,National,42.2514437,912 Main St.,-71.8203963,National Grid Solar Awning - Sustainability Hub,1610,MA,-5:00,"912 Main St. Worcester, MA 1610"
935,4628,2017-02-01,Randolph,,42.1995077,280 Pond St.,-71.0507435,,2368,MA,-5:00,"280 Pond St. Randolph, MA 2368"
936,4629,2017-02-13,Boston,,42.3663987,25 Harvard Way,-71.12284679999999,HBS - Baker Library,2163,MA,-5:00,"25 Harvard Way Boston, MA 2163"
937,4630,2017-02-09,Woodland,Tremont,38.667565,1002 East Street.,-121.7664328,Tremont Ag,95776,CA,-8:00,"1002 East Street. Woodland, CA 95776"
938,4631,2017-02-10,Milton,,42.2582588,556 Adams Street,-71.0397945,Falconi Properties LLC,2186,MA,-5:00,"556 Adams Street Milton, MA 2186"
939,4632,2017-02-13,Marlborough,123,42.3448558,123 Felton St.,-71.57628989999999,123 Felton SOL LLC,1752,MA,-5:00,"123 Felton St. Marlborough, MA 1752"
940,4633,2016-10-01,Woodland,Meek,38.613981,22075 County Road 99,-121.780466,,95695,CA,-8:00,"22075 County Road 99 Woodland, CA 95695"
941,4634,2017-02-10,Woodland,Heidrick,38.664033,18910 Heidrick Lane,-121.8084737,Heidrick - Tim,95695,CA,-8:00,"18910 Heidrick Lane Woodland, CA 95695"
942,4635,2017-02-11,Gloucester,Loiacano,42.6193749,18 Sargent St.,-70.6638593,Loiacano - 18 Sargent,1930,MA,-5:00,"18 Sargent St. Gloucester, MA 1930"
943,4640,2017-02-14,Haverhill,,42.77811430000001,4 Summer St.,-71.07675100000002,SED - Haverhill City Hall,1830,MA,-5:00,"4 Summer St. Haverhill, MA 1830"
944,4642,2017-02-14,Haverhill,,42.77603310000001,209 Summer St.,-71.0680228,Medical Arts Building LLC,1830,MA,-5:00,"209 Summer St. Haverhill, MA 1830"
945,4644,2017-02-15,Medford,,42.407704,85 Commercial St.,-71.0892393,Accardi Foods,2155,MA,-5:00,"85 Commercial St. Medford, MA 2155"
946,4645,2017-02-15,Allston,,42.347641,1356 Commonwealth Ave.,-71.136236,"Value Store It - Mahopac, LLC",2134,MA,-5:00,"1356 Commonwealth Ave. Allston, MA 2134"
947,4647,2017-02-16,Fitchburg,,42.571385,70 Reingold Ave.,-71.830917,SED - Reingold Elementary School,1420,MA,-5:00,"70 Reingold Ave. Fitchburg, MA 1420"
948,4648,2017-02-16,Boston,,42.3645556,230 Western Ave.,-71.1110881,HBS - Teele Hall,2163,MA,-5:00,"230 Western Ave. Boston, MA 2163"
949,4649,2017-02-17,Easthampton,,42.2855897,39 ONeill St,-72.65583079999999,The October Company - Chemetal,1027,MA,-5:00,"39 ONeill St Easthampton, MA 1027"
950,4650,2017-02-17,Pittsfield,,42.4318105,1548 W. Housatonic St.,-73.3208521,,1201,MA,-5:00,"1548 W. Housatonic St. Pittsfield, MA 1201"
951,4651,2017-02-20,Santa fe springs,Coaster,33.9378773,12928 Sandoval St.,-118.0579443,Coaster Company of America - 12928,90670,CA,-8:00,"12928 Sandoval St. Santa fe springs, CA 90670"
952,4652,2017-02-20,Santa fe springs,Coaster,33.9391861,12909 Sandoval St.,-118.0584931,Coaster Company of America - 12909,90670,CA,-8:00,"12909 Sandoval St. Santa fe springs, CA 90670"
953,4656,2017-02-21,Avon,Strafello,42.132781,20 Strafello Dr.,-71.05929300000003,Strafello Inc.,2322,MA,-5:00,"20 Strafello Dr. Avon, MA 2322"
954,4658,2017-02-01,Orleans,Charles,41.774462,23 O'Connor Rd.,-70.00034699999999,Charles Moore Arena,2653,MA,-5:00,"23 O'Connor Rd. Orleans, MA 2653"
955,4659,2017-02-21,Newton,,42.344321,790 Centre St.,-71.18830600000003,SED - Mount Alvernia High School,2458,MA,-5:00,"790 Centre St. Newton, MA 2458"
956,4660,2017-02-22,Lunenburg,,42.61462,520 Chase Rd.,-71.743626,SED - Lunenburg DPW,1462,MA,-5:00,"520 Chase Rd. Lunenburg, MA 1462"
957,4661,2017-02-10,Waltham,Clarks,42.376585,1265 Main St.,-71.26465300000002,Clarks America,2451,MA,-5:00,"1265 Main St. Waltham, MA 2451"
958,4664,2017-02-21,Worcester,,42.240541,200 Vernon St.,-71.797996,Israel Real Estate,1607,MA,-5:00,"200 Vernon St. Worcester, MA 1607"
959,4665,2017-02-23,Wallingford,53,41.410364,53 Wild Life Dr.,-72.81663,53 Wild Life Drive,6492,CT,-5:00,"53 Wild Life Dr. Wallingford, CT 6492"
960,4675,2017-02-28,Torrington,,41.801965,153 Water St.,-73.12559,Franklin Products,6790,CT,-5:00,"153 Water St. Torrington, CT 6790"
961,4678,2017-02-28,Pleasant hill,Pleasant,38.79211,601 N. Highway 7,-94.262358,Pleasant Hill Animal Clinic,64080,MO,-5:00,"601 N. Highway 7 Pleasant hill, MO 64080"
962,4679,2017-02-08,Lenexa,Cat,38.957714,9421 Pflumm Rd.,-94.742013,Cat Clinic of Johnson County,66215,KS,-6:00,"9421 Pflumm Rd. Lenexa, KS 66215"
963,4680,2017-03-02,Lawrence,SED,42.708042,400 Haverhill St.,-71.17203,SED - LFDCS - 400 Haverhill,1840,MA,-5:00,"400 Haverhill St. Lawrence, MA 1840"
964,4681,2016-11-04,New haven,277_279,41.327038,277-279 Blake St. 2nd Fl.,-72.952632,277-279 Blake Street - Second Floor,6515,CT,-5:00,"277-279 Blake St. 2nd Fl. New haven, CT 6515"
965,4682,2016-11-04,New haven,277_279,41.327038,277-279 Blake St. 3rd Fl.,-72.952632,277-279 Blake Street - Third Floor,6515,CT,-5:00,"277-279 Blake St. 3rd Fl. New haven, CT 6515"
966,4683,2017-03-07,Kansas city,The,39.101156,1000 E. 11th St.,-94.570417,The Hayes Company,64106,MO,-6:00,"1000 E. 11th St. Kansas city, MO 64106"
967,4686,2017-03-06,Gloucester,Loiacano,42.619258,31 Willow St.,-70.664288,Loiacano - 31 Willow,1930,MA,-5:00,"31 Willow St. Gloucester, MA 1930"
968,4688,2017-01-31,Atchison,Mount,39.55220300000001,801 S. 8th St.,-95.124132,Mount St. Scholastica - Dooley Center,66002,KS,-6:00,"801 S. 8th St. Atchison, KS 66002"
969,4689,2017-03-03,Ames,Shaffer_s,42.022058,1712 E. Lincoln Way,-93.590029,Shaffer's Auto Body,50010,IA,-6:00,"1712 E. Lincoln Way Ames, IA 50010"
970,4690,2017-03-09,New haven,Spring,41.293916,126 Spring St. 2nd Floor,-72.93416500000002,Spring St 2nd Floor,6519,CT,-5:00,"126 Spring St. 2nd Floor New haven, CT 6519"
971,4691,2016-09-09,New haven,Spring,41.293916,126 Spring St. 3rd Floor,-72.93416500000002,Spring St 3rd Floor,6511,CT,-5:00,"126 Spring St. 3rd Floor New haven, CT 6511"
972,4693,2017-01-24,Amherst,,42.41297,79 - 81 Sunderland Rd.,-72.531674,"Village Center North Amherst, LLC",1002,MA,-5:00,"79 - 81 Sunderland Rd. Amherst, MA 1002"
973,4697,2017-03-16,New bedford,Friends,41.659574,2301 Purchase St.,-70.935174,Friends Realty Inc.,2746,MA,-5:00,"2301 Purchase St. New bedford, MA 2746"
974,4701,2017-03-17,Woodland,Roth_,38.742175,13500 County Road 100,-121.768,"Roth, John",95776,CA,-8:00,"13500 County Road 100 Woodland, CA 95776"
975,4703,2017-03-22,Woodland,Heidrick,38.748989,12972 County Rd 102,-121.730536,Heidrick - Tooby Ranch,95776,CA,-8:00,"12972 County Rd 102 Woodland, CA 95776"
976,4704,2017-03-21,Woodland,Barrios,38.758921,12465 County Road 98,-121.80638799999998,Barrios Farming,95695,CA,-8:00,"12465 County Road 98 Woodland, CA 95695"
977,4705,2017-03-21,Orland,Erickson,39.710945,6728 Road 24,-122.17155,Erickson - RM,95963,CA,-8:00,"6728 Road 24 Orland, CA 95963"
978,4707,2017-03-20,Hyannis,,41.679745,350 Kidds Hill Rd.,-70.299799,"Davlin Realty, LLC",2601,MA,-5:00,"350 Kidds Hill Rd. Hyannis, MA 2601"
979,4713,2017-03-24,Byfield,,42.75021,1 Elm St.,-70.89669599999998,Governor's Academy - Wilkie Center,1922,MA,-5:00,"1 Elm St. Byfield, MA 1922"
980,4718,2017-03-30,Norton,Norton,41.958668,36 Clapp St.,-71.18087299999998,Norton Solar 2,2766,MA,-5:00,"36 Clapp St. Norton, MA 2766"
981,4720,2017-03-31,Norton,Norton,41.960776,20 Clapp Street,-71.181043,Norton Solar 1,2766,MA,-5:00,"20 Clapp Street Norton, MA 2766"
982,4721,2017-03-30,Weymouth,Gideon,42.189618,293-317 Libbey Industrial Pkwy.,-70.936397,Gideon LLC,2189,MA,-5:00,"293-317 Libbey Industrial Pkwy. Weymouth, MA 2189"
983,4723,2017-04-04,Lincoln hills,Sun,38.868574,1098 Sun City Lane,-121.276591,Sun City LH - Golf,95648,CA,-5:00,"1098 Sun City Lane Lincoln hills, CA 95648"
984,4728,2017-04-04,Lawrence,,42.7087019,10 Railroad St.,-71.17376879999999,SED - LFDCS - 10 Railroad Street,1841,MA,-5:00,"10 Railroad St. Lawrence, MA 1841"
985,4730,2017-03-04,Concordia,Evans,38.994138,401 N. Outer Rd.,-93.56436099999999,Evans Equipment Inc.,64020,MO,-6:00,"401 N. Outer Rd. Concordia, MO 64020"
986,4731,2017-04-07,Norton,Norton,41.9618107,12 Hill St.,-71.14792969999999,Norton Development Inc.,2766,MA,-5:00,"12 Hill St. Norton, MA 2766"
987,4737,2017-04-10,Hadley,Devine,42.3974366,26 Knightly St,-72.5605358,"Devine Farms, Inc.",1035,MA,-5:00,"26 Knightly St Hadley, MA 1035"
988,4739,2017-04-10,Oroville,New,39.4780886,5640 Lincoln Blvd,-121.5484626,New Hope Church,95966,CA,-8:00,"5640 Lincoln Blvd Oroville, CA 95966"
989,4740,2017-04-11,Haverhill,,42.7917451,93 Downing Ave.,-71.0880202,SED - Haverhill - Maintenance Garage,1830,MA,-5:00,"93 Downing Ave. Haverhill, MA 1830"
990,4741,2017-04-12,Bloomington,Bloomington,34.0707658,18026 Valley Blvd.,-117.412458,Bloomington - Phase 2,92316,CA,-8:00,"18026 Valley Blvd. Bloomington, CA 92316"
991,4743,2017-04-12,Williams,Pennebaker,39.178813,4955 Freshwater Rd.,-122.251509,Pennebaker Residence,95987,CA,-8:00,"4955 Freshwater Rd. Williams, CA 95987"
992,4744,2017-04-13,Marysville,Johl,39.28184,11185 Hwy 70,-121.585459,Johl Orchards,95901,CA,-8:00,"11185 Hwy 70 Marysville, CA 95901"
993,4747,2017-04-28,Lunenburg,SED,42.5978065,1079 Massachusetts Ave.,-71.7198002,SED - Lunenburg High School,1462,MA,-5:00,"1079 Massachusetts Ave. Lunenburg, MA 1462"
994,4750,2017-04-17,North andover,RCG,42.7016881,39 High St.,-71.1247392,"RCG North Andover Mills, LLC",1845,MA,-5:00,"39 High St. North andover, MA 1845"
995,4752,2017-04-17,Barre,,42.3761211,441 Wheelwright Rd.,-72.11982909999999,Barre - DPW Building,1005,MA,-5:00,"441 Wheelwright Rd. Barre, MA 1005"
996,4753,,,Horner,0.0,,0.0,,x,,,none
997,4754,2017-03-27,Rio oso,Indian,38.93927,1504 Pacific Ave.,-121.522206,Indian Hills Land Company,95674,CA,-8:00,"1504 Pacific Ave. Rio oso, CA 95674"
998,4760,2017-04-19,Madera,Quad,36.9233467,31003 Avenue 12,-119.9837883,Quad 7 - Phase 2,93638,CA,-8:00,"31003 Avenue 12 Madera, CA 93638"
999,4763,2017-04-26,Winton,Crane,37.4152876,1655 Oakdale Rd.,-120.5196518,Crane - Orchards,95388,CA,-8:00,"1655 Oakdale Rd. Winton, CA 95388"
1000,4764,2017-04-26,Winton,Crane,37.4152876,1655 Oakdale Rd,-120.5196518,Crane - Cattle,95388,CA,-8:00,"1655 Oakdale Rd Winton, CA 95388"
1001,4766,2017-04-20,Pleasant grove,Scheidel,38.840174,1510 W Cattelet Road,-121.562967,Scheidel Ranch - Shop,95668,CA,-8:00,"1510 W Cattelet Road Pleasant grove, CA 95668"
1002,4767,2017-04-20,Pleasant grove,Scheidel,38.840174,1510 Cattlet Road,-121.562967,Scheidel Ranch - Tractor,95668,CA,-8:00,"1510 Cattlet Road Pleasant grove, CA 95668"
1003,4772,2017-04-28,Malden,SED,42.4272261,99 Crystal St.,-71.04632699999999,SED - Malden Catholic High School,2148,MA,-5:00,"99 Crystal St. Malden, MA 2148"
1004,4779,2017-05-11,Yuba city,The,39.1271857,425 Franklin Rd.,-121.6624232,The Muffler Shop,95993,CA,-8:00,"425 Franklin Rd. Yuba city, CA 95993"
1005,4780,2017-04-26,Maxwell,Carvalho_,39.2819188,548 N. California Ave.,-122.1946257,"Carvalho, David",95955,CA,-8:00,"548 N. California Ave. Maxwell, CA 95955"
1006,4790,2017-05-15,Deerfield,Eaglebrook,42.542473,271 Pine Nook Rd,-72.59197,Eaglebrook School - Edward P. Evans Buliding,1342,MA,-5:00,"271 Pine Nook Rd Deerfield, MA 1342"
1007,4791,2017-05-16,Pacific,Jan,38.423771,4180 Doc Sargent Rd.,-90.685852,Jan Phillips Learning Center,63069,MO,-5:00,"4180 Doc Sargent Rd. Pacific, MO 63069"
1008,4792,2017-05-17,Southington,Supreme,41.640986,49 Depaolo Drive,-72.906671,Supreme Forest Products,6489,CT,-5:00,"49 Depaolo Drive Southington, CT 6489"
1009,4793,2017-04-25,Medfield,Medfield,42.1913775,114 North St.,-71.309855,Medfield Public Safety Building,2052,MA,-5:00,"114 North St. Medfield, MA 2052"
1010,4797,2017-05-22,Haverhill,Bradford,42.7935917,,-71.0378909,Bradford Solar Electric Power Plant I,1830,MA,-5:00," Haverhill, MA 1830"
1011,4798,2017-05-22,Haverhill,Bradford,42.7935917,,-71.0378909,Bradford Solar Electric Power Plant II,1830,MA,-5:00," Haverhill, MA 1830"
1012,4799,2017-05-22,Haverhill,Bradford,42.7935917,,-71.0378909,Bradford Solar Electric Power Plant III,1830,MA,-5:00," Haverhill, MA 1830"
1013,4800,2017-05-22,Haverhill,Bradford,42.7935917,,-71.0378909,Bradford Solar Electric Power Plant IV,1830,MA,-5:00," Haverhill, MA 1830"
1014,4801,2017-05-22,Haverhill,Bradford,42.7935917,,-71.0378909,Bradford Solar Electric Power Plant V,1830,MA,-5:00," Haverhill, MA 1830"
1015,4802,2017-05-22,Watsonville,System,36.9730918,512 Casserly Rd.,-121.7401382,"System USA, Inc.",95076,CA,-8:00,"512 Casserly Rd. Watsonville, CA 95076"
1016,4806,2017-05-23,Quincy,Curry,42.24507320000001,370 Copeland Street,-71.03097269999999,Curry Hardware - Quincy,2169,MA,-5:00,"370 Copeland Street Quincy, MA 2169"
1017,4808,2017-05-25,Sherborn,SED,42.2508753,7 Butler St.,-71.366963,SED - Town of Sherborn - CMD Garage,1770,MA,-5:00,"7 Butler St. Sherborn, MA 1770"
1018,4812,2017-05-30,Framingham,,42.3076991,280 Old Connecticut Path,-71.4020129,SED - MetroWest YMCA - Framingham,1701,MA,-5:00,"280 Old Connecticut Path Framingham, MA 1701"
1019,4816,2017-06-01,Hopkinton,Hayden,42.204228,201 Hayden Rowe St.,-71.50700499999999,Hayden Rowe Solar Farm,1748,MA,-5:00,"201 Hayden Rowe St. Hopkinton, MA 1748"
1020,4817,2017-05-31,Manalapan,Millhurst,40.2559222,341 Route 33,-74.38174160000001,Millhurst Solar Project - One,7726,NJ,-5:00,"341 Route 33 Manalapan, NJ 7726"
1021,4818,2017-06-01,Williams,Lux_,39.2153992,5001 Lurline Ave,-122.1874931,"Lux, Mike",95987,CA,-8:00,"5001 Lurline Ave Williams, CA 95987"
1022,4819,2017-06-01,Acampo,M2,38.1875123,2900  E. Peltier Rd,-121.2811864,M2 Wines,95220,CA,-8:00,"2900  E. Peltier Rd Acampo, CA 95220"
1023,4821,,,Millhurst,0.0,,0.0,,x,,,none
1024,4822,2017-06-01,Worcester,,42.27165979999999,338 Plantation St.,-71.768967,Northborough Realty - 338 Plantation,1604,MA,-5:00,"338 Plantation St. Worcester, MA 1604"
1025,4826,2017-06-08,Auburn,,42.1983986,28 Millbury St.,-71.8231957,Quest 28 Millbury LLC - Rabina Properties,1501,MA,-5:00,"28 Millbury St. Auburn, MA 1501"
1026,4827,2017-06-09,Gloucester,,42.6185781,6 Thatcher Rd.,-70.64178629999999,Nor'east Cleaners - Phase 2,1930,MA,-5:00,"6 Thatcher Rd. Gloucester, MA 1930"
1027,4829,2017-06-12,Millstone township,North,40.2548225,700 Rike Dr.,-74.4381635,North Park - 1,8535,NJ,-5:00,"700 Rike Dr. Millstone township, NJ 8535"
1028,4831,2017-06-14,Somerset,SED,41.7418529,625 County St.,-71.1486602,SED - Somerset Berkley Regional High School,2726,MA,-5:00,"625 County St. Somerset, MA 2726"
1029,4832,2017-06-15,Fitchburg,SED,42.57179,615 Rollstone St.,-71.811206,SED - Fitchburg Memorial Middle School,1420,MA,-5:00,"615 Rollstone St. Fitchburg, MA 1420"
1030,4834,2017-06-15,Hyannis,Viola,41.66974,110 Rosary Lane,-70.26757289999999,Viola Associates,2601,MA,-5:00,"110 Rosary Lane Hyannis, MA 2601"
1031,4835,2017-06-02,Deerfield,,42.5428799,3 Rices Ferry Rd.,-72.59447469999999,Eaglebrook School - Pool House,1342,MA,-5:00,"3 Rices Ferry Rd. Deerfield, MA 1342"
1032,4837,2017-06-20,South easton,,42.0476409,32 Norfolk Ave.,-71.07605459999999,Interstate Mat Corp. - Cucinotta (Phase 2),2375,MA,-5:00,"32 Norfolk Ave. South easton, MA 2375"
1033,4850,2017-06-27,Novato,,38.13175349999999,8001 Redwood Blvd.,-122.564376,Buck Institute Carport,94945,CA,-8:00,"8001 Redwood Blvd. Novato, CA 94945"
1034,4866,2017-07-01,Norton,Wheaton,41.9680538,25 E. Main St.,-71.184341,Wheaton College,2766,MA,-5:00,"25 E. Main St. Norton, MA 2766"
1035,4874,2017-07-10,North andover,RCG,42.7020225,50 High St.  Building 36,-71.1253533,RCG West Mill NA LLC,2143,MA,-5:00,"50 High St.  Building 36 North andover, MA 2143"
1036,4875,2017-07-11,Easton,,42.0451248,58 Norfolk Ave.,-71.0753118,SED - Easton Warehouse (Turning Mill),2375,MA,-5:00,"58 Norfolk Ave. Easton, MA 2375"
1037,4877,2017-07-06,Arlington,Mirak,42.4231602,26 Hobbs Ct.,-71.171773,Mirak Automotive Group,2476,MA,-5:00,"26 Hobbs Ct. Arlington, MA 2476"
1038,4880,2017-07-11,Holliston,Nordost,42.2318029,93 Bartzak Dr.,-71.4263185,Nordost,1746,MA,-5:00,"93 Bartzak Dr. Holliston, MA 1746"
1039,4895,2017-08-03,Boston,,42.3310503,8133 Southhampton Street,-71.0648271,Abbott Realty LLC,2118,MA,-5:00,"8133 Southhampton Street Boston, MA 2118"
1040,4896,2017-08-02,Newburyport,Hawtan,42.8000146,75 Parker St.,-70.88125330000001,"Hawtan Leathers, LLC",1950,MA,-5:00,"75 Parker St. Newburyport, MA 1950"
1041,4898,2017-08-01,Stoughton,Tosca,42.137351,290 Tosca Dr.,-71.1242429,Tosca Associates,2072,MA,-5:00,"290 Tosca Dr. Stoughton, MA 2072"
1042,4900,2017-08-07,East falmouth,,41.609661,116 Bernard E St. Jean Drive,-70.6022375,Falmouth PMW LLC,2536,MA,-5:00,"116 Bernard E St. Jean Drive East falmouth, MA 2536"
1043,4908,,,North,0.0,,0.0,,x,,,none
1044,4909,2017-06-12,Millstone township,North,40.2548225,700 Rike Dr.,-74.4381635,North Park - 3,8535,NJ,-5:00,"700 Rike Dr. Millstone township, NJ 8535"
1045,4913,2017-10-20,Williamstown,Williamstown,42.7302997,671 Simonds Rd.,-73.2052788,Williamstown Landfill,1267,MA,-5:00,"671 Simonds Rd. Williamstown, MA 1267"
1046,4933,2017-08-17,Johnston,Arden,41.8243719,10 Industrial Ln.,-71.51177299999999,Arden Jewelry Manufacturing,2919,RI,-5:00,"10 Industrial Ln. Johnston, RI 2919"
1047,4936,2017-08-16,Fairhaven,,41.6519404,275 Main St.,-70.9087488,SED - Fairhaven Housing Authority,2719,MA,-5:00,"275 Main St. Fairhaven, MA 2719"
1048,4941,2017-09-06,Millstone township,North,40.2548225,700 Rike Dr.,-74.4381635,North Park - 4,8535,NJ,-5:00,"700 Rike Dr. Millstone township, NJ 8535"
1049,4945,2017-09-12,Woburn,Olympia,42.4982284,60 Olympia Ave.,-71.1320401,Olympia Nominee Trust - Juniper Development,1801,MA,-5:00,"60 Olympia Ave. Woburn, MA 1801"
1050,4959,2017-09-20,Millstone township,North,40.2548225,700 Rike Dr.,-74.4381635,North Park - 6,8535,NJ,-5:00,"700 Rike Dr. Millstone township, NJ 8535"
1051,4963,2017-09-22,Millstone township,North,40.2548225,700 Rike Dr.,-74.4381635,North Park - 5,8535,NJ,-5:00,"700 Rike Dr. Millstone township, NJ 8535"
1052,4964,2017-09-17,Millstone township,North,40.2548225,700 Rike Dr.,-74.4381635,North Park - 7,8535,NJ,-5:00,"700 Rike Dr. Millstone township, NJ 8535"
1053,4973,2017-09-26,Buffalo,Felician,42.911509,600 Doat St.,-78.797775,Felician Sisters - Buffalo,14211,NY,-5:00,"600 Doat St. Buffalo, NY 14211"
1054,4981,2017-09-28,Plymouth,,41.9545315,100 Armstrong Road,-70.7016134,"FC Solar, LLC",2360,MA,-5:00,"100 Armstrong Road Plymouth, MA 2360"
1055,4988,2017-10-05,Randolph,,42.16353720000001,44 N. Main St.,-71.0422486,Jodan Liquors Inc. - Randolph,2368,MA,-5:00,"44 N. Main St. Randolph, MA 2368"
1056,4989,2017-10-05,Westfield,,42.1756767,217 Root Rd.,-72.7478671,Root Road Solar,1085,MA,-5:00,"217 Root Rd. Westfield, MA 1085"
1057,4990,2017-10-06,Needham,,42.268885,1664 Central Ave,-71.26585899999999,SED - Temple Aliyah,2492,MA,-5:00,"1664 Central Ave Needham, MA 2492"
1058,4993,2017-09-11,Boston,,42.2735735,1480 Blue Hill Ave.,-71.0932253,,2126,MA,-5:00,"1480 Blue Hill Ave. Boston, MA 2126"
1059,5001,2017-10-19,Somerville,,42.3789179,10 First Avenue,-71.0826809,"Solar-Array, LLC (Taliano 10 First Ave)",2143,MA,-5:00,"10 First Avenue Somerville, MA 2143"
1060,5002,2017-10-19,Somerville,,42.378996,12 First Ave.,-71.0827398,"Solar-Array, LLC (Taliano 12 First Avenue)",2143,MA,-5:00,"12 First Ave. Somerville, MA 2143"
1061,5017,2017-11-02,Fairhaven,Fairfield,41.1489593,785 Unquowa Rd.,-73.2627143,Fairfield Ludlowe High School - Carport,6824,CT,-5:00,"785 Unquowa Rd. Fairhaven, CT 6824"
1062,5019,2017-11-02,Fitchburg,,42.5973631,326 Nichols St.,-71.8075945,SED - Community Health Connections - Fitchburg,1420,MA,-5:00,"326 Nichols St. Fitchburg, MA 1420"
1063,5024,2017-11-03,Millstone township,North,40.2548225,700 Rike Dr.,-74.4381635,North Park - 17,8535,NJ,-5:00,"700 Rike Dr. Millstone township, NJ 8535"
1064,5025,2017-11-02,Millstone township,North,40.2548225,700 Rike Dr.,-74.4381635,North Park - 16,8535,NJ,-5:00,"700 Rike Dr. Millstone township, NJ 8535"
1065,5026,2017-11-04,Westboro,,42.2871744,35 Chauncy St.,-71.6163454,,1581,MA,-5:00,"35 Chauncy St. Westboro, MA 1581"
1066,5028,2017-11-08,Manhattan,,40.7174546,199 Chambers St.,-74.0122469,BMCC,10007,NY,-5:00,"199 Chambers St. Manhattan, NY 10007"
1067,5029,,,North,0.0,,0.0,,x,,,none
1068,5035,2017-11-15,Millstone township,North,40.2548225,700 Rike Dr.,-74.4381635,North Park - 9,8535,NJ,-5:00,"700 Rike Dr. Millstone township, NJ 8535"
1069,5036,2017-11-16,Millstone township,North,40.2548225,700 Rike Dr.,-74.4381635,North Park - 10,8535,NJ,-5:00,"700 Rike Dr. Millstone township, NJ 8535"
1070,5037,2017-11-16,Millstone township,North,40.2548225,700 Rike Dr.,-74.4381635,North Park - 11,8535,NJ,-5:00,"700 Rike Dr. Millstone township, NJ 8535"
1071,5038,2017-11-16,Millstone township,North,40.2548225,700 Rike Dr.,-74.4381635,North Park - 12,8535,NJ,-5:00,"700 Rike Dr. Millstone township, NJ 8535"
1072,5039,2017-11-16,Millstone township,North,40.2548225,700 Rike Dr.,-74.4381635,North Park - 13,8535,NJ,-5:00,"700 Rike Dr. Millstone township, NJ 8535"
1073,5040,2017-11-16,Millstone township,North,40.2548225,700 Rike Dr.,-74.4381635,North Park - 14,8535,NJ,-5:00,"700 Rike Dr. Millstone township, NJ 8535"
1074,5041,2017-11-16,Millstone township,North,40.2548225,700 Rike Dr.,-74.4381635,North Park - 15,8535,NJ,-5:00,"700 Rike Dr. Millstone township, NJ 8535"
1075,5043,2017-11-17,Fairfield,Fairfield,41.1935626,1013811708054,-73.2470486,Fairfield Warde High School - Carport,6825,CT,-5:00,"1013811708054 Fairfield, CT 6825"
1076,5049,2017-11-22,Norfolk,,42.0911305,18 Sharon Ave.,-71.30665350000001,,2056,MA,-5:00,"18 Sharon Ave. Norfolk, MA 2056"
1077,5062,2017-12-01,Murrysville,Tom,40.4555529,4018 Pin Oak Ct,-79.6955296,Tom Nenno,15668,PA,-5:00,"4018 Pin Oak Ct Murrysville, PA 15668"
1078,5063,2017-12-04,Dudley,,42.0560463,55 Oxford Ave.,-71.8838713,,1571,MA,-5:00,"55 Oxford Ave. Dudley, MA 1571"
1079,5087,2017-12-18,Spiceland,Spiceland,39.8400092,6385 S. State Road 3,-85.43034209999999,Spiceland Solar Park,47385,IN,-5:00,"6385 S. State Road 3 Spiceland, IN 47385"
1080,5088,2017-12-18,Flora,Flora,40.5352447,657 S. Willow St.,-86.5269318,Flora Solar Park,46929,IN,-5:00,"657 S. Willow St. Flora, IN 46929"
1081,5089,,,Greenfield,0.0,,0.0,,x,,,none
1082,5090,2017-12-18,Greenfield,Greenfield,39.79474829999999,535 N. Windswept Rd.,-85.815724,Greenfield Solar Park - 2,46140,IN,-5:00,"535 N. Windswept Rd. Greenfield, IN 46140"
1083,5092,2017-12-20,Anderson,Anderson,40.1405813,2202 N. Madison Ave.,-85.69066480000001,Anderson 2 South,46011,IN,-5:00,"2202 N. Madison Ave. Anderson, IN 46011"
1084,5093,2017-12-20,Anderson,Anderson,40.1405813,2202 N. Madison Ave.,-85.69066480000001,Anderson 2 North,46011,IN,-5:00,"2202 N. Madison Ave. Anderson, IN 46011"
1085,5094,2017-12-20,Avon,,42.1269734,74 Bodwell St.,-71.05562669999999,"AccuRounds, Inc.",2322,MA,-5:00,"74 Bodwell St. Avon, MA 2322"
1086,5098,2017-12-22,Randolph,,42.1821058,59 York Ave,-71.07215479999999,Air Draulic Engineering,2368,MA,-5:00,"59 York Ave Randolph, MA 2368"
1087,5099,2017-12-28,Billerica,,42.5300406,8 Suburban Park Dr,-71.2554031,Suburban Park-8 Realty Trust Corp.,1821,MA,-5:00,"8 Suburban Park Dr Billerica, MA 1821"
1088,5101,2017-12-28,E providence,,41.79905160000001,150 Amaral St,-71.34815449999999,150 Amaral St E Providence,2915,MA,-5:00,"150 Amaral St E providence, MA 2915"
1089,5102,2017-12-28,Beverly,,42.5697061,7 Reservoir Rd,-70.88064949999999,"Beverly Racquet and Fitness Club, Inc.",1915,MA,-5:00,"7 Reservoir Rd Beverly, MA 1915"
1090,5103,2017-12-28,Braintree,,42.2054002,144 Lundquist Dr.,-71.02981199999999,"Bay State Building Specialties, Inc.",2184,MA,-5:00,"144 Lundquist Dr. Braintree, MA 2184"
1091,5105,2017-12-28,Pepperell,,42.6739566,21 Lomar Park,-71.56673889999999,Astron Stamping,1463,MA,-5:00,"21 Lomar Park Pepperell, MA 1463"
1092,5110,2018-01-02,Rockland,,42.1628779,85 Longwater Dr.,-70.8886631,Airxchange,2370,MA,-5:00,"85 Longwater Dr. Rockland, MA 2370"
1093,5112,2018-01-10,Cranston,,41.7509865,40 Worthington Rd,-71.4462163,"Shanix, Inc.",2920,RI,-5:00,"40 Worthington Rd Cranston, RI 2920"
1094,5113,2018-05-17,Irvine,J_R,33.6863632,1901 Main St.,-117.8538373,,92614,CA,-8:00,"1901 Main St. Irvine, CA 92614"
1095,5123,2018-01-15,Bristol,,41.7046578,112 Tupelo St.,-71.26913859999999,Thurston Sails Inc.,2809,RI,-5:00,"112 Tupelo St. Bristol, RI 2809"
1096,5124,2018-02-08,Hyannis,,41.68247909999999,111 Thornton Dr.,-70.2983333,Davlin Realty- Phase 2,2601,MA,-5:00,"111 Thornton Dr. Hyannis, MA 2601"
1097,5126,2017-01-17,Richmond,,41.5148544,56 Stilson Road,-71.68733499999999,WED Stilson Solar,2989,RI,-5:00,"56 Stilson Road Richmond, RI 2989"
1098,5127,2018-01-17,Leeds,,42.3587303,118 River Rd.,-72.7015239,CRD Metalworks,1053,MA,-5:00,"118 River Rd. Leeds, MA 1053"
1099,5129,2018-01-18,Richmond,,41.5023211,144 Kingstown Road,-71.67007629999999,"WED Kingstown 1 Solar, LLC",2989,RI,-5:00,"144 Kingstown Road Richmond, RI 2989"
1100,5130,2018-01-18,Richmond,,41.5023211,144 Kingstown Road,-71.67007629999999,"WED Kingstown 2 Solar, LLC",2989,RI,-5:00,"144 Kingstown Road Richmond, RI 2989"
1101,5135,2018-01-23,Woburn,,42.5092195,17 Gill St.,-71.1461513,E.V. Yeuell Inc.,1801,MA,-5:00,"17 Gill St. Woburn, MA 1801"
1102,5142,2018-01-25,Beverly,,42.5716253,32 Tozer Rd.,-70.882212,Cell Signaling Technology - Beverly,1915,MA,-5:00,"32 Tozer Rd. Beverly, MA 1915"
1103,5144,2018-01-26,Danvers,,42.5701177,3 Trask Ln.,-70.9084654,Cell Signaling Technology - Danvers,1923,MA,-5:00,"3 Trask Ln. Danvers, MA 1923"
1104,5149,2018-02-02,Southbridge,,42.069461,54 Eastford Rd.,-72.0375186,Hyde Tools - Phase II,1550,MA,-5:00,"54 Eastford Rd. Southbridge, MA 1550"
1105,5151,2018-01-01,Norton,SED,41.9651933,176 S. Washington St.,-71.1436481,SED - Paradigm - Norton Roof Site,2766,,-5:00,"176 S. Washington St. Norton,  2766"
1106,5153,2018-02-06,Natick,,42.304476,325 Speen St.,-71.378067,"Cloverleaf Apartments, LLC",1760,MA,-5:00,"325 Speen St. Natick, MA 1760"
1107,5159,2018-02-14,Torrance,Pieper,33.8505008,19823 Hamilton Ave.,-118.2871036,Pieper,90502,CA,-8:00,"19823 Hamilton Ave. Torrance, CA 90502"
1108,5170,2018-02-16,Brockton,,42.0529172,1250 W. Chestnut St.,-71.0658408,SED - PPA - Brockton Area ARC,2301,MA,-5:00,"1250 W. Chestnut St. Brockton, MA 2301"
1109,5174,2018-02-22,Milford,,42.1588231,10 N. Vine St.,-71.5415156,MIS - Woodland Elementary School,1757,MA,-5:00,"10 N. Vine St. Milford, MA 1757"
1110,5176,2018-02-23,Leominster,Pioneer,42.531515,163 Pioneer Dr.,-71.7079361,Pioneer Solar LLC Phase II,1453,MA,-5:00,"163 Pioneer Dr. Leominster, MA 1453"
1111,5178,2018-02-28,Canton,Timberline,42.142003,300 Pine St.,-71.1296,Timberline Construction,2021,MA,-5:00,"300 Pine St. Canton, MA 2021"
1112,5180,2018-07-01,Ashby,,42.6789446,911 Main St.,-71.8230189,SED - North Middlesex Ashby Elementary,1431,MA,-5:00,"911 Main St. Ashby, MA 1431"
1113,5191,0000-00-00,Salt lake city,Packsize,40.7428858,3760 W. Smart Pack Way,-111.9816256,"Packsize International, LLC",84104,UT,-7:00,"3760 W. Smart Pack Way Salt lake city, UT 84104"
1114,5223,2018-04-05,Lenox,,42.402689,461 Pittsfield Rd.,-73.26632479999999,Toole Management Inc. (Yankee Inn),1240,MA,-5:00,"461 Pittsfield Rd. Lenox, MA 1240"
1115,5233,2018-04-02,Manchester-by-the-sea,,42.582067,36 Lincoln Street,-70.76624699999999,SED - Manchester Essex Regional School District,1944,MA,-5:00,"36 Lincoln Street Manchester-by-the-sea, MA 1944"
1116,5249,2018-04-17,Hopkinton,Marathon,42.2131146,129 Hayden Rowe St.,-71.5143224,Marathon Elementary School - Hopkinton,1748,MA,-5:00,"129 Hayden Rowe St. Hopkinton, MA 1748"
1117,5258,2018-04-24,Salem,,42.4940574,96 Swampscott Road,-70.922724,JWB Solar LLC,1970,MA,-5:00,"96 Swampscott Road Salem, MA 1970"
1118,5262,2018-04-25,Waltham,,42.3753682,40 Jones Rd.,-71.2699026,"40 Jones Road Realty, LLC",2451,MA,-5:00,"40 Jones Rd. Waltham, MA 2451"
1119,5270,2018-05-03,Hopkinton,,42.2281535,83 Wood St.,-71.54257609999999,SED - Hopkinton DPW,1748,MA,-5:00,"83 Wood St. Hopkinton, MA 1748"
1120,5272,2018-05-04,Natick,,42.3147443,13 Tech Circle,-71.33532129999999,,1760,MA,-5:00,"13 Tech Circle Natick, MA 1760"
1121,5273,2018-05-08,Natick,,42.2785022,83 Speen St.,-71.3758881,Stonegate - 83 Speen Street,1760,MA,-5:00,"83 Speen St. Natick, MA 1760"
1122,5300,2018-05-14,South easton,,42.0103895,250 Foundry St.,-71.0813143,SED - PO PPA - Southeastern Tech Roof,2375,MA,-5:00,"250 Foundry St. South easton, MA 2375"
1123,5309,2018-06-06,Charlottesville,Colonial,38.084906,200 Myers Dr.,-78.4731964,Colonial Nissan,22901,VA,-5:00,"200 Myers Dr. Charlottesville, VA 22901"
1124,5346,2018-07-13,Beverly,,42.55611409999999,480 Rantoul St.,-70.88087759999999,Beverly Crossing - 480 Rantoul,1915,MA,-5:00,"480 Rantoul St. Beverly, MA 1915"
1125,5352,2018-07-27,Pelham,Summer,33.289083,3140 Pelham Pkwy.,-86.81379640000002,Summer Classics - Pelham,35124,AL,-6:00,"3140 Pelham Pkwy. Pelham, AL 35124"
1126,5369,2018-08-01,Woburn,Lytron,42.5133572,55 Dragon Ct.,-71.12869789999999,Lytron Inc.,1801,MA,-5:00,"55 Dragon Ct. Woburn, MA 1801"
1127,5371,2018-09-11,Worcester,,42.2262663,150 Blackstone River Rd.,-71.7890592,"Blackstone River Road Solar, LLC (GFI)",1607,MA,-5:00,"150 Blackstone River Rd. Worcester, MA 1607"
1128,5380,2018-09-10,Acushnet,Rockett,41.680939,0 Wing Ln.,-70.896421,Rockett Solar,2743,MA,-5:00,"0 Wing Ln. Acushnet, MA 2743"
1129,5405,2018-11-01,Waltham,R_W_,42.3592418,184 Riverview Ave.,-71.2444515,,2453,MA,-5:00,"184 Riverview Ave. Waltham, MA 2453"
1130,5410,2018-10-29,Fairfax,Daniels,38.85120149999999,3729 Old Lee Hwy.,-77.2979558,Daniels Run Peace Church,22030,VA,-5:00,"3729 Old Lee Hwy. Fairfax, VA 22030"
1131,5434,2019-01-06,Oxford,New,42.4497797,4207 State Highway 220,-75.5769904,New York State Veterans Home,13830,NY,-5:00,"4207 State Highway 220 Oxford, NY 13830"
1132,5440,0000-00-00,Tyngsborough,,42.6975292,36 Norris Rd,-71.4082286,SED - Tyngsboro High School,1879,MA,-5:00,"36 Norris Rd Tyngsborough, MA 1879"
1133,5449,2018-12-04,Pacoma,M_D,34.2598054,12653 Osborne St,-118.4119289,,91331,CA,-8:00,"12653 Osborne St Pacoma, CA 91331"
1134,5483,2019-01-03,Leeds,CRD,42.3587303,118 River Road,-72.7015239,CRD Metalworks - 2,1053,MA,-5:00,"118 River Road Leeds, MA 1053"
1135,5487,2019-01-08,Manchester,,42.9591278,860 S. Porter St,-71.4348065,Naksh Hospitality LLC - Fairfield Inn Manchester,3103,NH,-5:00,"860 S. Porter St Manchester, NH 3103"
1136,5494,2019-01-02,Westford,TriPyramid,42.5451711,59 Powers Rd,-71.438749,TriPyramid Structures Inc,1886,MA,-5:00,"59 Powers Rd Westford, MA 1886"
1137,5495,2019-01-14,Avon,SED,42.1320501,61 Strafello Rd,-71.06221950000001,SED - PBD Events,2322,MA,-5:00,"61 Strafello Rd Avon, MA 2322"
1138,5497,0000-00-00,Marlborough,,42.3453027,55 Maple St,-71.5442513,Kane Self Storage,1752,MA,-5:00,"55 Maple St Marlborough, MA 1752"
1139,5511,2019-01-30,Newburyport,The,42.8108178,75 Water St.,-70.865461,The Tannery Marketplace,1950,MA,-5:00,"75 Water St. Newburyport, MA 1950"
1140,5520,2019-02-04,Brockton,Sign,42.05336459999999,170 Liberty Street,-71.0597124,"Sign Design, Inc.",2301,MA,-5:00,"170 Liberty Street Brockton, MA 2301"
1141,5541,2019-11-04,Bristol,,41.677513,6 Minturn Farm Rd,-71.256655,SED RI - Bristol Animal Shelter,2809,RI,-5:00,"6 Minturn Farm Rd Bristol, RI 2809"
1142,5543,2019-06-11,Bristol,,41.686608,4 Anawamscutt Ave,-71.260594,Bristol Fire and Rescue,2809,RI,-5:00,"4 Anawamscutt Ave Bristol, RI 2809"
1143,5544,2019-06-11,Bristol,,41.68660190000001,101 Asylum Rd,-71.2914436,Bristol Quinta Gamelin Center,2809,RI,-5:00,"101 Asylum Rd Bristol, RI 2809"
1144,5558,2019-04-03,Boston,,42.3403887,443 Albany St/580 Harrison Ave,-71.0652451,GTI-443 Albany(580 Harrison Ave),2118,MA,-5:00,"443 Albany St/580 Harrison Ave Boston, MA 2118"
1145,5559,2019-04-01,Framingham,,42.2732248,79 ARLINGTON STREET,-71.4168098,STONEGATE- 79 ARLINGTON ST FRAMINGHAM,1702,MA,-5:00,"79 ARLINGTON STREET Framingham, MA 1702"
1146,5561,2019-04-09,Totwa,,40.8961984,100 Bomont Place,-74.2192165,100 Bomont Pl,7512,NJ,-5:00,"100 Bomont Place Totwa, NJ 7512"
1147,5569,2019-05-23,Rutland,,42.3741928,285 Main Street,-71.9570835,SED PPA - Wachusett Reg Naquag School,1543,MA,-5:00,"285 Main Street Rutland, MA 1543"
1148,5570,2019-04-03,Salem,,42.505301,225A Canal Street,-70.894702,SED - Salem State-Gassett Fitness Center,1970,MA,-5:00,"225A Canal Street Salem, MA 1970"
1149,5571,2019-04-02,Bronx,,40.8028556,728 E 136th St,-73.9125593,728 E 136th St,10454,NY,-5:00,"728 E 136th St Bronx, NY 10454"
1150,5579,2019-08-06,La porte,City,41.585923,2101 Boyd Blvd,-86.688946,City of La Porte Indiana WWTP,46350,IN,-6:00,"2101 Boyd Blvd La porte, IN 46350"
1151,5581,2019-05-10,Bridgeport,O_G,41.1653558,325 Hancock Ave,-73.2111975,,6605,CT,-5:00,"325 Hancock Ave Bridgeport, CT 6605"
1152,5582,2019-05-13,Riverdale,Efird,36.4477053,20146 S Elm Ave,-119.7982167,Efird #25,93656,CA,-8:00,"20146 S Elm Ave Riverdale, CA 93656"
1153,5593,0000-00-00,Ashland,SED,42.258486,9 Cirrus Drive,-71.483749,SED - 9 Ashland Apartments,1721,MA,-5:00,"9 Cirrus Drive Ashland, MA 1721"
1154,5604,2019-01-01,Rutland,,42.3892409,65 Glenwood Road,-71.944302,SED Wachusett Reg Glenwood Elementary,1543,MA,-5:00,"65 Glenwood Road Rutland, MA 1543"
1155,5616,2019-06-06,Tipton,Tipton,40.2838928,3836 SR 28 West,-85.9421521,Tipton Solar Park #1,46072,IN,-5:00,"3836 SR 28 West Tipton, IN 46072"
1156,5617,2019-06-06,Tipton,Tipton,40.2838928,3836 SR 28 West,-85.9421521,Tipton Solar Park #2,46072,IN,-5:00,"3836 SR 28 West Tipton, IN 46072"
1157,5618,2019-06-06,Tipton,Tipton,40.2838928,3836 SR 28 West,-85.9421521,Tipton Solar Park #3,46072,IN,-5:00,"3836 SR 28 West Tipton, IN 46072"
1158,5622,2019-06-20,Torrington,O_G_Torrington,41.7782918,900 South Main Street,-73.1194242,,6790,CT,-5:00,"900 South Main Street Torrington, CT 6790"
1159,5624,2019-06-03,Haverhill,175,42.76024160000001,175 Ward Hill,-71.1171742,175 Ward Hill,1835,MA,-5:00,"175 Ward Hill Haverhill, MA 1835"
1160,5626,2019-06-11,Mendon,1,42.1041429,1 Emerson Street,-71.5574195,1 Emerson Street,1756,MA,-5:00,"1 Emerson Street Mendon, MA 1756"
1161,5627,2019-06-26,Woonsocket,Ralco,42.002756,84 Fairmount St,-71.521698,"Ralco Industries, Inc",2895,RI,-5:00,"84 Fairmount St Woonsocket, RI 2895"
1162,5629,2019-07-03,Fresno,Jack,36.704662,2671 S Cherry Ave,-119.781106,Jack Efird #35,93706,CA,-8:00,"2671 S Cherry Ave Fresno, CA 93706"
1163,5630,2019-06-06,Tipton,Tipton,40.2838928,3836 SR 28 West,-85.9421521,Tipton Solar Park #4,46072,IN,-5:00,"3836 SR 28 West Tipton, IN 46072"
1164,5631,2019-06-06,Tipton,Tipton,40.2838928,3836 SR 28 West,-85.9421521,Tipton Solar Park #5,46072,IN,-5:00,"3836 SR 28 West Tipton, IN 46072"
1165,5635,2019-07-17,Hyannis,SED,41.6606548,215 Iyannough Road,-70.2776666,SED - CCRTA Hyannis Canopy,2601,MA,-5:00,"215 Iyannough Road Hyannis, MA 2601"
1166,5637,2019-07-20,Medway,Rosenfeld,42.1590326,2 Marc Road,-71.39522699999999,Rosenfeld - Cultivation Facility,2053,MA,-5:00,"2 Marc Road Medway, MA 2053"
1167,5657,,,Volcano_Solar__LLC,0.0,,0.0,,x,,,none
1168,5665,2019-09-11,Sutton,Manchaug,42.09307030000001,9 Main Street,-71.74606419999999,Manchaug Mills Inc,1590,MA,-5:00,"9 Main Street Sutton, MA 1590"
1169,5680,2019-10-10,Needham,SUNITA,42.2993926,585 CENTRAL AVENUE,-71.2470405,SUNITA L. WILLIAMS ELEMENTARY SCHOOL,2494,MA,-5:00,"585 CENTRAL AVENUE Needham, MA 2494"
1170,5700,,,Tickle,0.0,,0.0,,x,,,none
1171,5702,2019-12-09,Molalla,Thomas,45.1316,32-893 S HWY 213,-122.621857,"Thomas Creek Solar, LLC - A",97038,OR,-8:00,"32-893 S HWY 213 Molalla, OR 97038"
1172,5703,,,Thomas_Creek_Solar__LLC,0.0,,0.0,,x,,,none
1173,5709,2019-12-12,Dedham,,42.2443828,70 Whiting Ave,-71.1662705,Town of Dedham - Middleschool,2026,MA,-5:00,"70 Whiting Ave Dedham, MA 2026"
1174,5744,2020-01-27,Medford,SED,42.4090902,161 College Ave,-71.1154068,SED Tufts University - Gantcher Center,2155,MA,-5:00,"161 College Ave Medford, MA 2155"
